PARK NUMBER,PARK NAME,STREET ADDRESS,ZIP,ACRES,WARD,PARK CLASS,LABEL,WHEELCHAIR ACCESSIBLE BALL FIELDS,ALFRED CALDWELL LILY POND,ARCHERY RANGE,ARTIFICIAL TURF FIELDS,BAND SHELL,BASEBALL BATTING CAGES,BASKETBALL BACKBOARDS,BASKETBALL COURTS,BEACH,BOAT LAUNCH (MOTORIZED),BOAT LAUNCH (NON-MOTORIZED),BOAT SLIPS,BOCCE COURT,BOWLING GREEN,CASTING AREA,CHESS PAVILLION,FOOTBALL SOCCER COMBO,COMMUNITY GARDEN,CONSERVATORY,CULTURAL CENTER,DOG-FRIENDLY,FITNESS CENTER,FITNESS COURSES,GALLERY,GARDEN,GOLF COURSE,GOLF DRIVING RANGE,GOLF PUTTING GREENS,GYMNASIUM,GYMNASTIC CENTERS,HANDBALL/RAQUETBALL COURT,HANDBALL,HORSESHOE COURTS,ICE SKATING,POOL INDOOR,BASEBALL JR/SOFTBALL/T-BALL,MOUNTAIN BIKE TRAIL,NATURE CENTER,POOL OUTDOOR,PAVILLION,ZOO,PLAYGROUND,PLAYGROUND PARK,ROWING CLUB,VOLLEYBALL,SENIOR CENTER,SHUFFLEBOARD,SKATE PARK,SLED HILL,SPORT ROLLER COURTS,SPRAY FEATURE,BASEBALL SR,TENNIS COURTS,TRACK,VOLLEYBALL SAND,WATER PLAYGROUND,WATER SLIDE,BOXING CENTER,WETLAND AREA,LAGOON,CAROUSEL,CROQUET,GOLF COURSE MINIATURE,MODEL TRAIN DISPLAY,MODEL YACHT BASIN,CRICKET FIELD,LOCATION,LATITUDE,LONGITUDE,NORM ACRES
1162,MCKEON (JOSEPH),600 W 36TH ST,60609.0,0.4,11,MINI-PARK,McKeon,0,0,0,0,0,0,0,0,0,0,0,0,0,0,0,0,0,0,0,0,0,0,0,0,0,0,0,0,0,0,0,0,0,0,0,0,0,0,0,0,0,0,1,0,0,0,0,0,0,0,0,0,0,0,0,0,0,0,0,0,0,0,0,0,0,0,"600 W 36TH ST60609
(41.82903552510654, -87.64121494764093)",41.8290355,-87.6412149,0.6324555
1139,OHIO,4712 W OHIO ST,60644.0,0.42,37,MINI-PARK,Ohio,0,0,0,0,0,0,2,1,0,0,0,0,0,0,0,0,0,0,0,0,0,0,0,0,0,0,0,0,0,0,0,0,0,0,0,0,0,0,0,0,0,1,0,0,0,0,0,0,0,0,1,0,0,0,0,0,0,0,0,0,0,0,0,0,0,0,"4712 W OHIO ST60644
(41.89145773962588, -87.74324905079695)",41.8914577,-87.7432491,0.6480741
206,ALTGELD (JOHN),515 S WASHTENAW AVE,60612.0,4.32,27,COMMUNITY PARK,Altgeld,0,0,0,0,0,0,2,1,0,0,0,0,0,0,0,0,1,0,0,0,0,1,0,0,0,0,0,0,1,0,0,0,0,0,0,3,0,0,1,0,0,1,0,0,0,0,0,0,0,0,0,1,0,0,0,0,0,0,0,0,0,0,0,0,0,0,"515 S WASHTENAW AVE60612
(41.87472755936259, -87.69364670414106)",41.8747276,-87.6936467,2.078461
468,PARK NO. 468,4556 W 56TH ST,60629.0,1.32,13,UNIMPROVED PARK,Park No. 468,0,0,0,0,0,0,0,0,0,0,0,0,0,0,0,0,0,0,0,0,0,0,0,0,0,0,0,0,0,0,0,0,0,0,0,0,0,0,0,0,0,0,0,0,0,0,0,0,0,0,0,0,0,0,0,0,0,0,0,0,0,0,0,0,0,0,"4556 W 56TH ST60629
(41.791344140064204, -87.73694106533623)",41.7913441,-87.7369411,1.1489125
33,RAINEY (EDWARD),4350 W 79TH ST,60652.0,18.31,13,REGIONAL PARK,Rainey,0,0,0,0,0,0,0,0,0,0,0,0,0,0,0,0,1,0,0,0,0,0,0,0,0,0,0,0,0,0,0,0,0,0,0,2,0,0,0,0,0,1,0,0,1,0,0,0,0,0,0,2,3,0,0,0,0,0,0,0,0,0,0,0,0,0,"4350 W 79TH ST60652
(41.749472777639994, -87.73073129753891)",41.7494728,-87.7307313,4.2790186
260,KELLY (EDWARD),2725 W 41ST ST,60632.0,7.08,12,COMMUNITY PARK,Kelly (Edward),0,0,0,0,0,0,4,2,0,0,0,0,0,0,0,0,1,0,0,0,0,0,0,0,0,0,0,0,0,0,0,0,0,0,0,3,0,0,0,0,0,1,0,0,0,0,0,0,0,0,0,1,0,0,0,0,0,0,0,0,0,0,0,0,0,0,"2725 W 41ST ST60632
(41.81925144080563, -87.6935789046583)",41.8192514,-87.6935789,2.6608269
59,ORIOLE,5430 N OLCOTT AVE,60656.0,18.57,41,REGIONAL PARK,Oriole,0,0,0,0,0,0,3,1,0,0,0,0,0,0,0,0,2,0,0,0,0,0,0,0,0,0,0,0,1,0,0,0,0,0,0,3,0,0,0,0,0,2,0,0,0,0,0,0,0,0,1,4,3,0,0,0,0,0,0,0,0,0,0,0,0,0,"5430 N OLCOTT AVE60656
(41.979752471520555, -87.81386669629548)",41.9797525,-87.8138667,4.3092923
1288,JACOLIK (FLORIAN S.),2731 S ELEANOR ST,60608.0,0.3,11,MINI-PARK,Jacolik,0,0,0,0,0,0,0,0,0,0,0,0,0,0,0,0,0,0,0,0,0,0,0,0,0,0,0,0,0,0,0,0,0,0,0,0,0,0,0,0,0,0,1,0,0,0,0,0,0,0,0,0,0,0,0,0,0,0,0,0,0,0,0,0,0,0,"2731 S ELEANOR ST60608
(41.84436269126238, -87.66051993335817)",41.8443627,-87.6605199,0.5477226
1109,HUBBARD (GURDON),4950 W HUBBARD ST,60644.0,0.48,37,MINI-PARK,Hubbard,0,0,0,0,0,0,2,1,0,0,0,0,0,0,0,0,0,0,0,0,0,0,0,0,0,0,0,0,0,0,0,0,0,0,0,0,0,0,0,0,0,1,0,0,0,0,0,0,0,0,0,0,0,0,0,0,0,0,0,0,0,0,0,0,0,0,"4950 W HUBBARD ST60644
(41.888705639096074, -87.74927358256419)",41.8887056,-87.7492736,0.6928203
10,MARQUETTE (JACQUES),6734 S KEDZIE AVE,60629.0,322.68,0,CITYWIDE PARK,Marquette,0,0,0,1,0,0,8,3,0,0,0,0,0,0,1,0,13,0,0,0,0,0,0,0,0,1,1,0,2,0,0,0,3,0,0,2,0,0,0,0,0,2,0,0,0,0,0,0,0,0,1,0,16,1,0,0,0,0,0,1,0,0,0,0,0,0,"6734 S KEDZIE AVE60629
(41.77145233302823, -87.70305177751246)",41.7714523,-87.7030518,17.9632959
450,LAZARUS (EMMA),1257 W COLUMBIA AVE,60626.0,0.16,49,MINI-PARK,Lazarus,0,0,0,0,0,0,0,0,0,0,0,0,0,0,0,0,0,0,0,0,0,0,0,0,0,0,0,0,0,0,0,0,0,0,0,0,0,0,0,0,0,0,1,0,0,0,0,0,0,0,0,0,0,0,0,0,0,0,0,0,0,0,0,0,0,0,"1257 W COLUMBIA AVE60626
(42.004467508894585, -87.66241713234905)",42.0044675,-87.6624171,0.4
124,SIMONS (ALMIRA),1640 N DRAKE AVE,60647.0,1.02,31,COMMUNITY PARK,Simons,0,0,0,0,0,0,2,1,0,0,0,0,0,0,0,0,0,0,0,0,0,0,0,0,0,0,0,0,1,1,0,0,0,0,0,0,0,0,0,0,0,1,0,0,0,0,0,0,0,0,1,0,0,0,0,0,0,1,0,0,0,0,0,0,0,0,"1640 N DRAKE AVE60647
(41.910765224265056, -87.71501213124064)",41.9107652,-87.7150121,1.0099505
382,PARK NO. 382,8116 S HALSTED ST,60620.0,0.67,21,NEIGHBORHOOD PARK,Park No. 382,0,0,0,0,0,0,0,0,0,0,0,0,0,0,0,0,0,0,0,0,0,0,0,0,0,0,0,0,0,0,0,0,0,0,0,0,0,0,0,0,0,0,0,0,0,0,0,0,0,0,0,0,0,0,0,0,0,0,0,0,0,0,0,0,0,0,"8116 S HALSTED ST60620
(41.74665876685081, -87.64400366412234)",41.7466588,-87.6440037,0.8185353
1094,DOBSON,7521 S DOBSON AVE,60619.0,0.29,6,MINI-PARK,Dobson,0,0,0,0,0,0,0,0,0,0,0,0,0,0,0,0,0,0,0,0,0,0,0,0,0,0,0,0,0,0,0,0,0,0,0,0,0,0,0,0,0,0,1,0,0,0,0,0,0,0,0,0,0,0,0,0,0,0,0,0,0,0,0,0,0,0,"7521 S DOBSON AVE60619
(41.75771290874223, -87.59920670615877)",41.7577129,-87.5992067,0.5385165
388,WASHINGTON (DINAH),8215 S EUCLID AVE,60617.0,0.42,8,MINI-PARK,Washington (Dinah),0,0,0,0,0,0,0,0,0,0,0,0,0,0,0,0,0,0,0,0,0,0,0,0,0,0,0,0,0,0,0,0,0,0,0,0,0,0,0,0,0,0,1,0,0,0,0,0,0,0,0,0,0,0,0,0,0,0,0,0,0,0,0,0,0,0,"8215 S EUCLID AVE60617
(41.74599224839152, -87.57701688886063)",41.7459922,-87.5770169,0.6480741
436,PERIWINKLE,100 W 66TH ST,60621.0,0.51,16,NEIGHBORHOOD PARK,Periwinkle,0,0,0,0,0,0,0,0,0,0,0,0,0,0,0,0,0,0,0,0,0,0,0,0,0,0,0,0,0,0,0,0,0,0,0,0,0,0,0,0,0,0,1,0,0,0,0,0,0,0,0,0,0,0,0,0,0,0,0,0,0,0,0,0,0,0,"100 W 66TH ST60621
(41.77458348452712, -87.62779942846547)",41.7745835,-87.6277994,0.7141428
322,BIRCH,427 E 45TH ST,60653.0,0.14,3,MINI-PARK,Birch,0,0,0,0,0,0,0,0,0,0,0,0,0,0,0,0,0,0,0,0,0,0,0,0,0,0,0,0,0,0,0,0,0,0,0,0,0,0,0,0,0,0,1,0,0,0,0,0,0,0,0,0,0,0,0,0,0,0,0,0,0,0,0,0,0,0,"427 E 45TH ST60653
(41.81297972282735, -87.61570665840489)",41.8129797,-87.6157067,0.3741657
65,FERNWOOD,10436 S WALLACE ST,60628.0,12.33,34,COMMUNITY PARK,Fernwood,0,0,0,0,0,0,4,2,0,0,0,0,0,0,0,0,1,0,0,0,0,1,0,0,0,0,0,0,1,0,0,0,0,0,1,1,0,0,0,0,0,1,0,0,0,0,0,0,0,0,1,1,4,0,0,0,0,0,0,0,0,0,0,0,0,0,"10436 S WALLACE ST60628
(41.704483995705026, -87.63796824326396)",41.704484,-87.6379682,3.51141
428,WARREN (LAURENCE),6621 N WESTERN AVE,60645.0,87.61,50,CITYWIDE PARK,Warren,0,0,0,0,0,1,12,4,0,0,0,0,0,0,0,0,3,0,0,0,0,0,0,0,0,1,0,1,1,0,1,0,2,1,0,3,0,0,0,0,0,3,0,0,0,0,1,0,1,0,0,2,6,0,0,0,0,0,0,0,0,1,0,0,0,0,"6621 N WESTERN AVE60645
(42.001903187081425, -87.68991553987459)",42.0019032,-87.6899155,9.3600214
451,SUN YAT-SEN,300 W 24TH PL,60616.0,0.32,1,MINI-PARK,Sun Yat-Sen,0,0,0,0,0,0,0,0,0,0,0,0,0,0,0,0,0,0,0,0,0,0,0,0,0,0,0,0,0,0,0,0,0,0,0,0,0,0,0,0,0,1,0,0,0,0,0,0,0,0,0,0,0,0,0,0,0,0,0,0,0,0,0,0,0,0,"300 W 24TH PL60616
(41.84827120012017, -87.63475430693008)",41.8482712,-87.6347543,0.5656854
518,PARK NO. 518,1750 W JUNEWAY TER,60626.0,1.99,49,PASSIVE PARK,Park No. 518,0,0,0,0,0,0,0,0,0,0,0,0,0,0,0,0,0,1,0,0,0,0,0,0,0,0,0,0,0,0,0,0,0,0,0,0,0,0,0,0,0,0,0,0,0,0,0,0,0,0,0,0,0,0,0,0,0,0,0,0,0,0,0,0,0,0,"1750 W JUNEWAY TER60626
(42.022583471519035, -87.67364469534711)",42.0225835,-87.6736447,1.4106736
131,CRAGIN,2611 N LOCKWOOD AVE,60639.0,2.8,30,NEIGHBORHOOD PARK,Cragin,0,0,0,0,0,0,0,0,0,0,0,0,0,0,0,0,1,0,0,0,0,0,0,0,0,0,0,0,0,0,0,0,0,0,0,2,0,0,0,0,0,1,0,0,0,0,0,0,0,1,1,0,2,0,0,0,0,0,0,0,0,0,0,0,0,0,"2611 N LOCKWOOD AVE60639
(41.92807626727084, -87.7586887027268)",41.9280763,-87.7586887,1.6733201
232,ECKERSALL (WALTER HERBERT),2430 E 82ND ST,60617.0,2.95,7,NEIGHBORHOOD PARK,Eckersall,0,0,0,0,0,0,2,1,0,0,0,0,0,0,0,0,0,0,0,0,0,0,0,0,0,0,0,0,0,0,0,0,0,0,0,0,0,0,0,0,0,1,0,0,0,0,0,0,0,0,0,0,0,0,0,0,0,0,0,0,0,0,0,0,0,0,"2430 E 82ND ST60617
(41.746325150537416, -87.56549178643115)",41.7463252,-87.5654918,1.7175564
1058,PIETROWSKI (SYLVESTER),9650 S AVENUE M,60617.0,0.55,10,NEIGHBORHOOD PARK,Pietrowski,0,0,0,0,0,0,2,1,0,0,0,0,0,0,0,0,0,0,0,0,0,0,0,0,0,0,0,0,0,0,0,0,0,0,0,0,0,0,0,0,0,1,0,0,0,0,0,0,0,0,0,0,0,0,0,0,0,0,0,0,0,0,0,0,0,0,"9650 S AVENUE M60617
(41.72038840136307, -87.53775699966637)",41.7203884,-87.537757,0.7416198
373,"BLACKWELDER (I.S., GERTRUDE)",1800 W 115TH ST,60643.0,5.05,19,COMMUNITY PARK,Blackwelder,0,0,0,0,0,0,4,1,0,0,0,0,0,0,0,0,1,0,0,0,0,0,0,0,0,0,0,0,0,0,0,0,0,0,0,1,0,0,0,0,0,1,0,0,0,0,0,0,0,0,0,0,0,0,0,0,0,0,0,0,0,0,0,0,0,0,"1800 W 115TH ST60643
(41.68478426640253, -87.66639909058227)",41.6847843,-87.6663991,2.2472205
391,EDMONDS (MOLLY),711 W 60TH PL,60621.0,0.31,16,MINI-PARK,Edmonds,0,0,0,0,0,0,0,0,0,0,0,0,0,0,0,0,0,0,0,0,0,0,0,0,0,0,0,0,0,0,0,0,0,0,0,0,0,0,0,0,0,0,1,0,0,0,0,0,0,0,0,0,0,0,0,0,0,0,0,0,0,0,0,0,0,0,"711 W 60TH PL60621
(41.78415225636046, -87.64278433276343)",41.7841523,-87.6427843,0.5567764
93,GLADSTONE (WILLIAM),5421 N MENARD AVE,60630.0,1.25,45,NEIGHBORHOOD PARK,Gladstone,0,0,0,0,0,0,4,1,0,0,0,0,0,0,0,0,0,0,0,0,0,0,0,0,0,0,0,0,0,0,0,0,0,0,0,1,0,0,0,0,0,1,0,0,0,0,0,0,0,0,1,0,0,0,0,0,0,0,0,0,0,0,0,0,0,0,"5421 N MENARD AVE60630
(41.979014285330436, -87.7731836878807)",41.9790143,-87.7731837,1.118034
562,PARK NO. 562,1735-37 E 96TH ST,60643.0,140.33,7,NATURE PRESERVE PARK,Park No. 562,0,0,0,0,0,0,0,0,0,0,0,0,0,0,0,0,0,0,0,0,0,0,0,0,0,0,0,0,0,0,0,0,0,0,0,0,0,0,0,0,0,0,0,0,0,0,0,0,0,0,0,0,0,0,0,0,0,0,0,0,0,0,0,0,0,0,"1735-37 E 96TH ST60643
(41.696250000000134, -87.66084000000001)",41.69625,-87.66084,11.8460964
254,BEVERLY,2460 W 102ND ST,60655.0,13.06,19,COMMUNITY PARK,Beverly,0,0,0,0,0,0,0,0,0,0,0,0,0,0,0,0,1,0,0,0,0,0,0,0,0,0,0,0,0,0,0,0,0,0,0,4,0,0,0,0,0,1,0,0,1,0,0,0,0,0,1,1,4,0,1,0,0,0,0,0,0,0,0,0,0,0,"2460 W 102ND ST60655
(41.70826182926257, -87.6831926368982)",41.7082618,-87.6831926,3.6138622
201,LA FOLLETTE (ROBERT),1333 N LARAMIE AVE,60651.0,17.35,37,REGIONAL PARK,La Follette,0,0,0,1,0,0,2,1,0,0,0,0,0,0,0,0,1,0,0,0,0,1,0,0,0,0,0,0,1,0,0,0,0,0,1,4,0,0,0,0,0,2,0,0,0,0,0,0,0,0,0,0,3,1,0,1,0,0,0,0,0,0,0,0,0,0,"1333 N LARAMIE AVE60651
(41.90466174990119, -87.75574100187293)",41.9046617,-87.755741,4.1653331
1220,LEVIN (JOHN),462 N PINE AVE,60644.0,5.76,37,COMMUNITY PARK,Levin,0,0,0,0,0,0,4,1,0,0,0,0,0,0,0,0,0,0,0,0,0,0,0,0,0,0,0,0,0,0,0,0,0,0,0,1,0,0,0,0,0,1,0,0,0,0,0,0,0,0,1,0,0,0,0,0,0,0,0,0,0,0,0,0,0,0,"462 N PINE AVE60644
(41.88898696426592, -87.76339047119167)",41.888987,-87.7633905,2.4
538,THILLENS,6400 N KEDZIE,60645.0,28.79,0,CITYWIDE PARK,Thillens,0,0,0,0,0,0,0,0,0,0,0,0,0,0,0,0,0,0,0,0,0,0,0,0,0,0,0,0,0,0,0,0,0,0,0,0,0,0,0,0,0,0,0,0,0,0,0,0,0,0,0,2,0,0,0,0,0,0,0,0,0,0,0,0,0,0,"6400 N KEDZIE60645
(41.99744163905919, -87.70939373367877)",41.9974416,-87.7093937,5.3656314
1071,WILSON (JOHN),1122 W 34TH PL,60608.0,1.43,11,NEIGHBORHOOD PARK,Wilson (John),0,0,0,0,0,0,0,0,0,0,0,0,0,0,0,0,0,0,0,0,0,0,0,0,0,0,0,0,0,0,0,0,0,0,0,0,0,0,0,0,0,1,0,0,0,0,0,0,0,0,1,0,0,0,0,0,0,0,0,0,0,0,0,0,0,0,"1122 W 34TH PL60608
(41.831621507167334, -87.65398994915431)",41.8316215,-87.6539899,1.1958261
426,BRIGHTON,3501 S RICHMOND ST,60632.0,0.94,12,NEIGHBORHOOD PARK,Brighton,0,0,0,0,0,0,4,1,0,0,0,0,0,0,0,0,0,0,0,0,0,0,0,0,0,0,0,0,0,0,0,0,0,0,0,0,0,0,0,0,0,1,0,0,0,0,0,0,0,0,0,0,0,0,0,0,0,0,0,0,0,0,0,0,0,0,"3501 S RICHMOND ST60632
(41.82989607617184, -87.69841765816344)",41.8298961,-87.6984177,0.969536
280,SPRUCE,1437 E 54TH ST,60615.0,1.08,4,NEIGHBORHOOD PARK,Spruce,0,0,0,0,0,0,0,0,0,0,0,0,0,0,0,0,0,0,0,0,0,0,0,0,0,0,0,0,0,0,0,0,0,0,0,0,0,0,0,0,0,1,0,0,0,0,0,0,0,0,0,0,0,0,0,0,0,0,0,0,0,0,0,0,0,0,"1437 E 54TH ST60615
(41.79798471680102, -87.59074419562707)",41.7979847,-87.5907442,1.0392305
550,CHICAGO WOMEN'S PARK AND GARDENS,1801 S INDIANA AVE,60616.0,3.08,2,NEIGHBORHOOD PARK,Chicago Womens' Park & Garden,0,0,0,0,0,0,0,0,0,0,0,0,0,0,0,0,0,0,0,0,0,0,0,0,1,0,0,0,0,0,0,0,0,0,0,0,0,0,0,0,0,0,0,0,0,0,0,0,0,0,0,0,0,0,0,0,0,0,0,0,0,0,0,0,0,0,"1801 S INDIANA AVE60616
(41.8576063949842, -87.62230975314412)",41.8576064,-87.6223098,1.7549929
1079,KRAUSE (FRANCIS VERNON),10558 S AVENUE L,60617.0,0.12,10,MINI-PARK,Krause,0,0,0,0,0,0,0,0,0,0,0,0,0,0,0,0,0,0,0,0,0,0,0,0,0,0,0,0,0,0,0,0,0,0,0,0,0,0,0,0,0,0,1,0,0,0,0,0,0,0,1,0,0,0,0,0,0,0,0,0,0,0,0,0,0,0,"10558 S AVENUE L60617
(41.70348915878308, -87.53652862909928)",41.7034892,-87.5365286,0.3464102
165,INDIAN BOUNDARY,2500 W LUNT AVE,60645.0,13.06,50,REGIONAL PARK,Indian Boundary,0,0,0,0,0,0,0,0,0,0,0,0,0,0,0,0,0,1,0,1,0,0,0,0,0,0,0,0,0,0,0,0,0,0,0,0,0,0,0,0,1,1,0,0,1,0,0,0,0,0,1,0,4,0,0,0,0,0,0,1,0,0,0,0,0,0,"2500 W LUNT AVE60645
(42.00866637970455, -87.6922073994986)",42.0086664,-87.6922074,3.6138622
1036,HOYNE (THOMAS),3417 S HAMILTON AVE,60608.0,2.01,12,NEIGHBORHOOD PARK,Hoyne,0,0,0,0,0,0,6,1,0,0,0,0,0,0,0,0,1,0,0,0,0,0,0,0,0,0,0,0,0,0,0,0,2,0,0,1,0,0,0,0,0,1,0,0,0,0,0,0,0,0,0,0,0,0,1,0,0,0,0,0,0,0,0,0,0,0,"3417 S HAMILTON AVE60608
(41.831860596609225, -87.67891846917935)",41.8318606,-87.6789185,1.4177447
1223,MYRTLE GROVE,6113 N NEVA AVE,60631.0,1.01,41,PASSIVE PARK,Myrtle Grove,0,0,0,0,0,0,0,0,0,0,0,0,0,0,0,0,0,0,0,0,0,0,0,0,0,0,0,0,0,0,0,0,0,0,0,0,0,0,0,0,0,0,0,0,0,0,0,0,0,0,0,0,0,0,0,0,0,0,0,0,0,0,0,0,0,0,"6113 N NEVA AVE60631
(41.99248187596033, -87.80555118896103)",41.9924819,-87.8055512,1.0049876
1001,RAINBOW BEACH,2873 E 75TH ST,60649.0,64.14,10,CITYWIDE PARK,Rainbow Beach,0,0,0,0,0,0,10,4,1,0,0,0,0,0,0,0,1,0,0,0,0,1,0,0,0,0,0,0,1,0,0,3,0,0,0,3,0,0,0,0,0,1,0,0,0,0,0,0,0,0,0,1,12,0,0,0,0,0,0,0,0,0,0,0,0,0,"2873 E 75TH ST60649
(41.761489999999924, -87.56871999999998)",41.76149,-87.56872,8.0087452
485,KENNICOTT (JONATHAN),4434 S LAKE PARK AVE,60653.0,2.5,4,COMMUNITY PARK,Kennicott,0,0,0,0,0,0,0,0,0,0,0,0,0,0,0,0,1,0,0,0,0,1,0,0,0,0,0,0,1,0,0,0,0,0,0,0,0,0,0,0,0,1,0,0,0,0,0,0,0,0,0,0,0,0,0,0,0,0,0,0,0,0,0,0,0,0,"4434 S LAKE PARK AVE60653
(41.813990680663416, -87.5968030911139)",41.8139907,-87.5968031,1.5811388
1091,CLYBOURN (ARCHIBALD),1755 N CLYBOURN AVE,60614.0,0.46,43,MINI-PARK,Clybourn,0,0,0,0,0,0,2,1,0,0,0,0,0,0,0,0,0,0,0,0,0,0,0,0,0,0,0,0,0,0,0,0,0,0,0,0,0,0,0,0,0,0,1,0,0,0,0,0,0,0,0,0,0,0,0,0,0,0,0,0,0,0,0,0,0,0,"1755 N CLYBOURN AVE60614
(41.913068067405, -87.65243755879715)",41.9130681,-87.6524376,0.678233
1033,HARDING (GEORGE),4912 S CALUMET AVE,60615.0,0.65,3,NEIGHBORHOOD PARK,Harding (George),0,0,0,0,0,0,1,1,0,0,0,0,0,0,0,0,0,0,0,0,0,0,0,0,0,0,0,0,0,0,0,0,0,0,0,0,0,0,0,0,0,1,0,0,0,0,0,0,0,0,0,0,0,0,1,0,0,0,0,0,0,0,0,0,0,0,"4912 S CALUMET AVE60615
(41.80544231703133, -87.61812558678079)",41.8054423,-87.6181256,0.8062258
275,RONAN (GEORGE),3000 W ARGYLE ST,60625.0,13.86,33,NEIGHBORHOOD PARK,Ronan,0,0,0,0,0,0,0,0,0,0,0,0,0,0,0,0,0,0,0,0,0,0,0,0,0,0,0,0,0,0,0,0,0,0,0,0,0,0,0,0,0,1,0,0,0,0,0,0,0,0,0,0,0,0,0,0,0,0,0,0,0,0,0,0,0,0,"3000 W ARGYLE ST60625
(41.972180578990766, -87.70386394284618)",41.9721806,-87.7038639,3.7229021
13,PALMER (POTTER),200 E 111TH ST,60628.0,40.48,9,REGIONAL PARK,Palmer,0,0,0,0,0,0,4,2,0,0,0,0,0,0,0,0,1,0,0,0,0,1,0,0,0,0,0,0,1,0,0,0,0,0,0,5,0,0,1,0,0,1,0,0,0,0,0,0,0,1,1,2,9,0,0,0,1,0,0,0,0,0,0,0,0,0,"200 E 111TH ST60628
(41.69271709407591, -87.61818119094679)",41.6927171,-87.6181812,6.3623895
9,HAMILTON (ALEXANDER),513 W 72ND ST,60621.0,29.95,17,REGIONAL PARK,Hamilton,0,0,0,0,0,0,4,2,0,0,0,0,0,0,0,0,2,0,0,1,0,0,0,0,0,0,0,0,2,0,0,2,0,0,0,4,0,0,1,0,0,1,0,0,0,0,0,0,0,0,1,2,8,0,0,0,0,0,0,0,0,0,0,0,0,0,"513 W 72ND ST60621
(41.763434745308714, -87.63746326323128)",41.7634347,-87.6374633,5.4726593
1132,MORGAN (THOMAS LEEDS) FIELD,11710 S MORGAN ST,60643.0,2.84,34,NEIGHBORHOOD PARK,Morgan Field,0,0,0,0,0,0,6,3,0,0,0,0,0,0,0,0,0,0,0,0,0,0,0,0,0,0,0,0,0,0,0,0,0,0,0,0,0,0,0,0,0,1,0,0,0,0,0,0,0,0,0,0,0,0,0,0,0,0,0,0,0,0,0,0,0,0,"11710 S MORGAN ST60643
(41.68113721674697, -87.6469446831586)",41.6811372,-87.6469447,1.68523
1052,MUNROE,2617 W 105TH ST,60655.0,5.36,19,COMMUNITY PARK,Munroe,0,0,0,0,0,0,0,0,0,0,0,0,0,0,0,0,1,0,0,0,0,0,0,0,0,0,0,0,0,0,0,0,0,0,0,2,0,0,0,0,0,1,0,0,1,0,0,0,0,0,1,0,2,1,0,0,0,0,0,0,0,0,0,0,0,0,"2617 W 105TH ST60655
(41.702625366216125, -87.68705830121839)",41.7026254,-87.6870583,2.3151674
66,EUCLID,9800 S PARNELL AVE,60628.0,5.63,21,COMMUNITY PARK,Euclid,0,0,0,0,0,0,4,2,0,0,0,0,0,0,0,0,1,0,0,0,0,0,0,0,0,0,0,0,0,0,0,0,0,0,0,2,0,0,0,0,0,1,0,0,0,0,0,0,0,0,1,0,2,0,0,0,0,0,0,0,0,0,0,0,0,0,"9800 S PARNELL AVE60628
(41.71607792886038, -87.63706013315687)",41.7160779,-87.6370601,2.3727621
1053,MURRAY (DAVID),1743 W 73RD ST,60636.0,3.04,17,NEIGHBORHOOD PARK,Murray,0,0,0,0,0,0,2,1,0,0,0,0,0,0,0,0,1,0,0,0,0,0,0,0,0,0,0,0,0,0,0,0,0,0,0,1,0,0,0,0,0,1,0,0,0,0,0,0,0,0,1,1,0,0,0,0,0,0,0,0,0,0,0,0,0,0,"1743 W 73RD ST60636
(41.76116223710329, -87.66758737973429)",41.7611622,-87.6675874,1.7435596
532,PARK NO. 532,4101 S. LAKE PARK AVE,60653.0,2.85,4,NEIGHBORHOOD PARK,Park No. 532,0,0,0,0,0,0,0,0,0,0,0,0,0,0,0,0,0,0,0,0,0,0,0,0,0,0,0,0,0,0,0,0,0,0,0,0,0,0,0,0,0,0,0,0,0,0,0,0,0,0,0,0,0,0,0,0,0,0,0,0,0,0,0,0,0,0,"4101 S. LAKE PARK AVE60653
(41.819601888571725, -87.6004776351086)",41.8196019,-87.6004776,1.6881943
1260,NORTH SHORE BEACH,1040 W NORTH SHORE AVE,60626.0,0.66,49,PASSIVE PARK,North Shore Beach,0,0,0,0,0,0,0,0,0,0,0,0,0,0,0,0,0,0,0,0,0,0,0,0,0,0,0,0,0,0,0,0,0,0,0,0,0,0,0,0,0,0,0,0,0,0,0,0,0,0,0,0,0,0,0,0,0,0,0,0,0,0,0,0,0,0,"1040 W NORTH SHORE AVE60626
(42.00372118627414, -87.65806654411683)",42.0037212,-87.6580665,0.8124038
19,JACKSON (ANDREW),6401 S STONY ISLAND AVE,60637.0,542.89,5,MAGNET PARK,Jackson (Andrew),0,0,0,1,0,0,8,4,2,0,1,3,0,2,0,0,4,0,0,0,0,1,0,0,2,1,1,0,1,0,0,0,0,0,0,6,0,0,0,0,0,6,0,0,0,0,0,0,0,0,0,2,24,1,0,1,0,0,0,2,0,1,0,0,0,0,"6401 S STONY ISLAND AVE60637
(41.77871315945346, -87.58634165308793)",41.7787132,-87.5863417,23.3
1251,COLUMBIA BEACH,1040 W COLUMBIA AVE,60626.0,0.32,49,PASSIVE PARK,Columbia Beach,0,0,0,0,0,0,0,0,1,0,0,0,0,0,0,0,0,0,0,0,0,0,0,0,0,0,0,0,0,0,0,0,0,0,0,0,0,0,0,0,0,0,0,0,0,0,0,0,0,0,0,0,0,0,0,0,0,0,0,0,0,0,0,0,0,0,"1040 W COLUMBIA AVE60626
(42.00472247892974, -87.65844728500072)",42.0047225,-87.6584473,0.5656854
241,MATHER (STEPHEN TYNG),5835 N LINCOLN AVE,60659.0,14.06,40,REGIONAL PARK,Mather,0,0,0,0,0,0,4,2,0,0,0,0,0,0,0,0,2,0,0,0,0,0,0,0,0,0,0,0,0,0,0,0,4,0,0,4,0,0,0,0,0,1,0,0,0,0,0,0,0,0,0,1,6,0,0,0,0,0,0,0,0,0,0,0,0,0,"5835 N LINCOLN AVE60659
(41.98749492038529, -87.70239062431834)",41.9874949,-87.7023906,3.7496667
1078,ANDERSONVILLE,5233 N ASHLAND AVE,60640.0,0.22,40,MINI-PARK,Andersonville,0,0,0,0,0,0,0,0,0,0,0,0,0,0,0,0,0,0,0,0,0,0,0,0,0,0,0,0,0,0,0,0,0,0,0,0,0,0,0,0,0,0,1,0,0,0,0,0,0,0,0,0,0,0,0,0,0,0,0,0,0,0,0,0,0,0,"5233 N ASHLAND AVE60640
(41.9771711048617, -87.66957070816875)",41.9771711,-87.6695707,0.4690416
229,HIAWATHA,8029 W FOREST PRESERVE AVE,60634.0,12.08,36,COMMUNITY PARK,Hiawatha,0,0,0,0,0,0,0,0,0,0,0,0,2,0,0,0,1,0,0,0,0,1,0,0,0,0,0,0,1,0,0,0,2,0,0,1,0,0,0,0,0,1,0,0,0,0,0,0,0,1,1,4,2,0,0,0,0,0,0,0,0,0,0,0,0,0,"8029 W FOREST PRESERVE AVE60634
(41.94416740107104, -87.82730104043402)",41.9441674,-87.827301,3.4756294
244,GATELY (JAMES),810 E 103RD ST,60628.0,25.04,8,COMMUNITY PARK,Gately,0,0,0,1,0,0,6,3,0,0,0,0,0,0,0,0,2,0,0,0,0,0,0,0,0,0,0,0,0,0,0,0,0,0,0,4,0,0,0,0,0,1,0,0,0,0,0,0,0,0,0,1,0,0,0,0,0,0,0,0,0,0,0,0,0,0,"810 E 103RD ST60628
(41.707541942177976, -87.60373417753736)",41.7075419,-87.6037342,5.0039984
129,AMUNDSEN (ROALD),6200 W BLOOMINGDALE AVE,60639.0,15.46,36,COMMUNITY PARK,Amundsen,0,0,0,0,0,0,0,0,0,0,0,0,0,0,0,0,1,0,0,0,0,1,0,0,0,0,0,0,0,0,0,0,0,0,0,4,0,0,0,0,0,1,0,0,0,0,0,0,0,0,1,1,0,0,0,0,0,0,0,0,0,0,0,0,0,0,"6200 W BLOOMINGDALE AVE60639
(41.91289757680437, -87.78068935572418)",41.9128976,-87.7806894,3.9319207
512,PARK NO. 512,1800 N ASHLAND AVE,60614.0,1.15,32,UNIMPROVED PARK,Park No. 512,0,0,0,0,0,0,0,0,0,0,0,0,0,0,0,0,0,0,0,0,0,0,0,0,0,0,0,0,0,0,0,0,0,0,0,0,0,0,0,0,0,0,0,0,0,0,0,0,0,0,0,0,0,0,0,0,0,0,0,0,0,0,0,0,0,0,"1800 N ASHLAND AVE60614
(41.92230000000001, -87.65132999999997)",41.9223,-87.65133,1.0723805
379,WHITE (EDWARD),1120 W 122ND ST,60643.0,4.59,34,NEIGHBORHOOD PARK,White (Edward),0,0,0,0,0,0,4,2,0,0,0,0,0,0,0,0,1,0,0,0,0,0,0,0,0,0,0,0,1,0,0,0,0,0,0,3,0,0,0,0,0,1,0,0,0,0,0,0,0,0,1,0,2,0,0,0,0,0,0,0,0,0,0,0,0,0,"1120 W 122ND ST60643
(41.6722893273225, -87.64989065298528)",41.6722893,-87.6498907,2.1424285
3,ARMOUR (PHILIP) SQUARE,3309 S SHIELDS AVE,60616.0,8.22,11,COMMUNITY PARK,Armour Square,0,0,0,0,0,0,0,0,0,0,0,0,0,0,0,0,1,0,0,0,0,1,0,0,0,0,0,0,2,0,0,0,0,0,0,3,0,0,1,0,0,1,0,0,1,0,0,0,0,0,1,1,2,0,1,0,0,0,0,0,0,0,0,0,0,0,"3309 S SHIELDS AVE60616
(41.83438777045396, -87.6351365401036)",41.8343878,-87.6351365,2.8670542
1098,EMERALD,5600 S EMERALD AVE,60621.0,0.2,3,MINI-PARK,Emerald,0,0,0,0,0,0,2,1,0,0,0,0,0,0,0,0,0,0,0,0,0,0,0,0,0,0,0,0,0,0,0,0,0,0,0,0,0,0,0,0,0,0,0,0,0,0,0,0,0,0,0,0,0,0,0,0,0,0,0,0,0,0,0,0,0,0,"5600 S EMERALD AVE60621
(41.79230775432685, -87.64396202896899)",41.7923078,-87.643962,0.4472136
187,BRANDS,3285 N ELSTON AVE,60618.0,5.28,33,COMMUNITY PARK,Brands,0,0,0,0,0,0,0,1,0,0,0,0,0,0,0,0,1,0,0,0,0,0,0,0,0,0,0,0,1,0,0,0,0,0,0,2,0,0,0,0,0,1,0,0,0,0,0,0,0,0,0,1,2,0,0,0,0,0,0,0,0,0,0,0,0,0,"3285 N ELSTON AVE60618
(41.94099278508439, -87.70050716090475)",41.9409928,-87.7005072,2.2978251
1018,WILSON (JOHN) COMM. CTR.,3225 S RACINE AVE,60608.0,0.14,11,COMMUNITY PARK,Wilson (John) Comm. Ctr.,0,0,0,0,0,0,0,0,0,0,0,0,0,0,0,0,0,0,0,0,0,0,0,0,0,0,0,0,1,0,0,0,0,0,0,0,0,0,0,0,0,0,0,0,0,0,0,0,0,0,0,0,0,0,0,0,0,0,0,0,0,0,0,0,0,0,"3225 S RACINE AVE60608
(41.83532668245461, -87.65587675796482)",41.8353267,-87.6558768,0.3741657
1041,KENSINGTON,345 E 118TH ST,60628.0,4.88,9,NEIGHBORHOOD PARK,Kensington,0,0,0,0,0,0,2,1,0,0,0,0,0,0,0,0,1,0,0,0,0,0,0,0,0,0,0,0,0,0,0,0,1,0,0,1,0,0,0,0,0,1,0,0,0,0,0,0,0,0,1,1,0,0,1,0,0,0,0,0,0,0,0,0,0,0,"345 E 118TH ST60628
(41.67987659512123, -87.61635219604528)",41.6798766,-87.6163522,2.2090722
516,CANALPORT RIVERWALK,2900 S ASHLAND AVE,60608.0,5.39,11,PASSIVE PARK,Canalport Riverwalk,0,0,0,0,0,0,0,0,0,0,0,0,0,0,0,0,0,0,0,0,0,0,0,0,0,0,0,0,0,0,0,0,0,0,0,0,0,0,0,0,0,0,0,0,0,0,0,0,0,0,0,0,0,0,0,0,0,0,0,0,0,0,0,0,0,0,"2900 S ASHLAND AVE60608
(41.840550176780745, -87.66587552032554)",41.8405502,-87.6658755,2.3216374
493,KELLY (JOHN),3800 N SEMINARY AVE,60613.0,1.32,44,PASSIVE PARK,Kelly (John),0,0,0,0,0,0,0,0,0,0,0,0,0,0,0,0,0,1,0,0,0,0,0,0,0,0,0,0,0,0,0,0,0,0,0,0,0,0,0,0,0,1,0,0,0,0,0,0,0,0,0,0,0,0,0,0,0,0,0,0,0,0,0,0,0,0,"3800 N SEMINARY AVE60613
(41.95109006650025, -87.65689178585939)",41.9510901,-87.6568918,1.1489125
296,DOOLEY (THOMAS),3426 W 77TH ST,60652.0,1.27,18,NEIGHBORHOOD PARK,Dooley,0,0,0,0,0,0,0,0,0,0,0,0,0,0,0,0,0,0,0,0,0,0,0,0,0,0,0,0,0,0,0,0,0,0,0,1,0,0,0,0,0,1,0,0,0,0,0,0,0,0,0,0,0,0,0,0,0,0,0,0,0,0,0,0,0,0,"3426 W 77TH ST60652
(41.7534225361982, -87.7084642083754)",41.7534225,-87.7084642,1.1269428
4,FULLER (MELVILLE),331 W 45TH ST,60609.0,10.5,11,COMMUNITY PARK,Fuller,0,0,0,0,0,0,6,1,0,0,0,0,0,0,0,0,1,0,0,0,0,1,0,0,0,0,0,0,2,0,0,0,0,0,0,2,0,0,1,0,0,1,0,0,0,0,0,0,0,0,1,1,2,1,0,0,0,1,0,0,0,0,0,0,0,0,"331 W 45TH ST60609
(41.81245740046775, -87.63416660754879)",41.8124574,-87.6341666,3.2403703
18,TULEY (MURRAY),501 E 90TH PL,60619.0,20.19,6,REGIONAL PARK,Tuley,0,0,0,0,0,0,4,2,0,0,0,0,0,0,0,0,1,0,0,0,0,1,0,0,0,0,0,0,1,0,0,0,0,0,0,3,0,0,1,0,0,1,0,0,0,0,0,0,0,0,1,1,13,0,0,0,0,0,0,0,0,0,0,0,0,0,"501 E 90TH PL60619
(41.73041578589959, -87.61190764960114)",41.7304158,-87.6119076,4.4933284
1242,SENECA,228 E CHICAGO AVE,60611.0,0.82,42,NEIGHBORHOOD PARK,Seneca,0,0,0,0,0,0,0,0,0,0,0,0,0,0,0,0,0,0,0,0,0,0,0,0,0,0,0,0,0,0,0,0,0,0,0,0,0,0,0,0,0,1,0,0,0,0,0,0,0,0,0,0,0,0,0,0,0,0,0,0,0,0,0,0,0,0,"228 E CHICAGO AVE60611
(41.89684581350813, -87.62164170332684)",41.8968458,-87.6216417,0.9055385
1061,SCHREIBER,1552 W SCHREIBER AVE,60626.0,1.71,40,NEIGHBORHOOD PARK,Schreiber,0,0,0,0,0,0,2,1,0,0,0,0,0,0,0,0,1,1,0,0,0,0,0,0,0,0,0,0,0,0,0,0,0,0,0,0,0,0,0,0,0,1,0,0,0,0,0,0,0,0,1,0,0,0,0,0,0,0,0,0,0,0,0,0,0,0,"1552 W SCHREIBER AVE60626
(41.999061620431576, -87.66941065141224)",41.9990616,-87.6694107,1.3076697
1064,TILTON (GEORGE),305 N KOSTNER,60624.0,0.98,0,NEIGHBORHOOD PARK,Tilton,0,0,0,0,0,0,2,1,0,0,0,0,0,0,0,0,0,0,0,0,0,0,0,0,0,0,0,0,0,0,0,0,0,0,0,0,0,0,0,0,0,1,0,0,0,0,0,0,0,0,1,0,0,0,0,0,0,0,0,0,0,0,0,0,0,0,"305 N KOSTNER60624
(41.88571687790375, -87.73552932427177)",41.8857169,-87.7355293,0.9899495
84,KILBOURN,3501 N KILBOURN AVE,60641.0,11.93,35,COMMUNITY PARK,Kilbourn,0,0,0,1,0,0,4,1,0,0,0,0,0,0,0,0,1,0,0,0,0,0,0,0,1,0,0,0,1,0,0,0,0,0,0,2,0,0,0,0,0,1,0,0,0,0,0,0,0,0,0,1,4,1,0,0,0,0,0,0,0,0,0,0,0,0,"3501 N KILBOURN AVE60641
(41.94441192501492, -87.73957059127865)",41.9444119,-87.7395706,3.4539832
1111,HANSBERRY (LORRAINE),5635 S INDIANA AVE,60637.0,0.25,20,MINI-PARK,Hansberry,0,0,0,0,0,0,0,0,0,0,0,0,0,0,0,0,0,0,0,0,0,0,0,0,0,0,0,0,0,0,0,0,0,0,0,0,0,0,0,0,0,0,1,0,0,0,0,0,0,0,0,0,0,0,0,0,0,0,0,0,0,0,0,0,0,0,"5635 S INDIANA AVE60637
(41.7922717996933, -87.62069716882426)",41.7922718,-87.6206972,0.5
1048,MEMORIAL,149 W 73RD ST,60621.0,2.69,6,NEIGHBORHOOD PARK,Memorial,0,0,0,0,0,0,2,1,0,0,0,0,0,0,0,0,1,0,0,0,0,0,0,0,0,0,0,0,0,0,0,0,0,0,0,1,0,0,0,0,0,1,0,0,0,0,0,0,0,0,0,0,0,0,0,0,0,0,0,0,0,0,0,0,0,0,"149 W 73RD ST60621
(41.76175531219116, -87.62863768165641)",41.7617553,-87.6286377,1.6401219
245,WEST LAWN,4233 W 65TH ST,60629.0,16.73,13,REGIONAL PARK,West Lawn,0,0,0,0,0,1,0,0,0,0,0,0,0,0,0,0,1,0,0,0,0,1,0,0,0,0,0,0,1,0,0,0,0,1,0,2,0,0,0,0,0,1,0,0,0,0,0,0,0,0,1,2,0,0,0,0,0,0,0,0,0,0,0,0,0,0,"4233 W 65TH ST60629
(41.77486846672091, -87.7283393427522)",41.7748685,-87.7283393,4.0902323
396,SNAPPING TURTLE,534 N ALBANY AVE,60612.0,0.15,27,MINI-PARK,Snapping Turtle,0,0,0,0,0,0,0,0,0,0,0,0,0,0,0,0,0,0,0,0,0,0,0,0,0,0,0,0,0,0,0,0,0,0,0,0,0,0,0,0,0,0,1,0,0,0,0,0,0,0,0,0,0,0,0,0,0,0,0,0,0,0,0,0,0,0,"534 N ALBANY AVE60612
(41.89090102143409, -87.70400387632914)",41.890901,-87.7040039,0.3872983
554,PARK NO. 554,1805 N ALBANY AVE,60647.0,0.44,26,UNIMPROVED PARK,Park No. 554,0,0,0,0,0,0,0,0,0,0,0,0,0,0,0,0,0,0,0,0,0,0,0,0,0,0,0,0,0,0,0,0,0,0,0,0,0,0,0,0,0,1,0,0,0,0,0,0,0,0,0,0,0,0,0,0,0,0,0,0,0,0,0,0,0,0,"1805 N ALBANY AVE60647
(41.91391294723866, -87.70517328492383)",41.9139129,-87.7051733,0.663325
57,MONUMENT,6700 N AVONDALE AVE,60631.0,0.98,41,NEIGHBORHOOD PARK,Monument,0,0,0,0,0,0,0,0,0,0,0,0,0,0,0,0,0,0,0,0,0,0,0,0,0,0,0,0,0,0,0,0,0,0,0,0,0,0,0,0,0,1,0,0,0,0,0,0,0,0,0,0,0,0,0,0,0,0,0,0,0,0,0,0,0,0,"6700 N AVONDALE AVE60631
(42.00240623492181, -87.81850584705626)",42.0024062,-87.8185058,0.9899495
1068,WAGNER (CLARENCE),948 W 51ST ST,60609.0,0.93,11,NEIGHBORHOOD PARK,Wagner,0,0,0,0,0,0,0,0,0,0,0,0,0,0,0,0,0,0,0,0,0,0,0,0,0,0,0,0,0,0,0,0,0,0,0,0,0,0,0,0,0,1,0,0,0,0,0,0,0,0,1,0,0,0,0,0,0,0,0,0,0,0,0,0,0,0,"948 W 51ST ST60609
(41.80158755973838, -87.64895563253063)",41.8015876,-87.6489556,0.9643651
1083,BIXLER (RAY),5641 S KENWOOD AVE,60637.0,0.95,5,NEIGHBORHOOD PARK,Bixler,0,0,0,0,0,0,0,0,0,0,0,0,0,0,0,0,0,0,0,0,0,0,0,0,0,0,0,0,0,0,0,0,0,0,0,0,0,0,0,0,0,0,1,0,0,0,0,0,0,0,1,0,0,0,0,0,0,0,0,0,0,0,0,0,0,0,"5641 S KENWOOD AVE60637
(41.792875219210096, -87.59318440045139)",41.7928752,-87.5931844,0.9746794
558,PARK NO. 558,10609-15 S WESTERN AVE,60643.0,0.53,19,UNIMPROVED PARK,Park No. 558,0,0,0,0,0,0,0,0,0,0,0,0,0,0,0,0,0,0,0,0,0,0,0,0,0,0,0,0,0,0,0,0,0,0,0,0,0,0,0,0,0,0,0,0,0,0,0,0,0,0,0,0,0,0,0,0,0,0,0,0,0,0,0,0,0,0,"10609-15 S WESTERN AVE60643
(41.696250000000134, -87.66084000000001)",41.69625,-87.66084,0.728011
1030,FOSCO (PETER),1313 S THROOP ST,60608.0,3.33,1,NEIGHBORHOOD PARK,Fosco,0,0,0,0,0,0,0,0,0,0,0,0,0,0,0,0,0,0,0,0,0,1,0,0,0,0,0,0,1,0,0,0,0,0,1,0,0,0,0,0,0,2,0,0,0,0,0,0,0,0,0,0,0,0,0,1,0,0,0,0,0,0,0,0,0,0,"1313 S THROOP ST60608
(41.86477993410835, -87.65877142270114)",41.8647799,-87.6587714,1.8248288
148,SHABBONA,6935 W ADDISON,60634.0,18.59,36,REGIONAL PARK,Shabbona,0,0,0,0,0,0,2,1,0,0,0,0,0,0,0,0,1,0,0,0,0,1,0,0,0,0,0,0,1,1,0,0,2,0,1,4,0,0,0,0,0,1,0,0,0,0,0,0,0,0,1,1,5,0,0,0,0,0,0,0,0,0,0,0,0,0,"6935 W ADDISON60634
(41.94534958225733, -87.79940650909089)",41.9453496,-87.7994065,4.3116122
264,BOGAN (WILLIAM),3939 W 79TH ST,60652.0,19.33,18,REGIONAL PARK,Bogan,0,0,0,0,0,0,4,2,0,0,0,0,0,0,0,0,1,0,0,0,0,0,0,0,0,0,0,0,0,0,0,0,0,0,0,3,0,0,0,0,0,1,0,0,0,0,0,0,0,0,0,1,3,0,0,0,0,0,0,0,0,0,0,0,0,0,"3939 W 79TH ST60652
(41.749426646975735, -87.72024569344042)",41.7494266,-87.7202457,4.3965896
283,ERHLER (WILLIAM),2230 W CORTLAND ST,60647.0,0.83,32,NEIGHBORHOOD PARK,Erhler,0,0,0,0,0,0,0,0,0,0,0,0,0,0,0,0,0,0,0,0,0,0,0,0,0,0,0,0,0,0,0,0,0,0,0,0,0,0,0,0,0,1,0,0,0,0,0,0,0,0,0,0,0,0,0,0,0,0,0,0,0,0,0,0,0,0,"2230 W CORTLAND ST60647
(41.91618378081068, -87.6831756500542)",41.9161838,-87.6831757,0.9110434
189,CALIFORNIA,3843 N CALIFORNIA AVE,60618.0,13.52,33,COMMUNITY PARK,California,1,0,0,0,0,0,6,2,0,0,0,0,0,0,0,0,0,0,0,0,0,1,0,0,0,0,0,0,0,0,0,0,0,0,0,0,0,0,1,0,0,1,0,0,0,0,0,0,0,0,1,0,4,0,0,0,0,0,0,0,0,0,0,0,0,0,"3843 N CALIFORNIA AVE60618
(41.951111371599815, -87.69813275616544)",41.9511114,-87.6981328,3.6769553
530,DALEY (RICHARD J.),3150 S WESTERN AVE,60608.0,2.67,0,UNIMPROVED PARK,Daley (Richard J.),0,0,0,0,0,0,0,0,0,1,0,0,0,0,0,0,0,0,0,0,0,0,0,0,0,0,0,0,0,0,0,0,0,0,0,0,0,0,0,0,0,0,0,0,0,0,0,0,0,0,0,0,0,0,0,0,0,0,0,0,0,0,0,0,0,0,"3150 S WESTERN AVE60608
(41.83556866674708, -87.68465399204362)",41.8355687,-87.684654,1.6340135
1257,JARVIS (R.J.) BEACH,1234 W JARVIS AVE,60626.0,0.55,49,NEIGHBORHOOD PARK,Jarvis Beach,0,0,0,0,0,0,0,0,1,0,0,0,0,0,0,0,0,0,0,0,0,0,0,0,0,0,0,0,0,0,0,0,0,0,0,0,0,0,0,0,0,0,0,0,0,0,0,0,0,0,0,0,0,0,0,0,0,0,0,0,0,0,0,0,0,0,"1234 W JARVIS AVE60626
(42.0161355896905, -87.66352349874863)",42.0161356,-87.6635235,0.7416198
5,CORNELL (PAUL) SQUARE,1809 W 50TH ST,60609.0,8.19,14,COMMUNITY PARK,Cornell Square,0,0,0,1,0,0,4,2,0,0,0,0,0,0,0,0,1,0,0,0,0,0,0,0,0,0,0,0,1,0,0,0,0,0,0,2,0,0,1,0,0,1,0,0,0,0,0,0,0,0,1,0,3,0,0,0,0,0,0,0,0,0,0,0,0,0,"1809 W 50TH ST60609
(41.80302567756718, -87.66990815817904)",41.8030257,-87.6699082,2.8618176
156,JACOB,4674 N VIRGINIA AVE,60625.0,0.39,40,MINI-PARK,Jacob,0,0,0,0,0,0,0,0,0,0,0,0,0,0,0,0,0,0,0,0,0,0,0,0,0,0,0,0,0,0,0,0,0,0,0,0,0,0,0,0,0,0,1,0,0,0,0,0,0,0,0,0,0,0,0,0,0,0,0,0,0,0,0,0,0,0,"4674 N VIRGINIA AVE60625
(41.966419635850755, -87.69779267688513)",41.9664196,-87.6977927,0.6244998
321,ASPEN,4237 S WABASH AVE,60653.0,0.2,3,MINI-PARK,Aspen,0,0,0,0,0,0,0,0,0,0,0,0,0,0,0,0,0,0,0,0,0,0,0,0,0,0,0,0,0,0,0,0,0,0,0,0,0,0,0,0,0,0,1,0,0,0,0,0,0,0,0,0,0,0,0,0,0,0,0,0,0,0,0,0,0,0,"4237 S WABASH AVE60653
(41.8176359971553, -87.62458343398094)",41.817636,-87.6245834,0.4472136
1267,LYLE (JOHN),7700 S WALLACE ST,60620.0,1.46,17,PASSIVE PARK,Lyle,0,0,0,0,0,0,0,0,0,0,0,0,0,0,0,0,0,0,0,0,0,0,0,0,0,0,0,0,0,0,0,0,0,0,0,0,0,0,0,0,0,1,0,0,0,0,0,0,0,0,0,0,0,0,0,0,0,0,0,0,0,0,0,0,0,0,"7700 S WALLACE ST60620
(41.75426401359369, -87.63990966510175)",41.754264,-87.6399097,1.2083046
158,SUNKEN GARDENS,2634 W SUNNYSIDE AVE,60625.0,0.16,47,PASSIVE PARK,Sunken Gardens,0,0,0,0,0,0,0,0,0,0,0,0,0,0,0,0,0,0,0,0,0,0,0,0,0,0,0,0,0,0,0,0,0,0,0,0,0,0,0,0,0,0,0,0,0,0,0,0,0,0,0,0,0,0,0,0,0,0,0,0,0,0,0,0,0,0,"2634 W SUNNYSIDE AVE60625
(41.96314269858135, -87.69480494835405)",41.9631427,-87.6948049,0.4
1039,KEDVALE,4140 W HIRSCH ST,60651.0,0.78,31,NEIGHBORHOOD PARK,Kedvale,0,0,0,1,0,0,2,1,0,0,0,0,0,0,0,0,0,0,0,0,0,0,0,0,0,0,0,0,0,0,0,0,0,0,0,0,0,0,0,0,0,1,0,0,0,0,0,0,0,0,1,0,0,0,0,0,0,0,0,0,0,0,0,0,0,0,"4140 W HIRSCH ST60651
(41.90629351661185, -87.73027524116445)",41.9062935,-87.7302752,0.8831761
1043,WHITE (WILLYE B.),7631 N ASHLAND AVE,60626.0,0.88,0,COMMUNITY PARK,White (Willye B.),0,0,0,0,0,0,4,2,0,0,0,0,0,0,0,0,0,0,0,0,0,1,0,0,0,0,0,0,1,0,0,0,0,0,0,1,0,0,0,0,0,1,0,0,0,0,0,0,0,0,0,0,0,0,0,0,0,0,0,0,0,0,0,0,0,0,"7631 N ASHLAND AVE60626
(42.02074579943063, -87.6706256233563)",42.0207458,-87.6706256,0.9380832
128,MOZART (AMADEUS),2036 N AVERS AVE,60647.0,4.41,31,COMMUNITY PARK,Mozart,0,0,0,0,0,0,4,2,0,0,0,0,0,0,0,0,1,0,0,0,0,1,0,0,0,0,0,0,1,0,0,0,0,0,0,2,0,0,0,0,0,1,0,0,0,0,0,0,0,0,0,0,0,0,0,0,0,0,0,0,0,0,0,0,0,0,"2036 N AVERS AVE60647
(41.917891809336695, -87.72295685946894)",41.9178918,-87.7229569,2.1
1059,SAIN (HARRY),2453 W MONROE ST,60612.0,0.93,27,NEIGHBORHOOD PARK,Sain,0,0,0,0,0,0,8,2,0,0,0,0,0,0,0,0,0,0,0,0,0,0,0,0,0,0,0,0,0,0,0,0,0,0,0,0,0,0,0,0,0,0,0,0,0,0,0,0,0,0,0,0,1,0,0,0,0,0,0,0,0,0,0,0,0,0,"2453 W MONROE ST60612
(41.88019226578892, -87.68704714499978)",41.8801923,-87.6870471,0.9643651
306,DUBKIN (LEONARD),7442 N ASHLAND Blvd,60626.0,0.13,49,PASSIVE PARK,Dubkin,0,0,0,0,0,0,0,0,0,0,0,0,0,0,0,0,0,1,0,0,0,0,0,0,0,0,0,0,0,0,0,0,0,0,0,0,0,0,0,0,0,0,0,0,0,0,0,0,0,0,0,0,0,0,0,0,0,0,0,0,0,0,0,0,0,0,"7442 N ASHLAND Blvd60626
(42.01729757621276, -87.67037488566595)",42.0172976,-87.6703749,0.3605551
179,GRAVER (PHILIP),1518 W 102ND PL,60643.0,4.75,19,NEIGHBORHOOD PARK,Graver,0,0,0,0,0,0,0,0,0,0,0,0,0,0,0,0,1,0,0,0,0,0,0,0,0,0,0,0,0,0,0,0,0,0,0,2,0,0,0,0,0,1,0,0,0,0,0,0,0,0,0,0,3,0,0,1,0,0,0,0,0,0,0,0,0,0,"1518 W 102ND PL60643
(41.70734399383694, -87.66017862660087)",41.707344,-87.6601786,2.1794495
1042,KEN-WELL,2945 N KENOSHA AVE,60641.0,2.53,35,NEIGHBORHOOD PARK,Ken-Well,0,0,0,0,0,0,2,1,0,0,0,0,0,0,0,0,1,1,0,0,0,0,0,0,0,0,0,0,0,0,0,0,0,0,0,2,0,0,0,0,0,1,0,0,0,0,0,0,0,0,1,0,0,0,0,0,0,0,0,0,0,0,0,0,0,0,"2945 N KENOSHA AVE60641
(41.934366475104866, -87.73377232807303)",41.9343665,-87.7337723,1.5905974
1035,HORAN (ALBERT),3035 W VAN BUREN ST,60612.0,2.76,28,NEIGHBORHOOD PARK,Horan,0,0,0,0,0,0,2,1,0,0,0,0,0,0,0,0,0,0,0,0,0,0,0,0,0,0,0,0,0,0,0,0,0,0,0,1,0,0,0,0,0,1,0,0,0,0,0,0,0,0,1,0,0,0,0,0,0,0,0,0,0,0,0,0,0,0,"3035 W VAN BUREN ST60612
(41.87585201106498, -87.70238183469166)",41.875852,-87.7023818,1.6613248
125,HERMOSA,2240 N KILBOURN AVE,60639.0,4.7,30,NEIGHBORHOOD PARK,Hermosa,0,0,0,0,0,0,2,1,0,0,0,0,0,0,0,0,1,0,0,0,0,0,0,0,0,0,0,0,0,0,0,0,0,0,0,1,0,0,0,0,0,1,0,0,0,0,0,0,0,0,1,1,0,0,1,0,0,0,0,0,0,0,0,0,0,0,"2240 N KILBOURN AVE60639
(41.921738021921556, -87.73897905902746)",41.921738,-87.7389791,2.1679483
535,PARK NO. 535,800 W WISCONSIN ST,60614.0,0.11,43,MINI-PARK,Park No. 535,0,0,0,0,0,0,0,0,0,0,0,0,0,0,0,0,0,0,0,0,0,0,0,0,0,0,0,0,0,0,0,0,0,0,0,0,0,0,0,0,0,0,1,0,0,0,0,0,0,0,0,0,0,0,0,0,0,0,0,0,0,0,0,0,0,0,"800 W WISCONSIN ST60614
(41.916008367566974, -87.64902861063467)",41.9160084,-87.6490286,0.3316625
16,TRUMBULL (LYMAN),2400 E 105TH ST,60617.0,18.52,10,REGIONAL PARK,Trumbull,0,0,0,0,0,0,4,1,0,0,0,0,0,0,0,0,1,0,0,0,0,1,0,0,0,0,0,0,2,0,0,0,0,0,0,3,0,0,1,0,0,1,0,0,0,0,0,0,0,1,1,1,2,1,0,0,0,0,0,0,0,0,0,0,0,0,"2400 E 105TH ST60617
(41.704641299234446, -87.56563479261322)",41.7046413,-87.5656348,4.303487
1286,LEE (JOHN),3700 W 87TH ST,60652.0,0.28,18,MINI-PARK,Lee,0,0,0,0,0,0,0,0,0,0,0,0,0,0,0,0,0,0,0,0,0,0,0,0,0,0,0,0,0,0,0,0,0,0,0,0,0,0,0,0,0,0,1,0,0,0,0,0,0,0,0,0,0,0,0,0,0,0,0,0,0,0,0,0,0,0,"3700 W 87TH ST60652
(41.73501928081332, -87.71420522719168)",41.7350193,-87.7142052,0.5291503
403,WOLCOTT (ALEXANDER),6551 S WOLCOTT AVE,60636.0,0.14,15,MINI-PARK,Wolcott,0,0,0,0,0,0,0,0,0,0,0,0,0,0,0,0,0,0,0,0,0,0,0,0,0,0,0,0,0,0,0,0,0,0,0,0,0,0,0,0,0,0,1,0,0,0,0,0,0,0,0,0,0,0,0,0,0,0,0,0,0,0,0,0,0,0,"6551 S WOLCOTT AVE60636
(41.774820787777514, -87.67128934254377)",41.7748208,-87.6712893,0.3741657
519,PARK NO. 519,1944 S ST. LOUIS AVE,60623.0,0.07,24,MINI-PARK,Park No. 519,0,0,0,0,0,0,0,0,0,0,0,0,0,0,0,0,0,0,0,0,0,0,0,0,0,0,0,0,0,0,0,0,0,0,0,0,0,0,0,0,0,0,1,0,0,0,0,0,0,0,0,0,0,0,0,0,0,0,0,0,0,0,0,0,0,0,"1944 S ST. LOUIS AVE60623
(41.85396414076553, -87.71240383403943)",41.8539641,-87.7124038,0.2645751
21,WASHINGTON (GEORGE),5531 S DR MARTIN LUTHER KING J,60637.0,366.84,0,CITYWIDE PARK,Washington (George),0,0,0,0,0,0,20,10,0,0,0,0,0,0,1,0,3,0,0,0,0,1,0,0,0,0,0,0,1,0,0,0,0,0,1,13,0,0,1,0,0,4,0,0,0,0,0,0,0,0,1,4,10,0,0,0,1,0,0,1,0,0,0,0,0,4,"5531 S DR MARTIN LUTHER KING J60637
(41.78082999999998, -87.60190999999998)",41.78083,-87.60191,19.1530676
416,COTTONWOOD,5058 W WEST END AVE,60644.0,0.14,37,MINI-PARK,Cottonwood,0,0,0,0,0,0,0,0,0,0,0,0,0,0,0,0,0,0,0,0,0,0,0,0,0,0,0,0,0,0,0,0,0,0,0,0,0,0,0,0,0,0,1,0,0,0,0,0,0,0,0,0,0,0,0,0,0,0,0,0,0,0,0,0,0,0,"5058 W WEST END AVE60644
(41.883099921946, -87.75169726622529)",41.8830999,-87.7516973,0.3741657
1217,KINZIE (JOHN) PKWY.,5200 W KINZIE ST,60644.0,0.98,37,PASSIVE PARK,Kinzie Pkwy.,0,0,0,0,0,0,0,0,0,0,0,0,0,0,0,0,0,0,0,0,0,0,0,0,0,0,0,0,0,0,0,0,0,0,0,0,0,0,0,0,0,0,0,0,0,0,0,0,0,0,0,0,0,0,0,0,0,0,0,0,0,0,0,0,0,0,"5200 W KINZIE ST60644
(41.88783320137772, -87.75541994083441)",41.8878332,-87.7554199,0.9899495
486,WINNEMAC,5001 N LEAVITT ST,60625.0,22.01,47,NEIGHBORHOOD PARK,Winnemac,0,0,0,0,0,0,0,0,0,0,0,0,0,0,0,0,1,0,0,0,0,0,0,0,0,0,0,0,0,0,0,0,0,0,0,4,0,0,0,0,0,1,0,0,0,0,0,0,0,0,0,1,2,0,0,0,0,0,0,0,0,0,0,0,0,0,"5001 N LEAVITT ST60625
(41.97233198247668, -87.68408380408277)",41.972332,-87.6840838,4.6914816
1123,"LUNT (ORRINGTON, STEPHEN)",2239 W LUNT AVE,60645.0,0.17,50,MINI-PARK,Lunt,0,0,0,0,0,0,0,0,0,0,0,0,0,0,0,0,0,1,0,0,0,0,0,0,0,0,0,0,0,0,0,0,0,0,0,0,0,0,0,0,0,0,1,0,0,0,0,0,0,0,0,0,0,0,0,0,0,0,0,0,0,0,0,0,0,0,"2239 W LUNT AVE60645
(42.008688691533, -87.68683610141613)",42.0086887,-87.6868361,0.4123106
292,COLEMAN (BESSIE),900 E 54TH PL,60615.0,0.47,4,MINI-PARK,Coleman,0,0,0,0,0,0,0,0,0,0,0,0,0,0,0,0,0,0,0,0,0,0,0,0,0,0,0,0,0,0,0,0,0,0,0,0,0,0,0,0,0,0,1,0,0,0,0,0,0,0,1,0,0,0,0,0,0,0,0,0,0,0,0,0,0,0,"900 E 54TH PL60615
(41.79653429943323, -87.60328162785162)",41.7965343,-87.6032816,0.6855655
299,HICKORY,4834 N WINTHROP AVE,60640.0,0.23,48,MINI-PARK,Hickory,0,0,0,0,0,0,0,0,0,0,0,0,0,0,0,0,0,0,0,0,0,0,0,0,0,0,0,0,0,0,0,0,0,0,0,0,0,0,0,0,0,0,1,0,0,0,0,0,0,0,0,0,0,0,0,0,0,0,0,0,0,0,0,0,0,0,"4834 N WINTHROP AVE60640
(41.969939075840855, -87.6576053599007)",41.9699391,-87.6576054,0.4795832
1150,SUPERIOR,2101 W SUPERIOR ST,60612.0,0.27,32,MINI-PARK,Superior,0,0,0,0,0,0,0,0,0,0,0,0,0,0,0,0,0,0,0,0,0,0,0,0,0,0,0,0,0,0,0,0,0,0,0,0,0,0,0,0,0,0,1,0,0,0,0,0,0,0,0,0,0,0,0,0,0,0,0,0,0,0,0,0,0,0,"2101 W SUPERIOR ST60612
(41.894908077026976, -87.67954222776295)",41.8949081,-87.6795422,0.5196152
482,NASH (DON) COMM. CTR.,1833 E 71ST ST,60649.0,0.88,5,COMMUNITY PARK,Nash Comm. Ctr.,0,0,0,0,0,0,0,0,0,0,0,0,0,0,0,0,0,0,0,0,0,1,0,0,0,0,0,0,1,0,0,0,0,0,1,0,0,0,0,0,0,1,0,0,0,0,0,0,0,0,0,0,0,0,0,0,0,0,0,0,0,0,0,0,0,0,"1833 E 71ST ST60649
(41.765982603180305, -87.5802613221388)",41.7659826,-87.5802613,0.9380832
513,PARK NO. 513,1401 S INDIANA AVE,60605.0,1.02,42,PASSIVE PARK,Park No. 513,0,0,0,0,0,0,0,0,0,0,0,0,0,0,0,0,0,0,0,0,0,0,0,0,0,0,0,0,0,0,0,0,0,0,0,0,0,0,0,0,0,0,0,0,0,0,0,0,0,0,0,0,0,0,0,0,0,0,0,0,0,0,0,0,0,0,"1401 S INDIANA AVE60605
(41.863838696647235, -87.62236371246593)",41.8638387,-87.6223637,1.0099505
1124,MERRYMAN (THERON),3736 N MARSHFIELD AVE,60613.0,0.18,47,MINI-PARK,Merryman,0,0,0,0,0,0,0,0,0,0,0,0,0,0,0,0,0,0,0,0,0,0,0,0,0,0,0,0,0,0,0,0,0,0,0,0,0,0,0,0,0,0,1,0,0,0,0,0,0,0,0,0,0,0,0,0,0,0,0,0,0,0,0,0,0,0,"3736 N MARSHFIELD AVE60613
(41.94948343722664, -87.67020940151451)",41.9494834,-87.6702094,0.4242641
176,COSME (MARGARET),2100 W 91ST ST,60620.0,3.55,19,NEIGHBORHOOD PARK,Cosme,0,0,0,0,0,0,0,0,0,0,0,0,0,0,0,0,0,0,0,0,0,0,0,0,0,0,0,0,0,0,0,0,0,0,0,1,0,0,0,0,0,1,0,0,0,0,0,0,0,0,0,0,3,0,0,0,0,0,0,0,0,0,0,0,0,0,"2100 W 91ST ST60620
(41.728392397940674, -87.6746631658291)",41.7283924,-87.6746632,1.8841444
1135,WEISMAN (ALBERT),901 W OAKDALE AVE,60657.0,0.3,44,MINI-PARK,Weisman,0,0,0,0,0,0,0,0,0,0,0,0,0,0,0,0,0,0,0,0,0,0,0,0,0,0,0,0,0,0,0,0,0,0,0,0,0,0,0,0,0,0,1,0,0,0,0,0,0,0,1,0,0,0,0,0,0,0,0,0,0,0,0,0,0,0,"901 W OAKDALE AVE60657
(41.935341406119036, -87.65159918827251)",41.9353414,-87.6515992,0.5477226
1214,EUGENIE TRIANGLE,1707 N LA SALLE ST,60614.0,0.03,43,PASSIVE PARK,Eugenie Triangle,0,0,0,0,0,0,0,0,0,0,0,0,0,0,0,0,0,0,0,0,0,0,0,0,0,0,0,0,0,0,0,0,0,0,0,0,0,0,0,0,0,0,0,0,0,0,0,0,0,0,0,0,0,0,0,0,0,0,0,0,0,0,0,0,0,0,"1707 N LA SALLE ST60614
(41.912976226043035, -87.63306885033433)",41.9129762,-87.6330689,0.1732051
447,MARTIN (JOHNNY),922 W FLETCHER ST,60657.0,0.13,44,MINI-PARK,Martin,0,0,0,0,0,0,0,0,0,0,0,0,0,0,0,0,0,0,0,0,0,0,0,0,0,0,0,0,0,0,0,0,0,0,0,0,0,0,0,0,0,0,1,0,0,0,0,0,0,0,0,0,0,0,0,0,0,0,0,0,0,0,0,0,0,0,"922 W FLETCHER ST60657
(41.93900999129732, -87.65242716465252)",41.93901,-87.6524272,0.3605551
338,JEFFERSON (NANCY),3111 W FULTON BLVD,60612.0,0.63,27,NEIGHBORHOOD PARK,Jefferson (Nancy),0,0,0,0,0,0,2,1,0,0,0,0,0,0,0,0,0,0,0,0,0,0,0,0,0,0,0,0,0,0,0,0,0,0,0,0,0,0,0,0,0,1,0,0,0,0,0,0,0,0,0,0,0,0,0,0,0,0,0,0,0,0,0,0,0,0,"3111 W FULTON BLVD60612
(41.88638044515689, -87.70409752680732)",41.8863804,-87.7040975,0.7937254
457,CLARK (RICHARD),3400 N ROCKWELL AVE,60618.0,21.56,47,PASSIVE PARK,Clark (Richard),0,0,0,0,0,0,0,0,0,0,1,0,0,0,0,0,2,0,0,0,0,0,0,0,0,0,0,0,0,0,0,0,0,0,0,0,1,0,0,0,0,0,0,0,0,0,0,0,0,0,0,0,0,0,0,0,0,0,0,0,0,0,0,0,0,0,"3400 N ROCKWELL AVE60618
(41.94318126924641, -87.6938340897585)",41.9431813,-87.6938341,4.6432747
106,HAMLIN (HANNIBAL),3035 N HOYNE AVE,60618.0,8.16,32,COMMUNITY PARK,Hamlin,0,0,0,0,0,0,4,1,0,0,0,0,0,0,0,0,1,0,0,1,1,1,0,0,0,0,0,0,2,0,0,0,0,0,0,2,0,0,1,0,0,1,0,0,0,0,0,0,0,0,0,2,2,0,0,0,0,1,0,0,0,0,0,0,0,0,"3035 N HOYNE AVE60618
(41.936520770522, -87.68060487558624)",41.9365208,-87.6806049,2.8565714
544,KLEIN (LOIS),3538-40 N LINCOLN AVE,60657.0,0.33,32,PASSIVE PARK,Klein,0,0,0,0,0,0,0,0,0,0,0,0,0,0,0,0,0,0,0,0,0,0,0,0,0,0,0,0,0,0,0,0,0,0,0,0,0,0,0,0,0,0,1,0,0,0,0,0,0,0,0,0,0,0,0,0,0,0,0,0,0,0,0,0,0,0,"3538-40 N LINCOLN AVE60657
(41.93966, -87.65668)",41.93966,-87.65668,0.5744563
1013,LEONE (SAM) BEACH,1222 W TOUHY AVE,60626.0,2.54,49,COMMUNITY PARK,Leone Beach,0,0,0,0,0,0,0,0,1,0,1,0,0,0,0,0,0,0,0,0,0,0,0,0,0,0,0,0,1,0,0,0,0,0,0,0,0,0,0,0,0,1,0,0,0,0,0,0,0,0,0,0,0,0,0,0,0,0,0,0,0,0,0,0,0,0,"1222 W TOUHY AVE60626
(42.01293241179647, -87.66199860447963)",42.0129324,-87.6619986,1.5937377
417,HAZELNUT,5949 W HURON ST,60644.0,0.23,29,MINI-PARK,Hazelnut,0,0,0,0,0,0,0,0,0,0,0,0,0,0,0,0,0,0,0,0,0,0,0,0,0,0,0,0,0,0,0,0,0,0,0,0,0,0,0,0,0,0,1,0,0,0,0,0,0,0,0,0,0,0,0,0,0,0,0,0,0,0,0,0,0,0,"5949 W HURON ST60644
(41.892791769080944, -87.77360572661482)",41.8927918,-87.7736057,0.4795832
214,"WICKER (CHARLES, JOEL)",1425 N DAMEN AVE,60622.0,4.03,26,COMMUNITY PARK,Wicker,0,0,0,0,0,0,4,2,0,0,0,0,0,0,0,1,1,1,0,0,1,0,0,0,0,0,0,0,1,0,0,0,0,0,0,1,0,0,0,0,0,1,0,0,0,0,0,0,0,0,1,0,0,0,0,0,0,0,0,0,0,0,0,0,0,0,"1425 N DAMEN AVE60622
(41.90742500122083, -87.67729600470253)",41.907425,-87.677296,2.007486
279,ELM,5215 S WOODLAWN AVE,60615.0,0.46,4,PASSIVE PARK,Elm,0,0,0,0,0,0,0,0,0,0,0,0,0,0,0,0,0,0,0,0,0,0,0,0,0,0,0,0,0,0,0,0,0,0,0,0,0,0,0,0,0,0,0,0,0,0,0,0,0,0,0,0,0,0,0,0,0,0,0,0,0,0,0,0,0,0,"5215 S WOODLAWN AVE60615
(41.800678017860825, -87.59659816710874)",41.800678,-87.5965982,0.678233
316,WOOD (ELIZABETH),2914 N LEAVITT ST,60618.0,0.44,33,MINI-PARK,Wood,0,0,0,0,0,0,0,0,0,0,0,0,0,0,0,0,0,0,0,0,0,0,0,0,0,0,0,0,0,0,0,0,0,0,0,0,0,0,0,0,0,1,0,0,0,0,0,0,0,0,0,0,0,0,0,0,0,0,0,0,0,0,0,0,0,0,"2914 N LEAVITT ST60618
(41.93459420364016, -87.6831442771181)",41.9345942,-87.6831443,0.663325
1028,MICEK (FRANK),5311 S HAMILTON AVE,60609.0,1.26,14,NEIGHBORHOOD PARK,Micek,0,0,0,0,0,0,2,1,0,0,0,0,0,0,0,0,1,0,0,0,0,0,0,0,0,0,0,0,0,0,0,0,0,0,0,0,0,0,0,0,0,1,0,0,0,0,0,0,0,0,1,0,0,0,1,0,0,0,0,0,0,0,0,0,0,0,"5311 S HAMILTON AVE60609
(41.796974169033724, -87.67791788275771)",41.7969742,-87.6779179,1.1224972
34,NORTHERLY ISLAND,1400 S LYNN WHITE DR,60605.0,91.2,1,MAGNET PARK,Northerly Island,0,0,0,0,0,0,0,0,1,0,0,0,0,0,0,0,0,0,0,0,0,0,0,0,0,0,0,0,0,0,0,0,0,0,0,0,0,0,0,0,0,0,0,0,0,0,0,0,0,0,0,0,0,0,0,0,0,0,0,0,0,0,0,0,0,0,"1400 S LYNN WHITE DR60605
(41.863104937710304, -87.60910669563046)",41.8631049,-87.6091067,9.5498691
1281,FILBERT,1822 W LARCHMONT AVE,60613.0,0.1,47,MINI-PARK,Filbert,0,0,0,0,0,0,0,0,0,0,0,0,0,0,0,0,0,0,0,0,0,0,0,0,0,0,0,0,0,0,0,0,0,0,0,0,0,0,0,0,0,0,1,0,0,0,0,0,0,0,0,0,0,0,0,0,0,0,0,0,0,0,0,0,0,0,"1822 W LARCHMONT AVE60613
(41.9533249770172, -87.67469105751624)",41.953325,-87.6746911,0.3162278
234,HALE (NATHAN),6140 S MELVINA AVE,60638.0,16.6,23,REGIONAL PARK,Hale,0,0,0,0,0,0,0,0,0,0,0,0,2,0,0,0,1,0,0,0,0,0,0,0,0,0,0,0,1,0,0,0,0,0,0,2,0,0,1,0,0,1,0,0,0,0,0,0,0,0,0,2,2,0,0,1,0,0,0,0,0,0,0,0,0,0,"6140 S MELVINA AVE60638
(41.78068716003814, -87.77654377543566)",41.7806872,-87.7765438,4.0743098
331,FLYING SQUIRREL,6600 S WOODLAWN AVE,60637.0,0.16,20,MINI-PARK,Flying Squirrel,0,0,0,0,0,0,0,0,0,0,0,0,0,0,0,0,0,0,0,0,0,0,0,0,0,0,0,0,0,0,0,0,0,0,0,0,0,0,0,0,0,0,1,0,0,0,0,0,0,0,0,0,0,0,0,0,0,0,0,0,0,0,0,0,0,0,"6600 S WOODLAWN AVE60637
(41.77499332425278, -87.59613996010869)",41.7749933,-87.59614,0.4
1133,NELSON (ANDREW),2953 W NELSON ST,60618.0,0.13,33,MINI-PARK,Nelson,0,0,0,0,0,0,0,0,0,0,0,0,0,0,0,0,0,0,0,0,0,0,0,0,0,0,0,0,0,0,0,0,0,0,0,0,0,0,0,0,0,0,1,0,0,0,0,0,0,0,0,0,0,0,0,0,0,0,0,0,0,0,0,0,0,0,"2953 W NELSON ST60618
(41.93723462372725, -87.70185590207119)",41.9372346,-87.7018559,0.3605551
334,"KING (MARTIN LUTHER, JR.)",1212 W 77TH ST,60620.0,6.39,17,REGIONAL PARK,King,0,0,0,0,0,0,0,0,0,0,0,0,0,0,0,0,0,0,0,0,0,0,0,0,0,0,0,0,0,0,0,0,0,0,0,0,0,0,0,0,0,1,0,0,0,0,0,0,0,0,1,0,0,0,0,0,0,0,0,0,0,0,0,0,0,0,"1212 W 77TH ST60620
(41.75418260905677, -87.65406567406392)",41.7541826,-87.6540657,2.5278449
347,GINKGO,3432 W 15TH ST,60623.0,0.11,24,MINI-PARK,Ginkgo,0,0,0,0,0,0,0,0,0,0,0,0,0,0,0,0,0,0,0,0,0,0,0,0,0,0,0,0,0,0,0,0,0,0,0,0,0,0,0,0,0,0,1,0,0,0,0,0,0,0,0,0,0,0,0,0,0,0,0,0,0,0,0,0,0,0,"3432 W 15TH ST60623
(41.86090565257723, -87.7116668621937)",41.8609057,-87.7116669,0.3316625
1126,MERRILL (GEORGE),2131 E 96TH ST,60617.0,3.09,10,NEIGHBORHOOD PARK,Merrill,0,0,0,0,0,0,4,2,0,0,0,0,0,0,0,0,0,0,0,0,0,0,0,0,0,0,0,0,0,0,0,0,0,0,0,1,0,0,0,0,0,1,0,0,0,0,0,0,0,0,1,0,0,0,0,0,0,0,0,0,0,0,0,0,0,0,"2131 E 96TH ST60617
(41.720628472953386, -87.57257728600307)",41.7206285,-87.5725773,1.7578396
1055,LITTLE VENICE,2251 W 50TH PL,60609.0,0.8,14,NEIGHBORHOOD PARK,Little Venice,0,0,0,0,0,0,0,0,0,0,0,0,0,0,0,0,0,0,0,0,0,0,0,0,0,0,0,0,0,0,0,0,0,0,0,0,0,0,0,0,0,1,0,0,0,0,0,0,0,0,1,0,0,0,0,0,0,0,0,0,0,0,0,0,0,0,"2251 W 50TH PL60609
(41.80201385517387, -87.6809044730743)",41.8020139,-87.6809045,0.8944272
217,PULASKI (CASIMER),1419 W BLACKHAWK ST,60622.0,3.69,32,COMMUNITY PARK,Pulaski,0,0,0,0,0,0,0,0,0,0,0,0,0,0,0,0,1,0,0,0,0,0,0,0,0,0,0,0,2,0,0,0,0,0,0,1,0,0,1,0,0,0,0,0,0,0,0,0,0,0,1,0,0,0,0,1,0,0,0,0,0,0,0,0,0,0,"1419 W BLACKHAWK ST60622
(41.90318000000002, -87.68408)",41.90318,-87.68408,1.9209373
1112,JACKSON (ROBERT),4319 S INDIANA AVE,60653.0,0.24,3,MINI-PARK,Jackson (Robert),0,0,0,0,0,0,0,0,0,0,0,0,0,0,0,0,0,0,0,0,0,0,0,0,0,0,0,0,0,0,0,0,0,0,0,0,0,0,0,0,0,0,1,0,0,0,0,0,0,0,0,0,0,0,0,0,0,0,0,0,0,0,0,0,0,0,"4319 S INDIANA AVE60653
(41.8161909483838, -87.62132413903343)",41.8161909,-87.6213241,0.4898979
510,PARK NO. 510,2139-59 W. LEXINGTON ST,60612.0,1.97,25,UNIMPROVED PARK,Park No. 510,0,0,0,0,0,0,0,0,0,0,0,0,0,0,0,0,1,0,0,0,0,0,0,0,0,0,0,0,0,0,0,0,0,0,0,0,0,0,0,0,0,0,0,0,0,0,0,0,0,0,0,2,0,0,0,0,0,0,0,0,0,0,0,0,0,0,"2139-59 W. LEXINGTON ST60612
(41.88057000000009, -87.68777999999998)",41.88057,-87.68778,1.4035669
378,CORNELL (PAUL),5473 S CORNELL AVE,60615.0,0.21,5,MINI-PARK,Cornell,0,0,0,0,0,0,0,0,0,0,0,0,0,0,0,0,0,0,0,0,0,0,0,0,0,0,0,0,0,0,0,0,0,0,0,0,0,0,0,0,0,0,1,0,0,0,0,0,0,0,0,0,0,0,0,0,0,0,0,0,0,0,0,0,0,0,"5473 S CORNELL AVE60615
(41.79602112290249, -87.58534960138121)",41.7960211,-87.5853496,0.4582576
490,RIDGE PARK WETLANDS,9516 S WOOD ST,60643.0,1.21,19,PASSIVE PARK,Ridge Park Wetlands,0,0,0,0,0,0,0,0,0,0,0,0,0,0,0,0,0,0,0,0,0,0,0,0,0,0,0,0,0,0,0,0,0,0,0,0,0,0,0,0,0,0,0,0,0,0,0,0,0,0,0,0,0,0,0,0,0,0,1,0,0,0,0,0,0,0,"9516 S WOOD ST60643
(41.72080653509911, -87.66757973116323)",41.7208065,-87.6675797,1.1
537,HERITAGE GREEN,610-30 W ADAMS ST,60661.0,0.96,2,PASSIVE PARK,Heritage Green,0,0,0,0,0,0,0,0,0,0,0,0,0,0,0,0,0,0,0,0,0,0,0,0,0,0,0,0,0,0,0,0,0,0,0,0,0,0,0,0,0,0,0,0,0,0,0,0,0,0,0,0,0,0,0,0,0,0,0,0,0,0,0,0,0,0,"610-30 W ADAMS ST60661
(41.88292999999999, -87.64358999999996)",41.88293,-87.64359,0.9797959
1056,PARK-VIEW,3823 W SCHOOL ST,60618.0,0.63,35,NEIGHBORHOOD PARK,Park-View,0,0,0,0,0,0,0,0,0,0,0,0,0,0,0,0,0,0,0,0,0,0,0,0,0,0,0,0,0,0,0,0,0,0,0,0,0,0,0,0,0,0,1,0,0,0,0,0,0,0,0,0,0,0,0,0,0,0,0,0,0,0,0,0,0,0,"3823 W SCHOOL ST60618
(41.940898013713266, -87.72325839543788)",41.940898,-87.7232584,0.7937254
488,CHALLENGER,1100 W IRVING PARK RD,60613.0,2.94,46,NEIGHBORHOOD PARK,Challenger,0,0,0,0,0,0,0,0,0,0,0,0,0,0,0,0,0,0,0,0,1,0,0,0,0,0,0,0,0,0,0,0,0,0,0,0,0,0,0,0,0,0,0,0,0,0,0,0,0,0,0,0,0,0,0,0,0,0,0,0,0,0,0,0,0,0,"1100 W IRVING PARK RD60613
(41.95449190566012, -87.65697200955285)",41.9544919,-87.656972,1.7146428
496,"BOLER (LEO ROSCOE, SR.)",3601 W ARTHINGTON ST,60624.0,1.81,24,NEIGHBORHOOD PARK,Boler,0,0,0,0,0,0,0,0,0,0,0,0,0,0,0,0,0,0,0,0,0,0,0,0,0,0,0,0,0,0,0,0,0,0,0,0,0,0,0,0,0,1,0,0,0,0,0,0,0,0,0,0,0,0,0,0,0,0,0,0,0,0,0,0,0,0,"3601 W ARTHINGTON ST60624
(41.869872017371854, -87.71553942874213)",41.869872,-87.7155394,1.3453624
1032,HAAS (JOSEPH),2402 N WASHTENAW AVE,60647.0,0.86,33,NEIGHBORHOOD PARK,Haas,0,0,0,0,0,0,0,0,0,0,0,0,0,0,0,0,1,0,0,0,0,1,0,0,0,0,0,0,1,0,0,0,0,0,0,1,0,0,0,0,0,1,0,0,0,0,0,0,0,0,1,0,0,0,0,0,0,0,0,0,0,0,0,0,0,0,"2402 N WASHTENAW AVE60647
(41.92492784720372, -87.6950423012306)",41.9249278,-87.6950423,0.9273618
1022,BARRETT (JOHN),2022 W CERMAK RD,60608.0,0.65,25,NEIGHBORHOOD PARK,Barrett,0,0,0,0,0,0,2,1,0,0,0,0,0,0,0,0,0,0,0,0,0,0,0,0,0,0,0,0,0,0,0,0,0,0,0,0,0,0,0,0,0,1,0,0,0,0,0,0,0,0,0,0,0,0,0,0,0,0,0,0,0,0,0,0,0,0,"2022 W CERMAK RD60608
(41.85223664941679, -87.67639330350434)",41.8522366,-87.6763933,0.8062258
239,DAWES (CHARLES),8040 S DAMEN AV,60620.0,16.26,18,COMMUNITY PARK,Dawes,0,0,0,0,0,0,2,1,0,0,0,0,0,0,0,0,2,0,0,0,0,0,0,0,0,0,0,0,0,0,0,0,0,0,0,4,0,0,0,0,0,1,0,0,0,0,0,0,0,0,1,1,0,0,0,0,0,0,0,0,0,0,0,0,0,0,"8040 S DAMEN AV60620
(41.747356590549835, -87.67313800388732)",41.7473566,-87.673138,4.032369
566,PARK NO. 566,7901 S FARRAGUT,60617.0,30.17,7,UNIMPROVED,Park No. 566,0,0,0,0,0,0,0,0,0,0,0,0,0,0,0,0,0,0,0,0,0,0,0,0,0,0,0,0,0,0,0,0,0,0,0,0,0,0,0,0,0,0,0,0,0,0,0,0,0,0,0,0,0,0,0,0,0,0,0,0,0,0,0,0,0,0,"7901 S FARRAGUT60617
(41.712690000000066, -87.55551000000003)",41.71269,-87.55551,5.4927225
536,PARK NO. 536,1401 N NOBLE ST,60622.0,0.24,32,UNIMPROVED PARK,Park No. 536,0,0,0,0,0,0,0,0,0,0,0,0,0,0,0,0,0,0,0,0,0,0,0,0,0,0,0,0,0,0,0,0,0,0,0,0,0,0,0,0,0,0,0,0,0,0,0,0,0,0,0,0,0,0,0,0,0,0,0,0,0,0,0,0,0,0,"1401 N NOBLE ST60622
(41.90318000000002, -87.68408)",41.90318,-87.68408,0.4898979
1011,LAWLER (MICHAEL),5210 W 64TH ST,60638.0,6.2,13,COMMUNITY PARK,Lawler,0,0,0,0,0,0,6,3,0,0,0,0,0,0,0,0,1,0,0,0,0,0,0,0,0,0,0,0,0,0,0,0,2,0,0,2,0,0,0,0,0,1,0,0,0,0,0,0,0,0,1,0,0,0,0,0,0,0,0,0,0,0,0,0,0,0,"5210 W 64TH ST60638
(41.776037107986554, -87.75112378358243)",41.7760371,-87.7511238,2.4899799
1086,CARPENTER (PHILO),6155 S CARPENTER ST,60621.0,0.21,16,MINI-PARK,Carpenter,0,0,0,0,0,0,0,0,0,0,0,0,0,0,0,0,0,0,0,0,0,0,0,0,0,0,0,0,0,0,0,0,0,0,0,0,0,0,0,0,0,0,1,0,0,0,0,0,0,0,0,0,0,0,0,0,0,0,0,0,0,0,0,0,0,0,"6155 S CARPENTER ST60621
(41.782278068739394, -87.65085501217841)",41.7822781,-87.650855,0.4582576
7,SHERMAN (JOHN),1307 W 52ND ST,60609.0,60.6,15,REGIONAL PARK,Sherman,0,0,0,0,0,0,4,2,0,0,0,0,0,0,1,0,3,0,0,0,0,1,0,0,0,0,0,0,1,0,0,2,0,0,0,3,0,0,1,0,0,3,0,0,0,0,0,0,0,0,1,2,2,1,1,0,0,0,0,1,0,0,0,0,0,0,"1307 W 52ND ST60609
(41.79953498429973, -87.6576156184181)",41.799535,-87.6576156,7.7846002
1276,EVERGREEN,631 W BELMONT AVE,60657.0,0.14,44,MINI-PARK,Evergreen,0,0,0,0,0,0,0,0,0,0,0,0,0,0,0,0,0,0,0,0,0,0,0,0,0,0,0,0,0,0,0,0,0,0,0,0,0,0,0,0,0,0,1,0,0,0,0,0,0,0,0,0,0,0,0,0,0,0,0,0,0,0,0,0,0,0,"631 W BELMONT AVE60657
(41.93998269268468, -87.64574625066184)",41.9399827,-87.6457463,0.3741657
522,WANG (CHI CHE),1762 W DIVERSEY PKWY,60657.0,1.97,32,UNIMPROVED PARK,Wang,0,0,0,0,0,0,0,0,0,0,0,0,0,0,0,0,0,0,0,0,0,0,0,0,0,0,0,0,0,0,0,0,0,0,0,0,0,0,0,0,0,1,0,0,0,0,0,0,0,0,0,0,0,0,0,0,0,0,0,0,0,0,0,0,0,0,"1762 W DIVERSEY PKWY60657
(41.93966, -87.65668)",41.93966,-87.65668,1.4035669
90,NORTH MAYFAIR,4537 W CARMEN AVE,60630.0,0.56,39,NEIGHBORHOOD PARK,North Mayfair,0,0,0,0,0,0,0,0,0,0,0,0,0,0,0,0,0,0,0,0,0,0,0,0,0,0,0,0,0,0,0,0,0,0,0,0,0,0,0,0,0,0,1,0,0,0,0,0,0,0,0,0,0,0,0,0,0,0,0,0,0,0,0,0,0,0,"4537 W CARMEN AVE60630
(41.97351315281124, -87.74197031538246)",41.9735132,-87.7419703,0.7483315
291,STOUT (FLORENCE),5446 S GREENWOOD AVE,60615.0,2.7,4,NEIGHBORHOOD PARK,Stout,0,0,0,0,0,0,0,0,0,0,0,0,0,0,0,0,0,0,0,0,0,0,0,0,0,0,0,0,0,0,0,0,0,0,0,1,0,0,0,0,0,2,0,0,0,0,0,0,0,0,0,0,0,0,0,0,0,0,0,0,0,0,0,0,0,0,"5446 S GREENWOOD AVE60615
(41.79672531391511, -87.59976090787049)",41.7967253,-87.5997609,1.6431677
542,BARTELME (MARY),115 S. SANGAMON ST,60602.0,2.29,2,NEIGHBORHOOD PARK,Bartelme,0,0,0,0,0,0,0,0,0,0,0,0,0,0,0,0,0,0,0,0,1,0,0,0,0,0,0,0,0,0,0,0,0,0,0,0,0,0,0,0,0,1,0,0,0,0,0,0,0,0,0,0,0,0,0,0,0,0,0,0,0,0,0,0,0,0,"115 S. SANGAMON ST60602
(41.88324000000006, -87.6291)",41.88324,-87.6291,1.5132746
465,DEARBORN (HENRY),865 S PARK TER,60605.0,1.28,1,PASSIVE PARK,Dearborn,0,0,0,0,0,0,0,0,0,0,0,0,0,0,0,0,0,0,0,0,0,0,1,0,0,0,0,0,0,0,0,0,0,0,0,0,0,0,0,0,0,0,0,0,0,0,0,0,0,0,0,0,0,0,0,0,0,0,0,0,0,0,0,0,0,0,"865 S PARK TER60605
(41.87092227698244, -87.62947692359775)",41.8709223,-87.6294769,1.1313708
1272,BUTTERNUT,5324 S WOODLAWN AVE,60615.0,0.38,4,MINI-PARK,Butternut,0,0,0,0,0,0,0,0,0,0,0,0,0,0,0,0,0,0,0,0,0,0,0,0,0,0,0,0,0,0,0,0,0,0,0,0,0,0,0,0,0,0,1,0,0,0,0,0,0,0,0,0,0,0,0,0,0,0,0,0,0,0,0,0,0,0,"5324 S WOODLAWN AVE60615
(41.79908478235347, -87.59669827623404)",41.7990848,-87.5966983,0.6164414
246,TOUHY (PATRICK),7348 N PAULINA ST,60626.0,6.35,49,COMMUNITY PARK,Touhy,0,0,0,0,0,0,0,0,0,0,0,0,0,0,0,0,1,0,0,0,0,1,0,0,0,0,0,0,1,0,0,0,0,0,0,3,0,0,0,0,0,1,0,0,0,0,0,0,0,0,0,0,2,0,0,0,0,0,0,0,0,0,0,0,0,0,"7348 N PAULINA ST60626
(42.01485083190631, -87.67251926344815)",42.0148508,-87.6725193,2.5199206
429,SOUTH SHORE CULTL. CTR.,7059 S SOUTH SHORE DR,60649.0,64.5,5,CITYWIDE PARK,South Shore Cultl. Ctr.,0,0,0,0,0,0,0,0,1,0,0,0,0,0,0,0,0,0,0,1,0,0,0,1,0,1,0,0,0,0,0,0,0,0,0,0,0,0,0,0,0,0,0,0,0,0,0,0,0,0,0,0,4,0,0,0,0,0,0,0,0,0,0,0,0,0,"7059 S SOUTH SHORE DR60649
(41.76674595610796, -87.56639757095289)",41.766746,-87.5663976,8.0311892
333,MAGNOLIA,3228 W FLOURNOY ST,60624.0,0.21,24,MINI-PARK,Magnolia,0,0,0,0,0,0,0,0,0,0,0,0,0,0,0,0,0,0,0,0,0,0,0,0,0,0,0,0,0,0,0,0,0,0,0,0,0,0,0,0,0,0,1,0,0,0,0,0,0,0,1,0,0,0,0,0,0,0,0,0,0,0,0,0,0,0,"3228 W FLOURNOY ST60624
(41.87280942088451, -87.70662934248283)",41.8728094,-87.7066293,0.4582576
1050,MOORE (MAURICE),5085 W ADAMS ST,60644.0,3.2,29,NEIGHBORHOOD PARK,Moore,0,0,0,0,0,0,2,1,0,0,0,0,0,0,0,0,1,1,0,0,0,0,0,0,0,0,0,0,0,0,0,0,0,0,0,1,0,0,0,0,0,1,0,0,0,0,0,0,0,0,1,0,0,0,0,0,0,0,0,0,0,0,0,0,0,0,"5085 W ADAMS ST60644
(41.87844122282727, -87.75277570429367)",41.8784412,-87.7527757,1.7888544
344,DOGWOOD,2734 W POLK ST,60612.0,0.14,27,MINI-PARK,Dogwood,0,0,0,0,0,0,0,0,0,0,0,0,0,0,0,0,0,0,0,0,0,0,0,0,0,0,0,0,0,0,0,0,0,0,0,0,0,0,0,0,0,0,1,0,0,0,0,0,0,0,1,0,0,0,0,0,0,0,0,0,0,0,0,0,0,0,"2734 W POLK ST60612
(41.87112344764357, -87.69445903991468)",41.8711234,-87.694459,0.3741657
1047,GARIBALDI (GIUSEPPI),1520 W POLK ST,60607.0,2.45,1,NEIGHBORHOOD PARK,Garibaldi,0,0,0,0,0,0,0,0,0,0,0,0,0,0,0,0,0,0,0,0,0,0,0,0,0,0,0,0,0,0,0,0,0,0,0,0,0,0,0,0,0,1,0,0,0,0,0,0,0,0,0,0,0,0,0,0,0,0,0,0,0,0,0,0,0,0,"1520 W POLK ST60607
(41.87170606227912, -87.6646742545981)",41.8717061,-87.6646743,1.5652476
1073,WOODHULL (ROSS),7340 S EAST END AVE,60649.0,2.24,5,NEIGHBORHOOD PARK,Woodhull,0,0,0,0,0,0,4,2,0,0,0,0,0,0,0,0,1,0,0,0,0,0,0,0,0,0,0,0,0,0,0,0,0,0,0,0,0,0,0,0,0,1,0,0,0,0,0,0,0,0,1,0,0,1,0,0,0,0,0,0,0,0,0,0,0,0,"7340 S EAST END AVE60649
(41.76166984988256, -87.58361657437297)",41.7616698,-87.5836166,1.496663
1040,KELLS (GEORGE),3201 W CHICAGO AVE,60624.0,1.7,27,NEIGHBORHOOD PARK,Kells,0,0,0,0,0,0,0,0,0,0,0,0,0,0,0,0,0,0,0,0,0,0,0,0,0,0,0,0,0,0,0,0,0,0,0,1,0,0,0,0,0,1,0,0,0,0,0,0,0,0,0,0,0,0,0,0,0,0,0,0,0,0,0,0,0,0,"3201 W CHICAGO AVE60624
(41.88020000000006, -87.72311000000002)",41.8802,-87.72311,1.3038405
1215,FERNWOOD PKWY.,9501 S EGGLESTON AVE,60628.0,8.63,21,PASSIVE PARK,Fernwood Pkwy.,0,0,0,0,0,0,0,0,0,0,0,0,0,0,0,0,0,0,0,0,0,0,0,0,0,0,0,0,0,0,0,0,0,0,0,0,0,0,0,0,0,0,0,0,0,0,0,0,0,0,0,0,0,0,0,0,0,0,0,0,0,0,0,0,0,0,"9501 S EGGLESTON AVE60628
(41.691100000000006, -87.61517000000003)",41.6911,-87.61517,2.9376862
177,BRAINERD,1246 W 92ND ST,60620.0,8.23,21,COMMUNITY PARK,Brainerd,0,0,0,0,0,0,6,3,0,0,0,0,0,0,0,0,1,0,0,0,0,0,0,0,0,0,0,0,1,0,0,0,0,0,0,2,0,0,0,0,0,1,0,0,0,0,0,0,0,0,1,2,3,0,0,0,0,0,0,0,0,0,0,0,0,0,"1246 W 92ND ST60620
(41.726838075426336, -87.6541891417518)",41.7268381,-87.6541891,2.8687977
1089,CHRISTIANA,1533 S CHRISTIANA AVE,60623.0,0.14,24,MINI-PARK,Christiana,0,0,0,0,0,0,1,1,0,0,0,0,0,0,0,0,0,0,0,0,0,0,0,0,0,0,0,0,0,0,0,0,0,0,0,0,0,0,0,0,0,0,1,0,0,0,0,0,0,0,0,0,0,0,0,0,0,0,0,0,0,0,0,0,0,0,"1533 S CHRISTIANA AVE60623
(41.86026560821678, -87.70905357277866)",41.8602656,-87.7090536,0.3741657
1100,FELLGER (CHARLES),2012 W BELMONT AVE,60618.0,0.72,32,NEIGHBORHOOD PARK,Fellger,0,0,0,0,0,0,0,0,0,0,0,0,0,0,0,0,0,0,0,0,0,0,0,0,0,0,0,0,0,0,0,0,0,0,0,0,0,0,0,0,0,0,1,0,0,0,0,0,0,0,0,0,0,0,0,0,0,0,0,0,0,0,0,0,0,0,"2012 W BELMONT AVE60618
(41.939630246094445, -87.67885974200806)",41.9396302,-87.6788597,0.8485281
1261,"PRATT (GEORGE, PAUL) BEACH",1050 W PRATT BLVD,60626.0,2.31,49,PASSIVE PARK,Pratt Beach,0,0,0,0,0,0,0,0,0,0,0,0,0,0,0,0,0,0,0,0,0,0,0,0,0,0,0,0,0,0,0,0,0,0,0,0,0,0,0,0,0,0,0,0,0,0,0,0,0,0,0,0,0,0,0,0,0,0,0,0,0,0,0,0,0,0,"1050 W PRATT BLVD60626
(42.00561046024516, -87.6587418876996)",42.0056105,-87.6587419,1.5198684
1092,DAVIS (MARGARET),5427 W DIVISION ST,60651.0,0.26,37,MINI-PARK,Davis (Margaret),0,0,0,0,0,0,2,1,0,0,0,0,0,0,0,0,0,0,0,0,0,0,0,0,0,0,0,0,0,0,0,0,0,0,0,0,0,0,0,0,0,0,1,0,0,0,0,0,0,0,0,0,0,0,0,0,0,0,0,0,0,0,0,0,0,0,"5427 W DIVISION ST60651
(41.90213862028706, -87.76176419500287)",41.9021386,-87.7617642,0.509902
336,HUCKLEBERRY,6200 S KIMBARK AVE,60637.0,0.19,20,MINI-PARK,Huckleberry,0,0,0,0,0,0,0,0,0,0,0,0,0,0,0,0,0,0,0,0,0,0,0,0,0,0,0,0,0,0,0,0,0,0,0,0,0,0,0,0,0,0,1,0,0,0,0,0,0,0,0,0,0,0,0,0,0,0,0,0,0,0,0,0,0,0,"6200 S KIMBARK AVE60637
(41.782295352111795, -87.59476373159039)",41.7822954,-87.5947637,0.4358899
1038,INDIAN ROAD,6010 W MATSON AVE,60646.0,2.85,45,NEIGHBORHOOD PARK,Indian Road,0,0,0,0,0,0,4,1,0,0,0,0,0,0,0,0,0,0,0,0,0,0,0,0,0,0,0,0,0,0,0,0,0,0,0,1,0,0,0,0,0,1,0,0,0,0,0,0,0,0,1,0,0,0,0,0,0,0,0,0,0,0,0,0,0,0,"6010 W MATSON AVE60646
(41.99281141928152, -87.77830316817563)",41.9928114,-87.7783032,1.6881943
22,GAGE (GEORGE),2415 W 55TH ST,60629.0,29.22,16,REGIONAL PARK,Gage,0,0,0,0,0,0,2,1,0,0,0,0,0,0,0,0,3,0,0,0,0,1,0,0,0,0,0,0,2,0,0,2,0,0,0,3,0,0,1,0,0,1,0,0,0,0,0,0,0,0,1,2,8,1,1,0,0,0,0,0,0,0,0,0,0,0,"2415 W 55TH ST60629
(41.77413000000007, -87.71231)",41.77413,-87.71231,5.4055527
526,PARK NO. 526,3200 W PETERSON AVE,60659.0,7.55,0,UNIMPROVED PARK,Park No. 526,0,0,0,0,0,0,0,0,0,0,1,0,0,0,0,0,0,0,0,0,0,0,0,0,0,0,0,0,0,0,0,0,0,0,0,0,0,0,0,0,0,0,0,0,0,0,0,0,0,0,0,0,0,0,0,0,0,0,0,0,0,0,0,0,0,0,"3200 W PETERSON AVE60659
(41.99037330616977, -87.71005660354297)",41.9903733,-87.7100566,2.7477263
1130,MONTICELLO,1814 N MONTICELLO AVE,60647.0,0.36,31,MINI-PARK,Monticello,0,0,0,0,0,0,2,1,0,0,0,0,0,0,0,0,0,0,0,0,0,0,0,0,0,0,0,0,0,0,0,0,0,0,0,0,0,0,0,0,0,1,0,0,0,0,0,0,0,0,0,0,0,0,0,0,0,0,0,0,0,0,0,0,0,0,"1814 N MONTICELLO AVE60647
(41.91390722705534, -87.7179533250964)",41.9139072,-87.7179533,0.6
1031,GROSS,2708 W LAWRENCE AVE,60625.0,1.4,40,NEIGHBORHOOD PARK,Gross,0,0,0,0,0,0,4,1,0,0,0,0,0,0,0,0,1,0,0,0,0,0,0,0,0,0,0,0,0,0,0,0,0,0,0,0,0,0,0,0,0,1,0,0,0,0,0,0,0,0,0,0,0,0,0,0,0,0,0,0,0,0,0,0,0,0,"2708 W LAWRENCE AVE60625
(41.96859889546024, -87.69660624272714)",41.9685989,-87.6966062,1.183216
1268,MIDWAY PLAISANCE,5950 S WOODLAWN AVE,60637.0,80.0,5,CITYWIDE PARK,Midway Plaisance,0,0,0,0,0,0,0,0,0,0,0,0,0,0,0,0,7,0,0,0,0,0,0,0,0,0,0,0,0,0,0,0,0,1,0,0,0,0,0,0,0,0,0,0,0,0,0,0,0,0,0,0,0,0,0,0,0,0,0,0,0,0,0,0,0,0,"5950 S WOODLAWN AVE60637
(41.78827131986828, -87.59646713858358)",41.7882713,-87.5964671,8.9442719
47,CRESCENT,2230 W 108TH PL,60643.0,5.18,19,COMMUNITY PARK,Crescent,0,0,0,0,0,0,0,0,0,0,0,0,0,0,0,0,1,0,0,0,0,0,0,0,0,0,0,0,0,0,0,0,0,0,0,1,0,0,0,0,0,1,0,0,0,0,0,0,0,0,0,0,2,0,0,0,0,0,0,0,0,0,0,0,0,0,"2230 W 108TH PL60643
(41.696723865536036, -87.67763130615604)",41.6967239,-87.6776313,2.2759613
1002,CLARENDON COMM. CTR.,4501 N CLARENDON AVE,60640.0,8.3,46,COMMUNITY PARK,Clarendon Comm. Ctr.,0,0,0,0,0,0,2,1,0,0,0,0,1,0,0,0,1,0,0,0,0,1,0,0,0,0,0,0,1,0,0,0,0,0,0,3,0,0,0,0,0,1,0,0,0,0,0,0,0,0,1,1,2,0,0,0,0,0,0,0,0,0,0,0,0,0,"4501 N CLARENDON AVE60640
(41.963680676776605, -87.64989072464365)",41.9636807,-87.6498907,2.8809721
500,PARK NO. 500,730 S SPRINGFIELD AVE,60624.0,1.18,24,NEIGHBORHOOD PARK,Park No. 500,0,0,0,0,0,0,2,1,0,0,0,0,0,0,0,0,0,0,0,0,0,0,0,0,0,0,0,0,0,0,0,0,0,0,0,0,0,0,0,0,0,1,0,0,0,0,0,0,0,0,0,0,0,0,0,0,0,0,0,0,0,0,0,0,0,0,"730 S SPRINGFIELD AVE60624
(41.87163056655968, -87.72295084746472)",41.8716306,-87.7229508,1.086278
277,NICHOLS (JOHN FOUNTAIN),1342 E 54TH ST,60615.0,10.39,4,COMMUNITY PARK,Nichols,0,0,0,0,0,0,0,0,0,0,0,0,0,0,0,0,0,0,0,0,0,0,0,0,0,0,0,0,1,0,0,0,0,0,0,1,0,0,0,0,0,2,0,0,0,0,0,0,0,0,0,0,2,0,0,0,0,0,0,0,0,0,0,0,0,0,"1342 E 54TH ST60615
(41.79806314688307, -87.59308069515362)",41.7980631,-87.5930807,3.2233523
1062,"KUCINSKI-MURPHY (VICKI, ROSEBETH)",1635 W 33RD PL,60608.0,0.66,11,NEIGHBORHOOD PARK,Kucinski-Murphy,0,0,0,0,0,0,0,0,0,0,0,0,0,0,0,0,0,0,0,0,0,0,0,0,0,0,0,0,0,0,0,0,0,0,0,0,0,0,0,0,0,1,0,0,0,0,0,0,0,0,1,0,0,0,0,0,0,0,0,0,0,0,0,0,0,0,"1635 W 33RD PL60608
(41.83318513214574, -87.6664773172472)",41.8331851,-87.6664773,0.8124038
381,GRAPE,2850 W AVONDALE AVE,60618.0,0.13,33,MINI-PARK,Grape,0,0,0,0,0,0,0,0,0,0,0,0,0,0,0,0,0,0,0,0,0,0,0,0,0,0,0,0,0,0,0,0,0,0,0,0,0,0,0,0,0,0,1,0,0,0,0,0,0,0,0,0,0,0,0,0,0,0,0,0,0,0,0,0,0,0,"2850 W AVONDALE AVE60618
(41.93366515095858, -87.69922683622022)",41.9336652,-87.6992268,0.3605551
459,ASHE (ARTHUR) BEACH,2701 E 74TH ST,60649.0,2.18,5,NEIGHBORHOOD PARK,Ashe Beach,0,0,0,0,0,0,0,0,1,0,0,0,0,0,0,0,0,0,0,0,0,0,0,0,0,0,0,0,0,0,0,0,0,0,0,0,0,0,0,0,0,1,0,0,0,0,0,0,0,0,0,0,2,0,0,0,0,0,0,0,0,0,0,0,0,0,"2701 E 74TH ST60649
(41.76229372632614, -87.55882582673209)",41.7622937,-87.5588258,1.4764823
424,SPIKINGS FARM,4706 N PULASKI RD,60630.0,0.14,39,MINI-PARK,Spikings Farm,0,0,0,0,0,0,0,0,0,0,0,0,0,0,0,0,0,0,0,0,0,0,0,0,0,0,0,0,0,0,0,0,0,0,0,0,0,0,0,0,0,0,1,0,0,0,0,0,0,0,0,0,0,0,0,0,0,0,0,0,0,0,0,0,0,0,"4706 N PULASKI RD60630
(41.96633650221359, -87.72806057546708)",41.9663365,-87.7280606,0.3741657
141,NORWOOD,5801 N NATOMA AVE,60631.0,14.04,41,COMMUNITY PARK,Norwood,0,0,0,0,0,0,3,1,0,0,0,0,0,0,0,0,1,0,0,0,0,1,0,0,0,0,0,0,1,0,0,0,0,0,0,3,0,0,1,0,0,1,0,0,0,1,0,0,0,1,0,1,4,1,0,0,1,0,0,0,0,0,0,0,0,0,"5801 N NATOMA AVE60631
(41.98655064643979, -87.79406152662384)",41.9865506,-87.7940615,3.7469988
251,MOUNT GREENWOOD,3724 W 111TH ST,60655.0,48.21,19,REGIONAL PARK,Mount Greenwood,1,0,0,0,0,0,0,0,0,0,0,0,0,0,0,0,1,0,0,0,0,0,0,0,0,0,0,0,1,0,0,0,0,1,0,8,0,0,1,0,0,1,0,0,0,0,0,0,0,0,1,3,4,0,0,0,0,0,0,0,0,0,0,0,0,0,"3724 W 111TH ST60655
(41.69141451418008, -87.71368390704849)",41.6914145,-87.7136839,6.9433421
1072,WOLFE (RICHARD),3325 E 108TH ST,60617.0,3.62,10,NEIGHBORHOOD PARK,Wolfe,0,0,0,0,0,0,4,1,0,0,0,0,2,0,0,0,1,0,0,0,0,0,0,0,0,0,0,0,0,0,0,0,2,0,0,2,0,0,0,0,0,1,0,0,0,0,0,0,0,0,1,0,0,0,0,0,0,0,0,0,0,0,0,0,0,0,"3325 E 108TH ST60617
(41.69908351757595, -87.54274906753841)",41.6990835,-87.5427491,1.9026298
437,PARK NO. 437,5653 S LOOMIS ST,60636.0,0.21,16,UNIMPROVED PARK,Park No. 437,0,0,0,0,0,0,0,0,0,0,0,0,0,0,0,0,0,0,0,0,0,0,0,0,0,0,0,0,0,0,0,0,0,0,0,0,0,0,0,0,0,0,0,0,0,0,0,0,0,0,0,0,0,0,0,0,0,0,0,0,0,0,0,0,0,0,"5653 S LOOMIS ST60636
(41.79132885556226, -87.65958403914692)",41.7913289,-87.659584,0.4582576
249,WEST CHATHAM,8223 S PRINCETON AVE,60620.0,15.02,21,COMMUNITY PARK,West Chatham,0,0,0,0,0,0,2,1,0,0,0,0,0,0,0,0,1,0,0,0,0,0,0,0,0,0,0,0,0,0,0,0,0,0,0,2,0,0,0,0,0,1,0,0,0,0,0,0,0,0,1,1,2,0,0,0,0,0,0,0,0,0,0,0,0,0,"8223 S PRINCETON AVE60620
(41.74567090884364, -87.63165381894771)",41.7456709,-87.6316538,3.8755645
359,CRAWFORD (PETER),1516 S KARLOV AVE,60623.0,0.14,24,MINI-PARK,Crawford,0,0,0,0,0,0,0,0,0,0,0,0,0,0,0,0,0,0,0,0,0,0,0,0,0,0,0,0,0,0,0,0,0,0,0,0,0,0,0,0,0,0,1,0,0,0,0,0,0,0,1,0,0,0,0,0,0,0,0,0,0,0,0,0,0,0,"1516 S KARLOV AVE60623
(41.86031240310462, -87.72750181248382)",41.8603124,-87.7275018,0.3741657
1085,CARMEN,1224 W CARMEN AVE,60640.0,0.14,48,MINI-PARK,Carmen,0,0,0,0,0,0,0,0,0,0,0,0,0,0,0,0,0,0,0,0,0,0,0,0,0,0,0,0,0,0,0,0,0,0,0,0,0,0,0,0,0,0,1,0,0,0,0,0,0,0,0,0,0,0,0,0,0,0,0,0,0,0,0,0,0,0,"1224 W CARMEN AVE60640
(41.9746501356112, -87.66044427956284)",41.9746501,-87.6604443,0.3741657
392,JUNIPER,3656 N GREENVIEW AVE,60613.0,0.29,46,MINI-PARK,Juniper,0,0,0,0,0,0,0,0,0,0,0,0,0,0,0,0,0,0,0,0,0,0,0,0,0,0,0,0,0,0,0,0,0,0,0,0,0,0,0,0,0,0,1,0,0,0,0,0,0,0,1,0,0,0,0,0,0,0,0,0,0,0,0,0,0,0,"3656 N GREENVIEW AVE60613
(41.94806567482455, -87.66652459688436)",41.9480657,-87.6665246,0.5385165
370,STARS & STRIPES,7000 W 51ST PL,60638.0,1.95,23,NEIGHBORHOOD PARK,Stars & Stripes,0,0,0,0,0,0,0,0,0,0,0,0,0,0,0,0,0,0,0,0,0,0,0,0,0,0,0,0,0,0,0,0,0,0,0,1,0,0,0,0,0,1,0,0,1,0,0,0,0,0,1,0,0,0,0,0,0,0,0,0,0,0,0,0,0,0,"7000 W 51ST PL60638
(41.798845006791744, -87.79663650514799)",41.798845,-87.7966365,1.396424
81,AVONDALE,3516 W SCHOOL ST,60618.0,1.18,35,COMMUNITY PARK,Avondale,0,0,0,0,0,0,2,1,0,0,0,0,0,0,0,0,0,0,0,0,0,0,0,0,0,0,0,0,1,1,0,0,0,0,0,0,0,0,1,0,0,1,0,0,0,0,0,0,0,0,1,0,0,0,0,0,0,0,0,0,0,0,0,0,0,0,"3516 W SCHOOL ST60618
(41.941123045102984, -87.71452093500932)",41.941123,-87.7145209,1.086278
122,BLACKHAWK,2318 N LAVERGNE AVE,60639.0,6.23,30,COMMUNITY PARK,Blackhawk,0,0,0,0,0,0,0,1,0,0,0,0,0,0,0,0,1,0,0,0,0,0,0,0,0,0,0,0,1,0,0,0,0,0,1,3,0,0,0,0,0,1,0,0,0,0,1,0,0,0,1,0,5,0,0,0,0,0,0,0,0,0,0,0,0,0,"2318 N LAVERGNE AVE60639
(41.922695995973406, -87.75124728870875)",41.922696,-87.7512473,2.4959968
361,VIOLET,4120 W TAYLOR ST,60624.0,0.52,24,NEIGHBORHOOD PARK,Violet,0,0,0,0,0,0,0,0,0,0,0,0,0,0,0,0,0,0,0,0,0,0,0,0,0,0,0,0,0,0,0,0,0,0,0,0,0,0,0,0,0,1,0,0,0,0,0,0,0,0,1,0,0,0,0,0,0,0,0,0,0,0,0,0,0,0,"4120 W TAYLOR ST60624
(41.86911058962397, -87.728245402613)",41.8691106,-87.7282454,0.7211103
266,STATEWAY,3658 S STATE ST,60609.0,7.51,2,COMMUNITY PARK,Stateway,0,0,0,0,0,0,6,1,0,0,0,0,0,0,0,0,1,0,0,0,0,0,0,0,0,0,0,0,0,0,0,0,0,0,0,2,0,0,0,0,0,1,0,0,0,0,0,0,0,0,0,0,0,0,0,0,0,0,0,0,0,0,0,0,0,0,"3658 S STATE ST60609
(41.82805208556866, -87.62656559279442)",41.8280521,-87.6265656,2.7404379
434,ESSEX,7687 S SOUTH CHICAGO AVE,60619.0,0.39,6,MINI-PARK,Essex,0,0,0,0,0,0,0,0,0,0,0,0,0,0,0,0,0,0,0,0,0,0,0,0,0,0,0,0,0,0,0,0,0,0,0,0,0,0,0,0,0,0,1,0,0,0,0,0,0,0,0,0,0,0,0,0,0,0,0,0,0,0,0,0,0,0,"7687 S SOUTH CHICAGO AVE60619
(41.755031462526105, -87.5903557283385)",41.7550315,-87.5903557,0.6244998
1265,LANE (GEORGE) BEACH,1000 W THORNDALE AVE,60660.0,0.79,48,PASSIVE PARK,Lane Beach,0,0,0,0,0,0,0,0,2,0,0,0,0,0,0,0,0,0,0,0,0,0,0,0,0,0,0,0,0,0,0,0,0,0,0,0,0,0,0,0,0,1,0,0,0,0,0,0,0,0,0,0,0,0,0,0,0,0,0,0,0,0,0,0,0,0,"1000 W THORNDALE AVE60660
(41.99009537979947, -87.65540930043252)",41.9900954,-87.6554093,0.8888194
307,MINUTEMAN,5940 S CENTRAL AVE,60638.0,8.91,13,COMMUNITY PARK,Minuteman,0,0,0,0,0,0,8,2,0,0,0,0,0,0,0,0,1,0,0,0,0,0,0,0,0,0,0,0,0,0,0,0,0,0,0,2,0,0,0,0,0,1,0,0,1,0,0,0,0,0,0,2,2,0,0,0,0,0,0,0,0,0,0,0,0,0,"5940 S CENTRAL AVE60638
(41.78415876485127, -87.76197446429444)",41.7841588,-87.7619745,2.9849623
478,DUSABLE (JEAN BAPTISTE POINTE),401 N LAKE SHORE DR,60611.0,3.24,42,UNIMPROVED PARK,DuSable,0,0,0,0,0,0,0,0,0,0,0,0,0,0,0,0,0,0,0,0,0,0,0,0,0,0,0,0,0,0,0,0,0,0,0,0,0,0,0,0,0,0,0,0,0,0,0,0,0,0,0,0,0,0,0,0,0,0,0,0,0,0,0,0,0,0,"401 N LAKE SHORE DR60611
(41.89472000000006, -87.61860999999999)",41.89472,-87.61861,1.8
1066,LIMAS (JULIANN HOPE),2410 S TRUMBULL AVE,60623.0,0.34,22,MINI-PARK,Limas,0,0,0,0,0,0,0,0,0,0,0,0,0,0,0,0,0,0,0,0,0,0,0,0,0,0,0,0,0,0,0,0,0,0,0,0,0,0,0,0,0,0,1,0,0,0,0,0,0,0,1,0,0,0,0,0,0,0,0,0,0,0,0,0,0,0,"2410 S TRUMBULL AVE60623
(41.847844025773036, -87.71128578613951)",41.847844,-87.7112858,0.5830952
443,MCINERNEY (THOMAS),4446-58 S. EMERALD AVE,60609.0,1.32,11,NEIGHBORHOOD PARK,McInerney,0,0,0,0,0,0,0,0,0,0,0,0,0,0,0,0,1,0,0,0,0,0,0,0,0,0,0,0,0,0,0,0,0,0,0,0,0,0,0,0,0,1,0,0,0,0,0,0,0,0,0,0,0,0,0,0,0,0,0,0,0,0,0,0,0,0,"4446-58 S. EMERALD AVE60609
(41.81224000000009, -87.65565999999995)",41.81224,-87.65566,1.1489125
235,OAKDALE,965 W 95TH ST,60643.0,9.03,21,COMMUNITY PARK,Oakdale,0,0,0,0,0,0,2,1,0,0,0,0,0,0,0,0,1,0,0,0,0,0,0,0,0,0,0,0,0,0,0,0,0,0,0,3,0,0,1,0,0,1,0,0,0,0,0,0,0,0,1,1,0,0,0,0,0,0,0,0,0,0,0,0,0,0,"965 W 95TH ST60643
(41.72129530234042, -87.64743984964792)",41.7212953,-87.6474398,3.0049958
351,HONEYSUCKLE,4637 S CHAMPLAIN AVE,60653.0,0.21,4,MINI-PARK,Honeysuckle,0,0,0,0,0,0,0,0,0,0,0,0,0,0,0,0,0,0,0,0,0,0,0,0,0,0,0,0,0,0,0,0,0,0,0,0,0,0,0,0,0,0,1,0,0,0,0,0,0,0,0,0,0,0,0,0,0,0,0,0,0,0,0,0,0,0,"4637 S CHAMPLAIN AVE60653
(41.81061911795111, -87.61013919137714)",41.8106191,-87.6101392,0.4582576
1283,MAPLE,2047 N SPAULDING AVE,60647.0,0.15,31,MINI-PARK,Maple,0,0,0,0,0,0,0,0,0,0,0,0,0,0,0,0,0,0,0,0,0,0,0,0,0,0,0,0,0,0,0,0,0,0,0,0,0,0,0,0,0,0,1,0,0,0,0,0,0,0,0,0,0,0,0,0,0,0,0,0,0,0,0,0,0,0,"2047 N SPAULDING AVE60647
(41.91822762701135, -87.71020197910406)",41.9182276,-87.710202,0.3872983
1049,MEYERING (WILLIAM),7140 S DR MARTIN LUTHER KING J,60619.0,3.1,6,NEIGHBORHOOD PARK,Meyering,0,0,0,0,0,0,2,1,0,0,0,0,0,0,0,0,1,0,0,0,0,0,0,0,0,0,0,0,0,0,0,0,0,0,0,1,0,0,0,0,0,1,0,0,0,0,0,0,0,0,0,0,0,0,0,1,0,0,0,0,0,0,0,0,0,0,"7140 S DR MARTIN LUTHER KING J60619
(41.74405000000007, -87.60523)",41.74405,-87.60523,1.7606817
91,ROSEDALE,6312 W ROSEDALE AVE,60646.0,2.75,41,COMMUNITY PARK,Rosedale,0,0,0,0,0,0,2,1,0,0,0,0,0,0,0,0,2,0,0,0,0,0,0,0,0,0,0,0,1,0,0,0,0,0,0,1,0,0,0,0,0,1,0,0,0,0,0,0,0,0,0,0,2,0,0,0,0,0,0,0,0,0,0,0,0,0,"6312 W ROSEDALE AVE60646
(41.98848106994233, -87.7857683351954)",41.9884811,-87.7857683,1.6583124
398,SHEIL (BERNARD) COMM. CTR.,3505 N SOUTHPORT AVE,60657.0,0.41,44,COMMUNITY PARK,Sheil Comm. Ctr.,0,0,0,0,0,0,0,0,0,0,0,0,0,0,0,0,0,0,0,0,0,0,0,0,0,0,0,0,1,0,0,0,0,0,0,0,0,0,0,0,0,1,0,0,0,0,0,0,0,0,0,0,0,0,0,0,0,0,0,0,0,0,0,0,0,0,"3505 N SOUTHPORT AVE60657
(41.9453365304619, -87.66381014422298)",41.9453365,-87.6638101,0.6403124
45,ADA (SAWYER GARRETT),11250 S ADA ST,60643.0,15.23,34,REGIONAL PARK,Ada,0,0,0,0,0,0,4,2,0,0,0,0,0,0,0,0,1,0,0,0,0,1,0,0,0,0,0,0,1,0,0,0,2,0,0,2,0,0,1,0,0,1,0,0,0,0,0,0,0,0,1,2,4,0,0,0,0,0,0,0,0,0,0,0,0,0,"11250 S ADA ST60643
(41.687124254843184, -87.65566117306987)",41.6871243,-87.6556612,3.9025633
427,ASHMORE,4807 W GUNNISON ST,60630.0,0.14,45,MINI-PARK,Ashmore,0,0,0,0,0,0,0,0,0,0,0,0,0,0,0,0,0,0,0,0,0,0,0,0,0,0,0,0,0,0,0,0,0,0,0,0,0,0,0,0,0,0,1,0,0,0,0,0,0,0,0,0,0,0,0,0,0,0,0,0,0,0,0,0,0,0,"4807 W GUNNISON ST60630
(41.968874726129485, -87.7479865105013)",41.9688747,-87.7479865,0.3741657
1239,MARIANO (LOUIS),1031 N RUSH ST,60611.0,0.19,42,PASSIVE PARK,Mariano,0,0,0,0,0,0,0,0,0,0,0,0,0,0,0,0,0,0,0,0,0,0,0,0,0,0,0,0,0,0,0,0,0,0,0,0,0,0,0,0,0,0,0,0,0,0,0,0,0,0,0,0,0,0,0,0,0,0,0,0,0,0,0,0,0,0,"1031 N RUSH ST60611
(41.90169116086048, -87.62796648870847)",41.9016912,-87.6279665,0.4358899
218,DOUGLAS (STEPHEN),1401 S SACRAMENTO,60623.0,174.01,0,CITYWIDE PARK,Douglas,0,0,0,1,0,0,7,2,0,0,0,0,0,0,1,0,6,0,0,1,0,1,0,0,1,1,0,1,1,0,0,0,0,0,0,1,0,0,1,0,0,5,0,0,0,0,0,0,0,0,3,1,3,1,0,0,0,0,0,1,0,0,0,0,0,0,"1401 S SACRAMENTO60623
(41.862426996719684, -87.70182814973508)",41.862427,-87.7018281,13.191285
1069,WALLACE,607 W 92ND ST,60620.0,0.86,21,NEIGHBORHOOD PARK,Wallace,0,0,0,0,0,0,0,0,0,0,0,0,0,0,0,0,0,0,0,0,0,0,0,0,0,0,0,0,0,0,0,0,0,0,0,0,0,0,0,0,0,1,0,0,0,0,0,0,0,0,1,0,0,0,0,0,0,0,0,0,0,0,0,0,0,0,"607 W 92ND ST60620
(41.7269391234841, -87.63876273352142)",41.7269391,-87.6387627,0.9273618
1016,STROHACKER (HOWARD),4347 W 54TH ST,60632.0,3.68,23,NEIGHBORHOOD PARK,Strohacker,0,0,0,0,0,0,0,0,0,0,0,0,0,0,0,0,1,0,0,0,0,0,0,0,0,0,0,0,0,0,0,0,1,0,0,2,0,0,0,0,0,2,0,0,0,0,0,0,0,0,1,0,0,0,1,0,0,0,0,0,0,0,0,0,0,0,"4347 W 54TH ST60632
(41.79490105872119, -87.73204913465142)",41.7949011,-87.7320491,1.9183326
259,ABBOTT (ROBERT),49 E 95TH ST,60628.0,22.74,6,COMMUNITY PARK,Abbott,0,0,0,0,0,0,8,3,0,0,0,0,0,0,0,0,2,0,0,0,0,0,0,0,0,0,0,0,0,0,0,0,0,0,0,3,0,0,1,0,0,1,0,0,0,1,0,0,0,0,2,2,2,1,1,0,0,0,0,0,0,0,0,0,0,0,"49 E 95TH ST60628
(41.72158307459381, -87.62560647724794)",41.7215831,-87.6256065,4.7686476
1103,GRAND,3531 W GRAND AVE,60651.0,0.28,37,MINI-PARK,Grand,0,0,0,0,0,0,0,0,0,0,0,0,0,0,0,0,0,0,0,0,0,0,0,0,0,0,0,0,0,0,0,0,0,0,0,0,0,0,0,0,0,0,1,0,0,0,0,0,0,0,0,0,0,0,0,0,0,0,0,0,0,0,0,0,0,0,"3531 W GRAND AVE60651
(41.901420421828625, -87.71463592880455)",41.9014204,-87.7146359,0.5291503
1165,WESTERN,907 N WESTERN AVE,60622.0,0.29,32,MINI-PARK,Western,0,0,0,0,0,0,0,0,0,0,0,0,0,0,0,0,0,0,0,0,0,0,0,0,0,0,0,0,0,0,0,0,0,0,0,0,0,0,0,0,0,0,1,0,0,0,0,0,0,0,0,0,0,0,0,0,0,0,0,0,0,0,0,0,0,0,"907 N WESTERN AVE60622
(41.897790204040724, -87.68682058538546)",41.8977902,-87.6868206,0.5385165
62,EDISON (THOMAS ALVA),6755 N NORTHWEST HWY,60631.0,0.71,41,NEIGHBORHOOD PARK,Edison,0,0,0,0,0,0,0,0,0,0,0,0,0,0,0,0,0,0,0,0,0,0,0,0,0,0,0,0,0,0,0,0,0,0,0,0,0,0,0,0,0,1,0,0,0,0,0,0,0,0,0,0,0,0,0,0,0,0,0,0,0,0,0,1,0,0,"6755 N NORTHWEST HWY60631
(42.00408467051932, -87.81811468589707)",42.0040847,-87.8181147,0.842615
559,PARK NO. 559,6151 N SHERIDAN RD,60660.0,0.57,48,PASSIVE PARK,Park No. 559,0,0,0,0,0,0,0,0,0,0,0,0,0,0,0,0,0,0,0,0,0,0,0,0,0,0,0,0,0,0,0,0,0,0,0,0,0,0,0,0,0,0,0,0,0,0,0,0,0,0,0,0,0,0,0,0,0,0,0,0,0,0,0,0,0,0,"6151 N SHERIDAN RD60660
(41.9937727434405, -87.65552171568618)",41.9937727,-87.6555217,0.7549834
1021,AUGUSTA (CARPENTER),4431 W AUGUSTA BLVD,60651.0,0.85,31,NEIGHBORHOOD PARK,Augusta,0,0,0,0,0,0,0,0,0,0,0,0,0,0,0,0,0,0,0,0,0,0,0,0,0,0,0,0,0,0,0,0,0,0,0,0,0,0,0,0,0,1,0,0,0,0,0,0,0,0,0,0,0,0,0,0,0,0,0,0,0,0,0,0,0,0,"4431 W AUGUSTA BLVD60651
(41.89879205351077, -87.73681629895835)",41.8987921,-87.7368163,0.9219544
126,KELVYN (WILLIAM),4438 W WRIGHTWOOD AVE,60639.0,8.5,30,COMMUNITY PARK,Kelvyn,0,0,0,1,0,0,2,1,0,0,0,0,0,0,0,0,1,0,0,0,0,1,0,0,0,0,0,0,1,0,0,0,0,0,0,2,0,0,0,0,0,1,0,0,1,0,0,0,0,0,1,0,2,0,0,0,0,0,0,0,0,0,0,0,0,0,"4438 W WRIGHTWOOD AVE60639
(41.92870143745059, -87.73771366772635)",41.9287014,-87.7377137,2.9154759
408,CURIE (MARIE),4959 S ARCHER AVE,60632.0,9.0,23,COMMUNITY PARK,Curie,0,0,0,0,0,0,4,1,0,0,0,0,0,0,0,0,3,0,0,0,0,0,0,0,0,0,0,0,1,0,0,0,0,0,1,3,0,0,0,0,0,0,0,0,0,0,0,0,0,0,0,1,5,0,1,0,0,0,0,0,0,0,0,0,0,0,"4959 S ARCHER AVE60632
(41.80306963075374, -87.72209263301649)",41.8030696,-87.7220926,3.0
1238,CENTENNIAL,6086 N NORTHWEST HWY,60631.0,1.03,41,PASSIVE PARK,Centennial,0,0,0,0,0,0,0,0,0,0,0,0,0,0,0,0,0,0,0,0,0,0,0,0,0,0,0,0,0,0,0,0,0,0,0,0,0,0,0,0,0,0,0,0,0,0,0,0,0,0,0,0,0,0,0,0,0,0,0,0,0,0,0,0,0,0,"6086 N NORTHWEST HWY60631
(41.99198243630007, -87.79850751731003)",41.9919824,-87.7985075,1.0148892
1273,SUMAC,4201 S CHAMPLAIN AVE,60653.0,0.31,4,MINI-PARK,Sumac,0,0,0,0,0,0,2,1,0,0,0,0,0,0,0,0,0,0,0,0,0,0,0,0,0,0,0,0,0,0,0,0,0,0,0,0,0,0,0,0,0,0,1,0,0,0,0,0,0,0,0,0,0,0,0,0,0,0,0,0,0,0,0,0,0,0,"4201 S CHAMPLAIN AVE60653
(41.81847922309969, -87.61035454859243)",41.8184792,-87.6103545,0.5567764
404,PACKINGTOWN,4856 S LAFLIN ST,60609.0,0.14,14,MINI-PARK,Packingtown,0,0,0,0,0,0,0,0,0,0,0,0,0,0,0,0,0,0,0,0,0,0,0,0,0,0,0,0,0,0,0,0,0,0,0,0,0,0,0,0,0,0,1,0,0,0,0,0,0,0,1,0,0,0,0,0,0,0,0,0,0,0,0,0,0,0,"4856 S LAFLIN ST60609
(41.805775687565415, -87.66254216002604)",41.8057757,-87.6625422,0.3741657
1219,"MELLIN (CURTIS, SR.)",1600 W BRYN MAWR AVE,60640.0,0.29,40,MINI-PARK,Mellin,0,0,0,0,0,0,0,0,0,0,0,0,0,0,0,0,0,0,0,0,0,0,0,0,0,0,0,0,0,0,0,0,0,0,0,0,0,0,0,0,0,0,1,0,0,0,0,0,0,0,0,0,0,0,0,0,0,0,0,0,0,0,0,0,0,0,"1600 W BRYN MAWR AVE60640
(41.971839999999986, -87.66115999999994)",41.97184,-87.66116,0.5385165
1025,"TAYLOR-LAURIDSEN (JOHN, EMIL)",647 W ROOT ST,60609.0,4.49,11,NEIGHBORHOOD PARK,Taylor-Lauridsen,0,0,0,0,0,0,0,0,0,0,0,0,0,0,0,0,1,0,0,0,0,1,0,0,0,0,0,0,1,0,0,0,0,0,0,1,0,0,0,0,0,1,0,0,0,0,0,0,0,0,1,1,0,0,0,0,0,0,0,0,0,0,0,0,0,0,"647 W ROOT ST60609
(41.818912582673576, -87.64242583873168)",41.8189126,-87.6424258,2.118962
477,OGDEN (WILLIAM) PLAZA,429 N COLUMBUS DR,60611.0,1.09,42,PASSIVE PARK,Ogden Plaza,0,0,0,0,0,0,0,0,0,0,0,0,0,0,0,0,0,0,0,0,0,0,0,0,0,0,0,0,0,0,0,0,0,0,0,0,0,0,0,0,0,0,0,0,0,0,0,0,0,0,0,0,0,0,0,0,0,0,0,0,0,0,0,0,0,0,"429 N COLUMBUS DR60611
(41.889978315050264, -87.62030107146514)",41.8899783,-87.6203011,1.0440307
185,REVERE (PAUL),2509 W IRVING PARK RD,60618.0,9.24,47,COMMUNITY PARK,Revere,0,0,0,0,0,0,0,0,0,0,0,0,0,0,0,0,1,0,0,0,0,0,0,0,0,0,0,0,1,0,0,0,0,0,0,3,0,0,0,0,0,1,0,0,0,0,0,0,0,0,0,1,4,0,0,0,0,0,0,0,0,0,0,0,0,0,"2509 W IRVING PARK RD60618
(41.95393191408374, -87.69122572526284)",41.9539319,-87.6912257,3.0397368
529,PARK NO. 529,2155 W WABANSIA AVE,60647.0,0.39,32,UNIMPROVED PARK,Park No. 529,0,0,0,0,0,0,0,0,0,0,0,0,0,0,0,0,0,0,0,0,0,0,0,0,0,0,0,0,0,0,0,0,0,0,0,0,0,0,0,0,0,0,0,0,0,0,0,0,0,0,0,0,0,0,0,0,0,0,0,0,0,0,0,0,0,0,"2155 W WABANSIA AVE60647
(41.91262028253446, -87.68178168327219)",41.9126203,-87.6817817,0.6244998
563,PARK NO. 563,13000 S TORRENCE AVE,60633.0,118.42,10,NATURE PRESERVE PARK,Park No. 563,0,0,0,0,0,0,0,0,0,0,0,0,0,0,0,0,0,0,0,0,0,0,0,0,0,0,0,0,0,0,0,0,0,0,0,0,0,0,0,0,0,0,0,0,0,0,0,0,0,0,0,0,0,0,0,0,0,0,0,0,0,0,0,0,0,0,"13000 S TORRENCE AVE60633
(41.65917157245872, -87.55935035662864)",41.6591716,-87.5593504,10.8820954
1029,DONOVAN (GEORGE),3620 S LITUANICA AVE,60609.0,2.68,11,NEIGHBORHOOD PARK,Donovan,0,0,0,0,0,0,2,1,0,0,0,0,0,0,0,0,1,0,0,0,0,0,0,0,0,0,0,0,0,0,0,0,0,0,0,0,0,0,0,0,0,1,0,0,0,0,0,0,0,0,1,2,0,0,1,0,0,0,0,0,0,0,0,0,0,0,"3620 S LITUANICA AVE60609
(41.82842176182138, -87.64772618855108)",41.8284218,-87.6477262,1.6370706
242,HAYES (FRANCIS),2936 W 85TH ST,60652.0,20.3,18,REGIONAL PARK,Hayes,0,0,0,0,0,0,0,0,0,0,0,0,0,0,0,0,2,0,0,0,0,1,0,0,0,0,0,0,1,0,0,0,0,0,1,4,0,0,0,0,0,1,0,0,0,0,0,0,0,0,1,2,0,0,1,0,0,0,0,0,0,0,0,0,0,0,"2936 W 85TH ST60652
(41.73872925819764, -87.6962147349141)",41.7387293,-87.6962147,4.5055521
26,FOSTER (J. FRANK),1400 W 84TH ST,60620.0,23.2,18,REGIONAL PARK,Foster,0,0,0,0,0,0,8,3,0,0,0,0,0,0,0,0,1,0,0,0,0,1,0,0,0,0,0,0,1,0,0,0,2,0,1,4,0,0,0,0,0,1,0,0,0,0,0,0,0,0,0,1,8,1,0,1,0,0,0,0,0,0,0,0,0,0,"1400 W 84TH ST60620
(41.74139826378999, -87.65763212522916)",41.7413983,-87.6576321,4.8166378
1108,HOMAN (JOSEPH),2148 S HOMAN AVE,60623.0,0.17,24,MINI-PARK,Homan,0,0,0,0,0,0,0,0,0,0,0,0,0,0,0,0,0,0,0,0,0,0,0,0,0,0,0,0,0,0,0,0,0,0,0,0,0,0,0,0,0,0,1,0,0,0,0,0,0,0,0,0,0,0,0,0,0,0,0,0,0,0,0,0,0,0,"2148 S HOMAN AVE60623
(41.85290579805472, -87.71021147447756)",41.8529058,-87.7102115,0.4123106
474,PARK NO. 474,3231 W DOUGLAS BLVD,60616.0,0.01,2,PASSIVE PARK,Park No. 474,0,0,0,0,0,0,0,0,0,0,0,0,0,0,0,0,0,0,0,0,0,0,0,0,0,0,0,0,0,0,0,0,0,0,0,0,0,0,0,0,0,0,0,0,0,0,0,0,0,0,0,0,0,0,0,0,0,0,0,0,0,0,0,0,0,0,"3231 W DOUGLAS BLVD60616
(41.845090000000084, -87.62737999999996)",41.84509,-87.62738,0.1
95,ROBERTS (DANIEL) SQUARE,5230 W ARGYLE ST,60630.0,3.67,45,NEIGHBORHOOD PARK,Roberts Square,0,0,0,0,0,0,0,0,0,0,0,0,0,0,0,0,0,0,0,0,0,0,0,0,0,0,0,0,0,0,0,0,0,0,0,0,0,0,0,0,0,1,0,0,0,0,0,0,0,0,1,0,0,0,0,0,0,0,0,0,0,0,0,0,0,0,"5230 W ARGYLE ST60630
(41.971605318877096, -87.75840489113608)",41.9716053,-87.7584049,1.9157244
12,BESSEMER (HENRY),8930 S MUSKEGON AVE,60617.0,18.43,7,REGIONAL PARK,Bessemer,0,0,0,1,0,0,4,1,0,0,0,0,0,0,0,0,2,0,0,0,0,0,0,0,1,0,0,0,2,0,0,2,0,0,0,4,0,0,1,0,0,1,0,0,0,0,0,0,0,0,1,2,4,1,0,0,0,0,0,0,0,0,0,0,0,0,"8930 S MUSKEGON AVE60617
(41.73310768834484, -87.55555049884033)",41.7331077,-87.5555505,4.2930176
1211,DICKINSON (ARTHUR),4117 N LAVERGNE AVE,60641.0,0.76,45,NEIGHBORHOOD PARK,Dickinson,0,0,0,0,0,0,0,0,0,0,0,0,0,0,0,0,0,0,0,0,0,0,0,0,0,0,0,0,0,0,0,0,0,0,0,0,0,0,0,0,0,1,0,0,0,0,0,0,0,0,1,0,0,0,0,0,0,0,0,0,0,0,0,0,0,0,"4117 N LAVERGNE AVE60641
(41.95536271146273, -87.75216447389278)",41.9553627,-87.7521645,0.8717798
423,OZ,2021 N BURLING ST,60614.0,13.32,43,COMMUNITY PARK,Oz,0,0,0,0,0,0,4,1,0,0,0,0,0,0,0,0,1,0,0,0,0,0,0,0,1,0,0,0,0,0,0,0,0,0,0,2,0,0,0,0,0,1,0,0,0,0,0,0,0,0,0,1,4,0,1,0,0,0,0,0,0,0,0,0,0,0,"2021 N BURLING ST60614
(41.918953524199324, -87.64716334581394)",41.9189535,-87.6471633,3.6496575
395,LELAND GIANTS,7526 S LOWE AVE,60621.0,1.91,17,NEIGHBORHOOD PARK,Leland Giants,0,0,0,0,0,0,4,1,0,0,0,0,0,0,0,0,0,0,0,0,0,0,0,0,0,0,0,0,0,0,0,0,0,0,0,0,0,0,0,0,0,1,0,0,0,0,0,0,0,0,0,0,0,0,0,0,0,0,0,0,0,0,0,0,0,0,"7526 S LOWE AVE60621
(41.776039999999966, -87.63983999999999)",41.77604,-87.63984,1.3820275
94,JEFFERSON (THOMAS) MEML.,4822 N LONG AVE,60630.0,7.16,45,COMMUNITY PARK,Jefferson (Thomas) Memorial,0,0,0,0,0,0,0,0,0,0,0,0,0,0,0,0,0,0,0,0,0,0,0,0,0,0,0,0,1,0,0,0,0,0,0,1,0,0,1,0,0,1,0,0,0,0,0,0,0,0,1,1,3,0,1,0,0,0,0,0,0,0,0,0,0,0,"4822 N LONG AVE60630
(41.967940558359835, -87.76265759863169)",41.9679406,-87.7626576,2.6758176
261,WILLIAMS (DANIEL HALE),2710 S DEARBORN ST,60616.0,8.51,2,COMMUNITY PARK,Williams,0,0,0,0,0,0,2,1,0,0,0,0,0,0,0,0,1,0,0,0,0,0,0,0,0,0,0,0,0,0,0,0,0,0,0,1,0,0,0,0,0,1,0,0,0,0,0,0,0,0,1,1,0,0,0,1,0,0,0,0,0,0,0,0,0,0,"2710 S DEARBORN ST60616
(41.84466313434372, -87.62815699255205)",41.8446631,-87.628157,2.9171904
431,FLOWER (LUCY),2554 W MOFFAT ST,60647.0,0.29,26,MINI-PARK,Flower,0,0,0,0,0,0,0,0,0,0,0,0,0,0,0,0,0,1,0,0,0,0,0,0,0,0,0,0,0,0,0,0,0,0,0,0,0,0,0,0,0,0,1,0,0,0,0,0,0,0,0,0,0,0,0,0,0,0,0,0,0,0,0,0,0,0,"2554 W MOFFAT ST60647
(41.914866226757596, -87.69111801328472)",41.9148662,-87.691118,0.5385165
1201,ARCADE,11144 S ST LAWRENCE AVE,60628.0,0.88,9,PASSIVE PARK,Arcade,0,0,0,0,0,0,0,0,0,0,0,0,0,0,0,0,0,0,0,0,0,0,0,0,0,0,0,0,0,0,0,0,0,0,0,0,0,0,0,0,0,0,0,0,0,0,0,0,0,0,0,0,0,0,0,0,0,0,0,0,0,0,0,0,0,0,"11144 S ST LAWRENCE AVE60628
(41.69165451197194, -87.60845763547245)",41.6916545,-87.6084576,0.9380832
364,GILL (JOSEPH),825 W SHERIDAN RD,60613.0,2.21,46,COMMUNITY PARK,Gill,0,0,0,0,0,0,0,0,0,0,0,0,0,0,0,0,0,0,0,0,0,1,0,0,0,0,0,0,1,0,0,0,0,0,1,1,0,0,0,0,0,1,0,0,0,0,0,0,0,0,0,0,0,0,0,0,0,0,0,0,0,0,0,0,0,0,"825 W SHERIDAN RD60613
(41.95265899243198, -87.65012277845342)",41.952659,-87.6501228,1.4866069
332,BARBERRY,2827 W ARTHINGTON ST,60612.0,0.14,27,UNIMPROVED PARK,Barberry,0,0,0,0,0,0,0,0,0,0,0,0,0,0,0,0,0,0,0,0,0,0,0,0,0,0,0,0,0,0,0,0,0,0,0,0,0,0,0,0,0,0,0,0,0,0,0,0,0,0,0,0,0,0,0,0,0,0,0,0,0,0,0,0,0,0,"2827 W ARTHINGTON ST60612
(41.87008707497714, -87.69666814336654)",41.8700871,-87.6966681,0.3741657
1143,SUPERA,2528 N RACINE AVE,60614.0,0.34,43,MINI-PARK,Supera,0,0,0,0,0,0,0,0,0,0,0,0,0,0,0,0,0,0,0,0,0,0,0,0,0,0,0,0,0,0,0,0,0,0,0,0,0,0,0,0,0,0,1,0,0,0,0,0,0,0,0,0,0,0,0,0,0,0,0,0,0,0,0,0,0,0,"2528 N RACINE AVE60614
(41.92802843601394, -87.65863511228027)",41.9280284,-87.6586351,0.5830952
1262,ROGERS (PHILLIP) BEACH,7705 N EASTLAKE TERRACE,60626.0,2.28,49,NEIGHBORHOOD PARK,Rogers (Phillip) Beach,0,0,0,0,0,0,0,0,1,0,0,0,0,0,0,0,0,0,0,0,0,0,0,0,0,0,0,0,0,0,0,0,0,0,0,0,0,0,0,0,0,0,0,0,0,0,0,0,0,0,0,0,2,0,0,0,0,0,0,0,0,0,0,0,0,0,"7705 N EASTLAKE TERRACE60626
(42.02102650217188, -87.66504095926507)",42.0210265,-87.665041,1.5099669
202,FRANKLIN (BENJAMIN),1449 S KOLIN AVE,60623.0,8.47,24,COMMUNITY PARK,Franklin,0,0,0,0,0,0,6,3,0,0,0,0,0,0,0,0,1,0,0,0,0,0,0,0,0,0,0,0,1,0,0,0,0,0,0,3,0,0,1,0,0,1,0,0,0,0,0,0,0,0,0,1,0,0,1,1,0,0,0,0,0,0,0,0,0,0,"1449 S KOLIN AVE60623
(41.86145017005325, -87.7335103632115)",41.8614502,-87.7335104,2.9103264
448,METCALFE (RALPH),4196 S STATE ST,60609.0,6.21,2,COMMUNITY PARK,Metcalfe,0,0,0,0,0,0,8,2,0,0,0,0,0,0,0,0,0,0,0,0,0,0,1,0,0,0,0,0,0,0,0,0,0,0,0,1,0,0,0,0,0,1,0,0,0,0,0,0,0,0,1,0,2,0,0,0,0,0,0,0,0,0,0,0,0,0,"4196 S STATE ST60609
(41.81831538343677, -87.62639429120034)",41.8183154,-87.6263943,2.4919872
1218,LILY GARDENS,632 W 71ST ST,60621.0,2.57,17,PASSIVE PARK,Lily Gardens,0,0,0,0,0,0,0,0,0,0,0,0,0,0,0,0,0,0,0,0,0,0,0,0,0,0,0,0,0,0,0,0,0,0,0,0,0,0,0,0,0,1,0,0,0,0,0,0,0,0,0,0,0,0,0,0,0,0,0,0,0,0,0,0,0,0,"632 W 71ST ST60621
(41.765335671320116, -87.6407715810098)",41.7653357,-87.6407716,1.603122
205,SHERIDAN (PHILIP HENRY),910 S ABERDEEN ST,60607.0,3.91,1,COMMUNITY PARK,Sheridan,0,0,0,0,0,0,0,0,0,0,0,0,1,0,0,0,1,0,0,0,0,1,0,0,0,0,0,0,1,0,0,0,1,0,1,4,0,0,0,0,0,1,0,0,0,0,0,0,0,1,0,0,3,0,0,0,0,1,0,0,0,0,0,0,0,0,"910 S ABERDEEN ST60607
(41.870174792942706, -87.65429131970551)",41.8701748,-87.6542913,1.977372
215,ARRIGO (VICTOR),1250 W LEXINGTON ST,60607.0,6.45,1,COMMUNITY PARK,Arrigo,0,0,0,0,0,0,0,0,0,0,0,0,0,0,0,0,1,0,0,0,0,0,0,0,0,0,0,0,0,0,0,0,0,0,0,0,0,0,0,0,0,0,0,0,0,0,0,0,0,0,0,0,0,0,0,0,0,0,0,0,0,0,0,0,0,0,"1250 W LEXINGTON ST60607
(41.87230218040179, -87.65892259187221)",41.8723022,-87.6589226,2.539685
514,PARK NO. 514,1434 N MONTICELLO AVE,60651.0,0.68,26,PASSIVE PARK,Park No. 514,0,0,0,0,0,0,0,0,0,0,0,0,0,0,0,0,0,0,0,0,0,0,0,0,0,0,0,0,0,0,0,0,0,0,0,0,0,0,0,0,0,0,0,0,0,0,0,0,0,0,0,0,0,0,0,0,0,0,0,0,0,0,0,0,0,0,"1434 N MONTICELLO AVE60651
(41.906928576116165, -87.71794964733436)",41.9069286,-87.7179496,0.8246211
511,WARD (A. MONTGOMERY),630 N KINGSBURY AVE,60610.0,2.89,0,UNIMPROVED PARK,Montgomery Ward,0,0,0,0,0,0,0,0,0,0,0,0,0,0,0,0,0,0,0,0,1,0,0,0,0,0,0,0,0,0,0,0,0,0,0,0,0,0,0,0,0,1,0,0,0,0,0,0,0,0,0,0,0,0,0,0,0,0,0,0,0,0,0,0,0,0,"630 N KINGSBURY AVE60610
(41.90442000000013, -87.63700999999998)",41.90442,-87.63701,1.7
1200,CONNORS (WILLIAM),871 N WABASH AVE,60611.0,0.2,42,PASSIVE PARK,Connors,0,0,0,0,0,0,0,0,0,0,0,0,0,0,0,0,0,0,0,0,0,0,0,0,0,0,0,0,0,0,0,0,0,0,0,0,0,0,0,0,0,0,0,0,0,0,0,0,0,0,0,0,0,0,0,0,0,0,0,0,0,0,0,0,0,0,"871 N WABASH AVE60611
(41.898620595805355, -87.6268015693875)",41.8986206,-87.6268016,0.4472136
354,RAILROAD JUNCTION,7334 S MARYLAND AVE,60619.0,0.23,6,MINI-PARK,Railroad Junction,0,0,0,0,0,0,0,0,0,0,0,0,0,0,0,0,0,0,0,0,0,0,0,0,0,0,0,0,0,0,0,0,0,0,0,0,0,0,0,0,0,0,1,0,0,0,0,0,0,0,0,0,0,0,0,0,0,0,0,0,0,0,0,0,0,0,"7334 S MARYLAND AVE60619
(41.76159692979972, -87.60429085094485)",41.7615969,-87.6042909,0.4795832
228,HORNER (HENRY),2741 W MONTROSE AVE,60618.0,54.84,40,REGIONAL PARK,Horner,0,0,0,0,0,0,4,2,0,0,0,0,0,0,0,0,4,0,0,0,0,1,0,0,0,0,0,0,1,0,0,0,0,0,0,9,0,0,0,0,0,1,0,0,0,0,0,0,0,0,0,3,6,0,0,0,0,0,0,0,0,0,0,0,0,0,"2741 W MONTROSE AVE60618
(41.96121642252109, -87.69763588713187)",41.9612164,-87.6976359,7.4054034
231,ROSENBLUM (J. LESLIE),2000 E 75TH ST,60649.0,10.84,8,COMMUNITY PARK,Rosenblum,0,0,0,0,0,0,4,2,0,0,0,0,0,0,0,0,1,0,0,0,0,0,0,0,0,0,0,0,0,0,0,0,0,0,0,0,0,0,0,0,0,1,0,0,0,0,7,0,0,0,0,1,0,0,0,0,0,0,0,0,0,0,0,0,0,0,"2000 E 75TH ST60649
(41.75886982938738, -87.57574285846698)",41.7588698,-87.5757429,3.2924155
14,DAVIS (DR. NATHAN) SQUARE,4430 S MARSHFIELD AVE,60609.0,8.13,12,COMMUNITY PARK,Davis (Nathan) Square,0,0,0,1,0,0,4,2,0,0,0,0,0,0,0,0,2,0,0,0,0,1,0,0,0,0,0,0,0,0,0,0,2,0,0,3,0,0,1,0,0,1,0,0,0,0,0,0,0,0,1,0,0,0,0,0,0,0,0,0,0,0,0,0,0,0,"4430 S MARSHFIELD AVE60609
(41.81348537013874, -87.66638793017678)",41.8134854,-87.6663879,2.8513155
272,SMITH (WENDELL),9912 S PRINCETON AVE,60628.0,4.72,21,NEIGHBORHOOD PARK,Smith (Wendell),0,0,0,0,0,0,4,2,0,0,0,0,0,0,0,0,0,0,0,0,0,0,0,0,0,0,0,0,0,0,0,0,0,0,0,2,0,0,0,0,0,1,0,0,0,0,0,0,0,0,0,0,0,0,0,0,0,0,0,0,0,0,0,0,0,0,"9912 S PRINCETON AVE60628
(41.71392351300701, -87.63095373434795)",41.7139235,-87.6309537,2.1725561
520,PARK NO. 520,916 N HONORE ST,60622.0,0.14,32,MINI-PARK,Park No. 520,0,0,0,0,0,0,0,0,0,0,0,0,0,0,0,0,0,0,0,0,0,0,0,0,0,0,0,0,0,0,0,0,0,0,0,0,0,0,0,0,0,0,1,0,0,0,0,0,0,0,0,0,0,0,0,0,0,0,0,0,0,0,0,0,0,0,"916 N HONORE ST60622
(41.89836366935208, -87.67345419695044)",41.8983637,-87.6734542,0.3741657
494,WASHINGTON (HAROLD),5200 S HYDE PARK BLVD,60615.0,12.97,4,NEIGHBORHOOD PARK,Washington (Harold),0,0,0,0,0,0,0,0,0,0,0,0,0,0,0,0,0,0,0,0,0,0,0,0,0,0,0,0,0,0,0,0,0,0,0,0,0,0,0,0,0,1,0,0,0,0,0,0,0,0,1,0,8,0,0,0,0,0,0,0,0,0,0,0,1,0,"5200 S HYDE PARK BLVD60615
(41.801045614422165, -87.58465923203076)",41.8010456,-87.5846592,3.6013886
105,GOUDY (WILLIAM) SQUARE,1255 N ASTOR ST,60610.0,0.46,42,MINI-PARK,Goudy Square,0,0,0,0,0,0,0,0,0,0,0,0,0,0,0,0,0,0,0,0,0,0,0,0,0,0,0,0,0,0,0,0,0,0,0,0,0,0,0,0,0,0,1,0,0,0,0,0,0,0,0,0,0,0,0,0,0,0,0,0,0,0,0,0,0,0,"1255 N ASTOR ST60610
(41.90530132218354, -87.62708803757549)",41.9053013,-87.627088,0.678233
1004,BRADLEY (JOSEPHINE),9729 S YATES AVE,60617.0,4.07,10,NEIGHBORHOOD PARK,Bradley,0,0,0,0,0,0,2,1,0,0,0,0,0,0,0,0,1,0,0,0,0,0,0,0,0,0,0,0,0,0,0,0,0,0,0,2,0,0,0,0,0,1,0,0,0,0,0,0,0,0,0,0,2,0,1,0,0,0,0,0,0,0,0,0,0,0,"9729 S YATES AVE60617
(41.718412888271324, -87.56457023147516)",41.7184129,-87.5645702,2.0174241
167,CHIPPEWA,6758 N SACRAMENTO AVE,60645.0,2.78,50,NEIGHBORHOOD PARK,Chippewa,0,0,0,0,0,0,2,2,0,0,0,0,0,0,0,0,0,0,0,0,0,0,0,0,0,0,0,0,0,0,0,0,0,0,0,0,0,0,0,0,0,1,0,0,0,0,0,0,0,0,1,0,0,0,0,0,0,0,0,0,0,0,0,0,0,0,"6758 N SACRAMENTO AVE60645
(42.00400392568023, -87.70465195350572)",42.0040039,-87.704652,1.6673332
446,LAMB (HAROLD),1400 W 109TH ST,60643.0,0.97,34,NEIGHBORHOOD PARK,Lamb,0,0,0,0,0,0,2,1,0,0,0,0,0,0,0,0,0,0,0,0,0,0,0,0,0,0,0,0,0,0,0,0,0,0,0,0,0,0,0,0,0,1,0,0,0,0,0,0,0,0,0,0,0,0,0,0,0,0,0,0,0,0,0,0,0,0,"1400 W 109TH ST60643
(41.69586445812372, -87.65709249434097)",41.6958645,-87.6570925,0.9848858
453,MIAMI,2754 S TRUMBULL AVE,60623.0,0.14,22,MINI-PARK,Miami,0,0,0,0,0,0,0,0,0,0,0,0,0,0,0,0,0,0,0,0,0,0,0,0,0,0,0,0,0,0,0,0,0,0,0,0,0,0,0,0,0,0,1,0,0,0,0,0,0,0,0,0,0,0,0,0,0,0,0,0,0,0,0,0,0,0,"2754 S TRUMBULL AVE60623
(41.841600260194724, -87.71111278064987)",41.8416003,-87.7111128,0.3741657
166,POTTAWATTOMIE,7340 N ROGERS AVE,60626.0,8.79,49,COMMUNITY PARK,Pottawattomie,0,0,0,0,0,0,4,2,0,0,0,0,0,0,0,0,1,0,0,0,0,1,0,0,0,0,0,0,1,0,0,0,0,0,0,2,0,0,0,0,0,1,0,0,0,0,0,0,0,0,1,1,2,0,0,0,0,0,0,0,0,0,0,0,0,0,"7340 N ROGERS AVE60626
(42.014485477971654, -87.6787052507677)",42.0144855,-87.6787053,2.9647934
492,ARMSTRONG (LILLIAN HARDIN),4433 S ST LAWRENCE,60653.0,8.6,4,COMMUNITY PARK,Armstrong,0,0,0,0,0,0,4,2,0,0,0,0,0,0,0,0,1,0,0,0,0,0,0,0,0,0,0,0,0,0,0,0,0,0,0,2,0,0,0,0,0,1,0,0,0,0,0,0,0,0,0,0,0,0,0,0,0,0,0,0,0,0,0,0,0,0,"4433 S ST LAWRENCE60653
(41.81393162857975, -87.61145257495754)",41.8139316,-87.6114526,2.9325757
268,DURKIN (MARTIN),8441 S KOLIN AVE,60652.0,12.8,18,COMMUNITY PARK,Durkin,0,0,0,0,0,0,0,0,0,0,0,0,0,0,0,0,1,0,0,0,0,0,1,0,0,0,0,0,0,0,0,0,0,0,0,3,0,0,0,0,0,1,0,0,0,0,0,0,0,1,1,1,0,0,0,0,0,0,0,0,0,0,0,0,0,0,"8441 S KOLIN AVE60652
(41.73944590077046, -87.73000671682766)",41.7394459,-87.7300067,3.5777088
556,PARK NO. 556,2529 W LOGAN BLVD,60647.0,0.5,35,UNIMPROVED PARK,Park No. 556,0,0,0,0,0,0,0,0,0,0,0,0,0,0,0,0,0,0,0,0,0,0,0,0,0,0,0,0,0,0,0,0,0,0,0,0,0,0,0,0,0,0,0,0,0,0,0,0,0,0,0,0,0,0,0,0,0,0,0,0,0,0,0,0,0,0,"2529 W LOGAN BLVD60647
(41.928184596819825, -87.69137597281315)",41.9281846,-87.691376,0.7071068
42,KIWANIS,3315 W CARMEN AVE,60625.0,1.55,39,PASSIVE PARK,Kiwanis,0,0,0,1,0,0,0,0,0,0,0,0,0,0,0,0,0,0,0,0,0,0,0,0,0,0,0,0,0,0,0,0,0,0,0,0,0,0,0,0,0,0,0,0,0,0,0,0,0,0,0,0,0,0,0,0,0,0,0,0,0,0,0,0,0,0,"3315 W CARMEN AVE60625
(41.973833910592134, -87.7119903385993)",41.9738339,-87.7119903,1.24499
211,SKINNER (MARK),1331 W  MONROE ST,60606.0,7.32,27,COMMUNITY PARK,Skinner,0,0,0,0,0,0,4,2,0,0,0,0,0,0,0,0,1,0,0,0,0,0,0,0,1,0,0,0,0,0,0,0,0,0,0,2,0,0,0,0,0,1,0,0,0,0,0,0,0,0,1,0,0,0,0,0,0,0,0,0,0,0,0,0,0,0,"1331 W MONROE ST60606
(41.881730000000005, -87.63661000000002)",41.88173,-87.63661,2.7055499
440,LUNA,5558 S GREEN ST,60621.0,0.16,16,MINI-PARK,Luna,0,0,0,0,0,0,0,0,0,0,0,0,0,0,0,0,0,0,0,0,0,0,0,0,0,0,0,0,0,0,0,0,0,0,0,0,0,0,0,0,0,0,1,0,0,0,0,0,0,0,0,0,0,0,0,0,0,0,0,0,0,0,0,0,0,0,"5558 S GREEN ST60621
(41.79305566233033, -87.64642275942403)",41.7930557,-87.6464228,0.4
365,BAULER (MATHIAS),517 W WISCONSIN ST,60614.0,0.64,43,NEIGHBORHOOD PARK,Bauler,0,0,0,0,0,0,0,0,0,0,0,0,0,0,0,0,0,0,0,0,0,0,0,0,0,0,0,0,0,0,0,0,0,0,0,0,0,0,0,0,0,1,0,0,0,0,0,0,0,0,0,0,0,0,0,0,0,0,0,0,0,0,0,0,0,0,"517 W WISCONSIN ST60614
(41.91640320580103, -87.64189713681426)",41.9164032,-87.6418971,0.8
1077,LANGDON (MARY MARGARET),1754 W ALBION AVE,60626.0,0.34,40,MINI-PARK,Langdon,0,0,0,0,0,0,0,0,0,0,0,0,0,0,0,0,0,0,0,0,0,0,0,0,0,0,0,0,0,0,0,0,0,0,0,0,0,0,0,0,0,0,1,0,0,0,0,0,0,0,0,0,0,0,0,0,0,0,0,0,0,0,0,0,0,0,"1754 W ALBION AVE60626
(42.0017003204525, -87.67418516969529)",42.0017003,-87.6741852,0.5830952
132,GREENBAUM (HENRY),1729 N KILDARE AVE,60639.0,1.65,30,NEIGHBORHOOD PARK,Greenbaum,0,0,0,0,0,0,2,1,0,0,0,0,0,0,0,0,0,0,0,0,0,0,0,0,0,0,0,0,0,0,0,0,0,0,0,1,0,0,0,0,0,1,0,0,1,0,0,0,0,0,1,0,0,0,0,0,0,0,0,0,0,0,0,0,0,0,"1729 N KILDARE AVE60639
(41.912226924319704, -87.73363773298594)",41.9122269,-87.7336377,1.2845233
227,SENN (NICHOLAS),5887 N RIDGE AVE,60660.0,8.13,48,COMMUNITY PARK,Senn,0,0,0,1,0,0,4,3,0,0,0,0,0,0,0,0,0,1,0,0,0,0,0,0,0,0,0,0,0,0,0,0,0,0,0,0,0,0,0,0,0,1,0,0,0,0,0,0,0,0,1,0,1,0,0,0,0,0,0,0,0,0,0,0,0,0,"5887 N RIDGE AVE60660
(41.98895978601249, -87.66866128477935)",41.9889598,-87.6686613,2.8513155
487,BRONCHO BILLY,4437 N MAGNOLIA AVE,60640.0,0.2,46,MINI-PARK,Broncho Billy,0,0,0,0,0,0,2,1,0,0,0,0,0,0,0,0,0,0,0,0,0,0,0,0,0,0,0,0,0,0,0,0,0,0,0,0,0,0,0,0,0,1,0,0,0,0,0,0,0,0,1,0,0,0,0,0,0,0,0,0,0,0,0,0,0,0,"4437 N MAGNOLIA AVE60640
(41.9623905332709, -87.66084729554854)",41.9623905,-87.6608473,0.4472136
531,PALMISANO (HENRY),2850 S HALSTED ST,60608.0,26.6,11,COMMUNITY PARK,Palmisano,0,0,0,0,0,0,0,0,0,0,0,0,0,0,1,0,1,0,0,0,0,0,0,0,0,0,0,0,0,0,0,0,0,0,0,0,0,0,0,0,0,0,0,0,0,0,0,0,0,0,0,0,0,0,0,0,0,0,1,1,0,0,0,0,0,0,"2850 S HALSTED ST60608
(41.8425511324398, -87.64646224645044)",41.8425511,-87.6464622,5.1575188
1051,MORAN (TERRANCE),5727 S RACINE AVE,60621.0,1.71,16,NEIGHBORHOOD PARK,Moran,0,0,0,0,0,0,2,1,0,0,0,0,0,0,0,0,0,0,0,0,0,0,0,0,0,0,0,0,0,0,0,0,3,0,0,0,0,0,0,0,0,1,0,0,0,0,0,0,0,0,1,0,0,0,0,0,0,0,0,0,0,0,0,0,0,0,"5727 S RACINE AVE60621
(41.776039999999966, -87.63983999999999)",41.77604,-87.63984,1.3076697
80,ATHLETIC FIELD,3546 W ADDISON ST,60618.0,3.87,35,NEIGHBORHOOD PARK,Athletic Field,0,0,0,0,0,0,2,1,0,0,0,0,0,0,0,0,0,0,0,0,0,0,0,0,0,0,0,0,0,0,0,0,0,0,0,3,0,0,0,0,0,1,0,0,0,0,0,0,0,0,1,0,2,0,0,0,0,0,0,0,0,0,0,0,0,0,"3546 W ADDISON ST60618
(41.94658165070525, -87.71667626407998)",41.9465817,-87.7166763,1.9672316
140,PLEASANT POINT,6813 W IMLAY ST,60631.0,1.89,41,NEIGHBORHOOD PARK,Pleasant Point,0,0,0,0,0,0,4,1,0,0,0,0,0,0,0,0,0,0,0,0,0,0,0,0,0,0,0,0,0,0,0,0,0,0,0,0,0,0,0,0,0,1,0,0,0,0,0,0,0,0,1,0,0,0,0,0,0,0,0,0,0,0,0,0,0,0,"6813 W IMLAY ST60631
(41.998714681026634, -87.79744009353237)",41.9987147,-87.7974401,1.3747727
1151,SUMMERDALE,7262 W SUMMERDALE AVE,60656.0,0.27,41,MINI-PARK,Summerdale,0,0,0,0,0,0,0,0,0,0,0,0,0,0,0,0,0,0,0,0,0,0,0,0,0,0,0,0,0,0,0,0,0,0,0,0,0,0,0,0,0,0,1,0,0,0,0,0,0,0,0,0,0,0,0,0,0,0,0,0,0,0,0,0,0,0,"7262 W SUMMERDALE AVE60656
(41.977621783253085, -87.80860081880333)",41.9776218,-87.8086008,0.5196152
230,PIOTROWSKI (LILLIAN),4200 W 31ST ST,60623.0,22.93,22,REGIONAL PARK,Piotrowski,0,0,0,1,0,0,0,0,0,0,0,0,0,0,0,0,1,0,0,0,0,1,0,0,0,0,0,0,1,0,0,0,0,0,0,4,0,0,1,0,0,1,0,0,0,0,0,1,0,0,1,2,3,0,1,1,0,0,0,0,0,0,0,0,0,0,"4200 W 31ST ST60623
(41.83689532007749, -87.72922973800664)",41.8368953,-87.7292297,4.788528
1121,HUMBERT (JAMES),632 W 31ST ST,60616.0,0.35,11,MINI-PARK,Humbert,0,0,0,0,0,0,0,0,0,0,0,0,0,0,0,0,0,0,0,0,0,0,0,0,0,0,0,0,0,0,0,0,0,0,0,0,0,0,0,0,0,0,1,0,0,0,0,0,0,0,0,0,0,0,0,0,0,0,0,0,0,0,0,0,0,0,"632 W 31ST ST60616
(41.838154401724914, -87.6426861386936)",41.8381544,-87.6426861,0.591608
497,STARR (ELLEN GATES),2306 W MAYPOLE AVE,60612.0,2.0,27,NEIGHBORHOOD PARK,Starr,0,0,0,0,0,0,0,0,0,0,0,0,0,0,0,0,0,0,0,0,0,0,0,0,0,0,0,0,0,0,0,0,0,0,0,0,0,0,0,0,0,1,0,0,0,0,0,0,0,0,0,0,0,0,0,0,0,0,0,0,0,0,0,0,0,0,"2306 W MAYPOLE AVE60612
(41.88392882481387, -87.6855441921161)",41.8839288,-87.6855442,1.4142136
308,LINDEN,1139 N PULASKI RD,60651.0,0.5,31,NEIGHBORHOOD PARK,Linden,0,0,0,0,0,0,2,1,0,0,0,0,0,0,0,0,0,0,0,0,0,0,0,0,0,0,0,0,0,0,0,0,0,0,0,0,0,0,0,0,0,1,0,0,0,0,0,0,0,0,1,0,0,0,0,0,0,0,0,0,0,0,0,0,0,0,"1139 N PULASKI RD60651
(41.901548651261926, -87.72617931605436)",41.9015487,-87.7261793,0.7071068
257,WILDWOOD,6950 N HIAWATHA AVE,60646.0,9.22,41,COMMUNITY PARK,Wildwood,0,0,0,0,0,0,4,1,0,0,0,0,0,0,0,0,1,0,0,0,0,0,0,0,0,0,0,0,1,0,0,0,0,0,0,3,0,0,0,0,0,1,0,0,0,0,0,0,0,0,1,1,2,0,0,0,0,0,0,0,0,0,0,0,0,0,"6950 N HIAWATHA AVE60646
(42.00721071322317, -87.77808245617607)",42.0072107,-87.7780825,3.0364453
534,PARK NO. 534,1300 S ST LOUIS AVE,60623.0,3.17,24,NEIGHBORHOOD PARK,Park No. 534,0,0,0,0,0,0,0,0,0,0,0,0,0,0,0,0,0,0,0,0,0,0,0,0,0,0,0,0,0,0,0,0,0,0,0,0,0,0,0,0,0,1,0,0,0,0,0,0,0,0,1,0,0,0,0,0,0,0,0,0,0,0,0,0,0,0,"1300 S ST LOUIS AVE60623
(41.86406212882867, -87.71297097741018)",41.8640621,-87.712971,1.7804494
1213,ELLIS (SAMUEL),600 E 37TH ST,60653.0,9.86,2,COMMUNITY PARK,Ellis,0,0,0,0,0,0,4,2,0,0,0,0,0,0,0,0,1,0,0,0,0,0,0,0,0,0,0,0,0,0,0,0,0,0,0,3,0,0,0,0,0,1,0,0,0,0,0,0,0,0,0,0,2,0,0,0,0,0,0,0,0,0,0,0,0,0,"600 E 37TH ST60653
(41.827592483723315, -87.61155399897748)",41.8275925,-87.611554,3.1400637
1093,DEGEORGE (BERNICE),4905 W WABANSIA AVE,60639.0,0.29,30,MINI-PARK,Degeorge,0,0,0,0,0,0,0,0,0,0,0,0,0,0,0,0,0,0,0,0,0,0,0,0,0,0,0,0,0,0,0,0,0,0,0,0,0,0,0,0,0,0,1,0,0,0,0,0,0,0,0,0,0,0,0,0,0,0,0,0,0,0,0,0,0,0,"4905 W WABANSIA AVE60639
(41.91135581463479, -87.74939985175902)",41.9113558,-87.7493999,0.5385165
366,DEJULIO (ANTHONY),6056 N LANDERS AVE,60646.0,0.67,39,NEIGHBORHOOD PARK,Dejulio,0,0,0,0,0,0,0,0,0,0,0,0,0,0,0,0,0,0,0,0,0,0,0,0,0,0,0,0,0,0,0,0,0,0,0,0,0,0,0,0,0,0,1,0,0,0,0,0,0,0,0,0,0,0,0,0,0,0,0,0,0,0,0,0,0,0,"6056 N LANDERS AVE60646
(41.991888326652195, -87.75247013906693)",41.9918883,-87.7524701,0.8185353
557,PARK NO. 557,7211-7355 N KEDZIE AVE,60645.0,2.01,50,PASSIVE PARK,Park No. 557,0,0,0,0,0,0,0,0,0,0,0,0,0,0,0,0,0,0,0,0,0,0,0,0,0,0,0,0,0,0,0,0,0,0,0,0,0,0,0,0,0,0,0,0,0,0,0,0,0,0,0,0,0,0,0,0,0,0,0,0,0,0,0,0,0,0,"7211-7355 N KEDZIE AVE60645
(42.00825000000003, -87.69558)",42.00825,-87.69558,1.4177447
481,TOM (PING) MEML.,300 W 18TH ST,60616.0,17.36,1,PASSIVE PARK,Ping Tom Memorial,0,0,0,0,0,0,0,0,0,0,0,0,0,0,0,0,0,0,0,0,0,0,0,0,0,0,0,0,0,0,0,0,0,0,0,1,0,0,0,0,0,1,0,0,0,0,0,0,0,0,0,0,0,0,0,0,0,0,0,0,0,0,0,0,0,0,"300 W 18TH ST60616
(41.85777542854532, -87.63451185843203)",41.8577754,-87.6345119,4.1665333
517,PARK NO. 517,5914-5924 N SHERIDAN RD,60660.0,0.52,48,PASSIVE PARK,Park No. 517,0,0,0,0,0,0,0,0,0,0,0,0,0,0,0,0,0,0,0,0,0,0,0,0,0,0,0,0,0,0,0,0,0,0,0,0,0,0,0,0,0,0,0,0,0,0,0,0,0,0,0,0,0,0,0,0,0,0,0,0,0,0,0,0,0,0,"5914-5924 N SHERIDAN RD60660
(41.99167000000011, -87.6678)",41.99167,-87.6678,0.7211103
325,HOLLY,4052 S ELLIS AVE,60653.0,0.41,4,MINI-PARK,Holly,0,0,0,0,0,0,0,0,0,0,0,0,0,0,0,0,0,0,0,0,0,0,0,0,0,0,0,0,0,0,0,0,0,0,0,0,0,0,0,0,0,0,1,0,0,0,0,0,0,0,1,0,0,0,0,0,0,0,0,0,0,0,0,0,0,0,"4052 S ELLIS AVE60653
(41.820911039768966, -87.60321300554837)",41.820911,-87.603213,0.6403124
1012,O'HALLAREN (BERNARD),8335 S HONORE ST,60620.0,8.2,18,COMMUNITY PARK,O'Hallaren (Bernard),0,0,0,0,0,0,4,2,0,0,0,0,0,0,0,0,1,0,0,0,0,0,0,0,0,0,0,0,0,0,0,0,0,0,0,3,0,0,0,0,0,1,0,0,0,0,0,0,0,0,1,0,2,0,1,0,0,0,0,0,0,0,0,0,0,0,"8335 S HONORE ST60620
(41.74361067160154, -87.66925588680479)",41.7436107,-87.6692559,2.8635642
504,MANDRAKE (HENRY BROWN),900 E PERSHING RD.,60653.0,9.31,4,COMMUNITY PARK,Mandrake,0,0,0,0,0,0,4,2,0,0,0,0,0,0,0,0,0,0,0,0,0,0,0,0,0,0,0,0,0,0,0,0,0,0,0,2,0,0,0,0,0,1,0,0,0,0,0,0,0,0,0,0,2,1,0,0,0,0,0,0,0,0,0,0,0,0,"900 E PERSHING RD.60653
(41.82435636976093, -87.60512717223385)",41.8243564,-87.6051272,3.0512293
1010,KENWOOD COMM.,1330 E 50TH ST,60615.0,9.46,4,COMMUNITY PARK,Kenwood Comm.,0,0,0,0,0,0,0,0,0,0,0,0,0,0,0,0,1,1,0,0,0,0,0,0,0,0,0,0,0,0,0,0,0,0,0,2,0,0,0,0,0,1,0,0,0,0,0,0,0,1,1,2,2,0,0,0,0,0,0,0,0,0,0,0,0,0,"1330 E 50TH ST60615
(41.80425749043362, -87.59437365881377)",41.8042575,-87.5943737,3.0757113
1248,HARTIGAN (DAVID) BEACH,1040 W ALBION AVE,60626.0,2.16,49,NEIGHBORHOOD PARK,Hartigan Beach,0,0,0,0,0,0,0,0,1,0,0,0,0,0,0,0,0,0,0,0,0,0,0,0,0,0,0,0,0,0,0,0,0,0,0,0,0,0,0,0,0,1,0,0,0,0,0,0,0,0,0,0,0,0,0,0,0,0,0,0,0,0,0,0,0,0,"1040 W ALBION AVE60626
(42.00256811288705, -87.65783297330148)",42.0025681,-87.657833,1.4696938
207,AUSTIN TOWN HALL,5610 W LAKE ST,60644.0,3.21,29,COMMUNITY PARK,Austin Town Hall,0,0,0,0,0,0,4,1,0,0,0,0,0,0,0,0,0,0,0,0,0,1,0,0,0,0,0,0,1,0,0,0,0,0,1,0,0,0,0,0,0,1,0,0,0,0,0,0,0,0,0,0,0,0,0,0,0,0,0,0,0,0,0,0,0,0,"5610 W LAKE ST60644
(41.88779348438025, -87.76546739486766)",41.8877935,-87.7654674,1.7916473
240,ROGERS (PHILLIP),7345 N WASHTENAW AVE,60645.0,25.82,50,REGIONAL PARK,Rogers (Phillip),0,0,0,0,0,0,0,0,0,0,0,0,0,0,0,0,3,0,0,0,0,0,0,0,0,0,0,0,0,0,0,0,0,0,0,4,0,0,0,0,0,1,0,0,0,0,0,0,0,0,0,2,4,0,0,0,0,0,0,0,0,0,0,0,0,0,"7345 N WASHTENAW AVE60645
(42.01502331891614, -87.69722502596593)",42.0150233,-87.697225,5.0813384
41,FIELD (EUGENE),5100 N RIDGEWAY AVE,60625.0,15.78,39,COMMUNITY PARK,Field,0,0,0,0,0,0,2,1,0,0,0,0,0,0,0,0,1,1,0,1,0,0,0,0,0,0,0,0,1,0,0,0,0,0,0,1,0,0,0,0,0,1,0,0,0,0,0,0,0,0,1,1,5,0,0,0,0,0,1,0,0,0,0,0,0,0,"5100 N RIDGEWAY AVE60625
(41.97296093636328, -87.72208214625773)",41.9729609,-87.7220821,3.9724048
271,TAYLOR (ROBERT ROCHON),100 W 47TH ST,60609.0,9.02,3,COMMUNITY PARK,Taylor,0,0,0,0,0,0,5,2,0,0,0,0,0,0,0,0,2,0,0,0,0,1,0,0,0,0,0,0,1,0,0,0,0,0,0,3,0,0,1,0,0,1,0,0,0,0,0,0,0,0,0,1,1,0,0,0,0,1,0,0,0,0,0,0,0,0,"100 W 47TH ST60609
(41.80925041646639, -87.62819622096008)",41.8092504,-87.6281962,3.0033315
1015,SMITH (JOSEPH HIGGINS),2526 W GRAND AVE,60612.0,9.82,27,COMMUNITY PARK,Smith (Joseph Higgins),0,0,0,0,0,0,0,0,0,0,0,0,0,0,0,0,1,0,0,0,0,0,0,0,0,0,0,0,1,0,0,0,0,0,0,2,0,0,1,0,0,1,0,0,0,0,0,0,0,0,1,1,2,0,0,0,0,0,0,0,0,0,0,0,0,0,"2526 W GRAND AVE60612
(41.89168458380353, -87.6898317695816)",41.8916846,-87.6898318,3.1336879
1278,WALNUT,3801 W 45TH ST,60632.0,0.53,12,NEIGHBORHOOD PARK,Walnut,0,0,0,0,0,0,0,0,0,0,0,0,0,0,0,0,0,0,0,0,0,0,0,0,0,0,0,0,0,0,0,0,0,0,0,0,0,0,0,0,0,1,0,0,0,0,0,0,0,1,0,0,0,0,0,0,0,0,0,0,0,0,0,0,0,0,"3801 W 45TH ST60632
(41.811541485828116, -87.71908521574412)",41.8115415,-87.7190852,0.728011
1237,PULLMAN (GEORGE),11113 S COTTAGE GROVE AVE,60628.0,0.76,9,PASSIVE PARK,Pullman,0,0,0,0,0,0,0,0,0,0,0,0,0,0,0,0,0,0,0,0,0,0,0,0,0,0,0,0,0,0,0,0,0,0,0,0,0,0,0,0,0,0,0,0,0,0,0,0,0,0,0,0,0,0,0,0,0,0,0,0,0,0,0,0,0,0,"11113 S COTTAGE GROVE AVE60628
(41.692364871826115, -87.60988023388992)",41.6923649,-87.6098802,0.8717798
48,KENNEDY (DENNIS),11320 S WESTERN AVE,60655.0,18.16,19,COMMUNITY PARK,Kennedy,0,0,0,0,0,0,0,0,0,0,0,0,0,0,0,0,1,0,0,0,0,0,0,0,0,0,0,0,0,0,0,0,0,0,0,5,0,0,1,0,0,1,0,0,1,0,0,0,0,0,0,1,4,0,0,0,0,0,0,0,0,0,0,0,0,0,"11320 S WESTERN AVE60655
(41.694140000000004, -87.70328999999987)",41.69414,-87.70329,4.2614552
1274,SYCAMORE,5109 S GREENWOOD AVE,60615.0,0.56,4,NEIGHBORHOOD PARK,Sycamore,0,0,0,0,0,0,0,0,0,0,0,0,0,0,0,0,0,0,0,0,0,0,0,0,0,0,0,0,0,0,0,0,0,0,0,0,0,0,0,0,0,1,0,0,0,0,0,0,0,0,0,0,0,0,0,0,0,0,0,0,0,0,0,0,0,0,"5109 S GREENWOOD AVE60615
(41.802195375235904, -87.59972330742981)",41.8021954,-87.5997233,0.7483315
1137,OAKLEY,6441 S OAKLEY AVE,60636.0,0.35,15,MINI-PARK,Oakley,0,0,0,0,0,0,0,0,0,0,0,0,0,0,0,0,0,0,0,0,0,0,0,0,0,0,0,0,0,0,0,0,0,0,0,0,0,0,0,0,0,0,1,0,0,0,0,0,0,0,0,0,0,0,0,0,0,0,0,0,0,0,0,0,0,0,"6441 S OAKLEY AVE60636
(41.77667236282613, -87.68093438597352)",41.7766724,-87.6809344,0.591608
236,ROBINSON (JACKIE),10540 S MORGAN ST,60643.0,16.79,34,REGIONAL PARK,Robinson,0,0,0,0,0,0,4,1,0,0,0,0,0,0,0,0,0,0,0,0,0,0,0,0,0,0,0,0,0,0,0,0,0,0,0,2,0,0,0,0,0,1,0,0,0,0,0,0,0,0,0,2,0,0,0,0,0,0,0,0,0,0,0,0,0,0,"10540 S MORGAN ST60643
(41.702483087590934, -87.64760634977873)",41.7024831,-87.6476063,4.0975602
238,WENTWORTH (JOHN),5625 S MOBILE AVE,60638.0,20.11,23,REGIONAL PARK,Wentworth (John),0,0,0,0,0,0,6,3,0,0,0,0,0,0,0,0,1,0,0,0,0,0,0,0,0,0,0,0,0,0,0,0,0,0,0,2,0,0,0,0,0,1,0,0,0,0,0,0,0,0,1,2,4,0,0,0,0,0,0,0,0,0,0,0,0,0,"5625 S MOBILE AVE60638
(41.79046438880159, -87.77920389052484)",41.7904644,-87.7792039,4.4844175
560,PARK NO. 560,410 W CHICAGO AVE,60654.0,1.42,27,UNIMPROVED PARK,Park No. 560,0,0,0,0,0,0,0,0,0,0,0,0,0,0,0,0,0,0,0,0,0,0,0,0,0,0,0,0,0,0,0,0,0,0,0,0,0,0,0,0,0,0,0,0,0,0,0,0,0,0,0,0,0,0,0,0,0,0,0,0,0,0,0,0,0,0,"410 W CHICAGO AVE60654
(41.89656950597816, -87.63920480568918)",41.8965695,-87.6392048,1.1916375
40,GOMPERS (SAMUEL),4222 W FOSTER AVE,60630.0,38.69,39,REGIONAL PARK,Gompers,0,0,0,0,0,0,2,1,0,0,0,0,0,0,1,0,1,0,0,0,0,0,0,0,0,0,0,0,1,0,0,0,0,0,0,3,0,0,1,0,0,1,0,0,0,0,0,0,0,1,1,0,5,0,0,0,0,0,1,1,0,0,0,0,0,0,"4222 W FOSTER AVE60630
(41.975522920336786, -87.73484282785677)",41.9755229,-87.7348428,6.2201286
1065,"TOUHY-HERBERT (JOHN, VICTOR)",2106 W ADAMS ST,60612.0,2.98,27,NEIGHBORHOOD PARK,Touhy-Herbert,0,0,0,0,0,0,4,2,0,0,0,0,0,0,0,0,0,0,0,0,0,0,0,0,0,0,0,0,0,0,0,0,0,0,0,1,0,0,0,0,0,1,0,0,0,0,0,0,0,0,1,0,0,0,0,0,0,0,0,0,0,0,0,0,0,0,"2106 W ADAMS ST60612
(41.878737322936864, -87.6792048953952)",41.8787373,-87.6792049,1.7262677
397,THE GROVE,8421 S MORGAN ST,60620.0,0.28,18,MINI-PARK,The Grove,0,0,0,0,0,0,0,0,0,0,0,0,0,0,0,0,0,0,0,0,0,0,0,0,0,0,0,0,0,0,0,0,0,0,0,0,0,0,0,0,0,0,1,0,0,0,0,0,0,0,0,0,0,0,0,0,0,0,0,0,0,0,0,0,0,0,"8421 S MORGAN ST60620
(41.741054770427425, -87.64851549138245)",41.7410548,-87.6485155,0.5291503
104,EMMERSON (LOUIS),1820 W GRANVILLE AVE,60660.0,2.34,50,NEIGHBORHOOD PARK,Emmerson,0,0,0,0,0,0,2,1,0,0,0,0,0,0,0,0,0,0,0,0,0,0,0,0,0,0,0,0,0,0,0,0,0,0,0,0,0,0,0,0,0,1,0,0,0,0,0,0,0,0,1,0,2,0,0,0,0,0,0,0,0,0,0,0,0,0,"1820 W GRANVILLE AVE60660
(41.99438413103115, -87.67579531743584)",41.9943841,-87.6757953,1.5297059
24,GRANT (ULYSSES),331 E RANDOLPH ST,60605.0,324.7,2,MAGNET PARK,Grant,0,0,0,0,1,0,0,0,0,0,0,0,0,0,0,0,0,0,0,0,1,0,0,0,2,0,0,0,0,0,0,0,0,1,0,16,0,0,0,0,0,1,0,0,2,0,0,1,0,0,0,0,18,0,0,0,0,0,0,0,0,0,1,0,0,0,"331 E RANDOLPH ST60605
(41.86725000000007, -87.62087999999994)",41.86725,-87.62088,18.019434
225,WEST PULLMAN,400 W 123RD ST,60628.0,15.64,9,REGIONAL PARK,West Pullman,0,0,0,0,0,0,2,1,0,0,0,0,0,0,0,0,1,0,0,0,0,1,0,0,0,0,0,0,1,0,0,0,0,0,1,2,0,0,0,0,0,1,0,0,0,0,0,0,0,0,1,1,5,0,0,0,0,0,0,0,0,0,0,0,0,0,"400 W 123RD ST60628
(41.67069216787331, -87.632054536857)",41.6706922,-87.6320545,3.954744
83,INDEPENDENCE,3945 N SPRINGFIELD AVE,60618.0,7.86,35,COMMUNITY PARK,Independence,0,0,0,0,0,0,0,0,0,0,0,0,0,0,0,0,1,0,0,0,0,1,0,0,0,0,0,0,1,0,0,0,0,0,1,3,0,0,0,0,0,1,0,0,0,0,0,0,0,0,1,0,4,0,0,0,0,0,0,0,0,0,0,0,0,0,"3945 N SPRINGFIELD AVE60618
(41.95265061044733, -87.72498260674732)",41.9526506,-87.7249826,2.8035692
449,WIEBOLDT (WILLIAM),1747 W NELSON ST,60657.0,0.29,32,MINI-PARK,Wieboldt,0,0,0,0,0,0,0,0,0,0,0,0,0,0,0,0,0,0,0,0,0,0,0,0,0,0,0,0,0,0,0,0,0,0,0,0,0,0,0,0,0,0,1,0,0,0,0,0,0,0,0,0,0,0,0,0,0,0,0,0,0,0,0,0,0,0,"1747 W NELSON ST60657
(41.936873352893734, -87.67210134222654)",41.9368734,-87.6721013,0.5385165
521,PARK NO. 521,1426 W WARNER AVE,60613.0,0.07,47,PASSIVE PARK,Park No. 521,0,0,0,0,0,0,0,0,0,0,0,0,0,0,0,0,0,0,0,0,0,0,0,0,0,0,0,0,0,0,0,0,0,0,0,0,0,0,0,0,0,0,0,0,0,0,0,0,0,0,0,0,0,0,0,0,0,0,0,0,0,0,0,0,0,0,"1426 W WARNER AVE60613
(41.95708040464507, -87.66550419021144)",41.9570804,-87.6655042,0.2645751
564,PARK NO. 564,1958 E 116TH ST,60617.0,304.07,10,NATURE PRESERVE PARK,Park No. 564,0,0,0,0,0,0,0,0,0,0,0,0,0,0,0,0,0,0,0,0,0,0,0,0,0,0,0,0,0,0,0,0,0,0,0,0,0,0,0,0,0,0,0,0,0,0,0,0,0,0,0,0,0,0,0,0,0,0,0,0,0,0,0,0,0,0,"1958 E 116TH ST60617
(41.712690000000066, -87.55551000000003)",41.71269,-87.55551,17.437603
499,BURNHAM GREENWAY,3925 E 104TH ST,60617.0,7.14,27,COMMUNITY PARK,Burnham Greenway,0,0,0,0,0,0,0,0,0,0,0,0,0,0,0,0,0,0,0,0,0,0,0,0,0,0,0,0,0,0,0,0,0,0,0,0,0,0,0,0,0,0,0,0,0,0,0,0,0,0,0,0,0,0,0,0,0,0,0,0,0,0,0,0,0,0,"3925 E 104TH ST60617
(41.706312586536285, -87.52909149175763)",41.7063126,-87.5290915,2.6720778
1149,SAINT LOUIS,347 N ST LOUIS AVE,60624.0,0.37,28,MINI-PARK,Saint Louis,0,0,0,0,0,0,2,1,0,0,0,0,0,0,0,0,0,0,0,0,0,0,0,0,0,0,0,0,0,0,0,0,0,0,0,0,0,0,0,0,0,1,0,0,0,0,0,0,0,0,1,0,0,0,0,0,0,0,0,0,0,0,0,0,0,0,"347 N ST LOUIS AVE60624
(41.88757806575711, -87.7135424757697)",41.8875781,-87.7135425,0.6082763
476,RIVER ESPLANADE,401 E RIVER DR,60611.0,0.73,42,PASSIVE PARK,River Esplanade,0,0,0,0,0,0,0,0,0,0,0,0,0,0,0,0,0,0,0,0,0,0,0,0,0,0,0,0,0,0,0,0,0,0,0,0,0,0,0,0,0,0,0,0,0,0,0,0,0,0,0,0,0,0,0,0,0,0,0,0,0,0,0,0,0,0,"401 E RIVER DR60611
(41.888845798506075, -87.61775483564746)",41.8888458,-87.6177548,0.8544004
546,PARK NO. 546,450 E. BENTON PLACE,60611.0,4.57,42,NEIGHBORHOOD PARK,Park No. 546,0,0,0,0,0,0,0,0,0,0,0,0,0,0,0,0,0,0,0,0,1,0,0,0,0,0,0,0,0,0,0,0,0,0,0,0,0,0,0,0,0,1,0,0,0,0,0,0,0,0,0,0,0,0,0,0,0,0,0,0,0,0,0,0,0,0,"450 E. BENTON PLACE60611
(41.89472000000006, -87.61860999999999)",41.89472,-87.61861,2.1377558
1226,NORWOOD CIRCLE,7117 W PETERSON AVE,60631.0,1.83,41,PASSIVE PARK,Norwood Circle,0,0,0,0,0,0,0,0,0,0,0,0,0,0,0,0,0,0,0,0,0,0,0,0,0,0,0,0,0,0,0,0,0,0,0,0,0,0,0,0,0,0,0,0,0,0,0,0,0,0,0,0,0,0,0,0,0,0,0,0,0,0,0,0,0,0,"7117 W PETERSON AVE60631
(41.98994951707589, -87.80449819965555)",41.9899495,-87.8044982,1.3527749
130,GALEWOOD,5729 W BLOOMINGDALE AVE,60639.0,2.12,30,NEIGHBORHOOD PARK,Galewood,0,0,0,0,0,0,3,2,0,0,0,0,0,0,0,0,1,0,0,0,0,0,0,0,0,0,0,0,0,0,0,0,0,0,0,2,0,0,0,0,0,1,0,0,0,0,0,0,0,0,1,0,0,0,1,0,0,0,0,0,0,0,0,0,0,0,"5729 W BLOOMINGDALE AVE60639
(41.91256404513937, -87.7686996000414)",41.912564,-87.7686996,1.456022
329,PRAIRIE WOLF,6310 S DREXEL AVE,60637.0,0.15,20,MINI-PARK,Prairie Wolf,0,0,0,0,0,0,0,0,0,0,0,0,0,0,0,0,0,0,0,0,0,0,0,0,0,0,0,0,0,0,0,0,0,0,0,0,0,0,0,0,0,0,1,0,0,0,0,0,0,0,1,0,0,0,0,0,0,0,0,0,0,0,0,0,0,0,"6310 S DREXEL AVE60637
(41.78022134404578, -87.60296009555294)",41.7802213,-87.6029601,0.3872983
1044,LOWE (SAMUEL),5203 S LOWE AVE,60609.0,3.89,3,NEIGHBORHOOD PARK,Lowe,0,0,0,0,0,0,2,1,0,0,0,0,0,0,0,0,1,0,0,0,0,0,0,0,0,0,0,0,0,0,0,0,0,0,0,1,0,0,0,0,0,1,0,0,0,0,0,0,0,0,1,1,0,0,0,0,0,0,0,0,0,0,0,0,0,0,"5203 S LOWE AVE60609
(41.799777507286436, -87.64157911032324)",41.7997775,-87.6415791,1.9723083
86,MAYFAIR,4550 W SUNNYSIDE AVE,60630.0,2.75,45,NEIGHBORHOOD PARK,Mayfair,0,0,0,0,0,0,4,1,0,0,0,0,0,0,0,0,1,0,0,0,0,0,0,0,0,0,0,0,0,0,0,0,0,0,0,2,0,0,0,0,0,1,0,0,0,0,0,0,0,0,1,0,0,0,0,0,0,0,0,0,0,0,0,0,0,0,"4550 W SUNNYSIDE AVE60630
(41.96266147294383, -87.74196948402287)",41.9626615,-87.7419695,1.6583124
75,HOLLYWOOD,3312 W THORNDALE AVE,60659.0,6.48,39,COMMUNITY PARK,Hollywood,0,0,0,0,0,0,2,1,0,0,0,0,0,0,0,0,1,0,0,0,0,0,0,0,0,0,0,0,0,0,0,0,0,0,0,2,0,0,0,0,0,1,0,0,0,0,0,0,0,0,1,0,1,0,0,0,0,0,0,0,0,0,0,0,0,0,"3312 W THORNDALE AVE60659
(41.98852156624821, -87.71220310536248)",41.9885216,-87.7122031,2.5455844
175,RIDGE,9625 S LONGWOOD DR,60643.0,9.32,19,COMMUNITY PARK,Ridge,0,0,0,0,0,0,0,0,0,0,0,0,0,0,0,0,1,0,0,0,0,1,0,1,0,0,0,0,1,0,0,0,0,0,1,3,0,0,0,0,0,1,0,0,0,0,0,0,0,0,0,0,2,0,0,0,0,0,0,0,0,0,0,0,0,0,"9625 S LONGWOOD DR60643
(41.71872962985179, -87.6689812315562)",41.7187296,-87.6689812,3.0528675
1212,GREEN (JEFFERY),6500 N ALGONQUIN AVE,60646.0,1.07,39,NEIGHBORHOOD PARK,Green,0,0,0,0,0,0,2,1,0,0,0,0,0,0,0,0,0,0,0,0,0,0,0,0,0,0,0,0,0,0,0,0,0,0,0,0,0,0,0,0,0,1,0,0,0,0,0,0,0,0,0,0,0,0,0,0,0,0,0,0,0,0,0,0,0,0,"6500 N ALGONQUIN AVE60646
(41.99949253448022, -87.76617078882731)",41.9994925,-87.7661708,1.034408
1275,CHESTNUT,7005 S DANTE AVE,60637.0,0.37,20,MINI-PARK,Chestnut,0,0,0,0,0,0,2,1,0,0,0,0,0,0,0,0,0,0,0,0,0,0,0,0,0,0,0,0,0,0,0,0,0,0,0,0,0,0,0,0,0,0,1,0,0,0,0,0,0,0,0,0,0,0,0,0,0,0,0,0,0,0,0,0,0,0,"7005 S DANTE AVE60637
(41.76771195305439, -87.58939894317272)",41.767712,-87.5893989,0.6082763
115,LOYOLA,1230 W GREENLEAF AVE,60626.0,21.62,49,REGIONAL PARK,Loyola,0,0,0,0,0,0,2,1,1,0,0,0,0,0,0,0,1,1,0,0,0,0,0,0,0,0,0,0,1,0,0,0,0,0,0,1,0,0,0,0,0,1,0,0,0,0,3,0,0,0,0,1,4,0,0,0,0,1,0,0,0,0,0,0,0,0,"1230 W GREENLEAF AVE60626
(42.01048498319744, -87.66117255469756)",42.010485,-87.6611726,4.6497312
1280,AIELLO (JOHN),2133 N MCVICKER AVE,60639.0,0.34,36,MINI-PARK,Aiello,0,0,0,0,0,0,0,0,0,0,0,0,0,0,0,0,0,0,0,0,0,0,0,0,0,0,0,0,0,0,0,0,0,0,0,0,0,0,0,0,0,0,1,0,0,0,0,0,0,0,0,0,0,0,0,0,0,0,0,0,0,0,0,0,0,0,"2133 N MCVICKER AVE60639
(41.918747387097355, -87.77669183591487)",41.9187474,-87.7766918,0.5830952
1106,HARDING (FREDERICK),3921 W DIVISION ST,60651.0,0.29,31,MINI-PARK,Harding (Frederick),0,0,0,0,0,0,0,0,0,0,0,0,0,0,0,0,0,0,0,0,0,0,0,0,0,0,0,0,0,0,0,0,0,0,0,0,0,0,0,0,0,0,1,0,0,0,0,0,0,0,0,0,0,0,0,0,0,0,0,0,0,0,0,0,0,0,"3921 W DIVISION ST60651
(41.90261928688547, -87.72470038444439)",41.9026193,-87.7247004,0.5385165
326,PARK NO. 326,6430 S KENWOOD AVE,60637.0,0.18,20,MINI-PARK,Park No. 326,0,0,0,0,0,0,0,0,0,0,0,0,0,0,0,0,0,0,0,0,0,0,0,0,0,0,0,0,0,0,0,0,0,0,0,0,0,0,0,0,0,0,0,0,0,0,0,0,0,0,0,0,0,0,0,0,0,0,0,0,0,0,0,0,0,0,"6430 S KENWOOD AVE60637
(41.77809329329945, -87.5930783829994)",41.7780933,-87.5930784,0.4242641
1207,BICKERDIKE (GEORGE) SQUARE,1438 W OHIO ST,60622.0,0.52,1,PASSIVE PARK,Bickerdike Square,0,0,0,0,0,0,0,0,0,0,0,0,0,0,0,0,0,0,0,0,0,0,0,0,0,0,0,0,0,0,0,0,0,0,0,0,0,0,0,0,0,0,0,0,0,0,0,0,0,0,0,0,0,0,0,0,0,0,0,0,0,0,0,0,0,0,"1438 W OHIO ST60622
(41.90318000000002, -87.68408)",41.90318,-87.68408,0.7211103
368,DOUGHERTY (DANIEL),9336 S KINGSTON AVE,60647.0,2.72,7,NEIGHBORHOOD PARK,Dougherty,0,0,0,0,0,0,0,0,0,0,0,0,0,0,0,0,0,0,0,0,0,0,0,0,0,0,0,0,0,0,0,0,0,0,0,1,0,0,0,0,0,0,0,0,0,0,0,0,0,0,0,1,0,0,0,0,0,0,0,0,0,0,0,0,0,0,"9336 S KINGSTON AVE60647
(41.92115000000007, -87.70218999999997)",41.92115,-87.70219,1.6492423
363,BURNSIDE (AMBROSE),9400 S GREENWOOD AVE,60619.0,5.92,8,COMMUNITY PARK,Burnside,0,0,0,0,0,0,2,1,0,0,0,0,0,0,0,0,0,0,0,0,0,0,0,0,0,0,0,0,0,0,0,0,0,0,0,2,0,0,0,0,0,1,0,0,0,0,0,0,0,0,1,0,0,0,0,0,0,0,0,0,0,0,0,0,0,0,"9400 S GREENWOOD AVE60619
(41.74405000000007, -87.60523)",41.74405,-87.60523,2.433105
505,NOTTINGHAM,7101 W 63RD ST,60638.0,0.48,23,PASSIVE PARK,Nottingham,0,0,0,0,0,0,0,0,0,0,0,0,0,0,0,0,0,0,0,0,0,0,0,0,0,0,0,0,0,0,0,0,0,0,0,0,0,0,0,0,0,0,0,0,0,0,0,0,0,0,0,0,0,0,0,0,0,0,0,0,0,0,0,0,0,0,"7101 W 63RD ST60638
(41.77730430722661, -87.79868932351692)",41.7773043,-87.7986893,0.6928203
1046,MARSHFIELD,1637 W 87TH ST,60620.0,0.76,21,NEIGHBORHOOD PARK,Marshfield,0,0,0,0,0,0,2,1,0,0,0,0,0,0,0,0,0,0,0,0,0,0,0,0,0,0,0,0,0,0,0,0,0,0,0,0,0,0,0,0,0,1,0,0,0,0,0,0,0,0,1,0,0,0,0,0,0,0,0,0,0,0,0,0,0,0,"1637 W 87TH ST60620
(41.73572783213457, -87.66433357527991)",41.7357278,-87.6643336,0.8717798
360,LIN (MARGARET HIE DING),1735 S STATE ST,60616.0,0.23,2,MINI-PARK,Lin,0,0,0,0,0,0,2,1,0,0,0,0,0,0,0,0,0,0,0,0,0,0,0,0,0,0,0,0,0,0,0,0,0,0,0,0,0,0,0,0,0,0,0,0,0,0,0,0,0,0,0,0,0,0,0,0,0,0,0,0,0,0,0,0,0,0,"1735 S STATE ST60616
(41.85857562965018, -87.62708608379344)",41.8585756,-87.6270861,0.4795832
1206,MID-NORTH,401 W BELDEN AVE,60614.0,0.06,43,PASSIVE PARK,Mid-North,0,0,0,0,0,0,0,0,0,0,0,0,0,0,0,0,0,0,0,0,0,0,0,0,0,0,0,0,0,0,0,0,0,0,0,0,0,0,0,0,0,0,0,0,0,0,0,0,0,0,0,0,0,0,0,0,0,0,0,0,0,0,0,0,0,0,"401 W BELDEN AVE60614
(41.923687445353835, -87.63937837030605)",41.9236874,-87.6393784,0.244949
1164,MASON (ELIZABETH),4100 W WEST END AVE,60624.0,0.79,28,NEIGHBORHOOD PARK,Mason,0,0,0,0,0,0,0,0,0,0,0,0,0,0,0,0,0,0,0,0,0,0,0,0,0,0,0,0,0,0,0,0,0,0,0,0,0,0,0,0,0,1,0,0,0,0,0,0,0,0,1,0,0,0,0,0,0,0,0,0,0,0,0,0,0,0,"4100 W WEST END AVE60624
(41.883390005705806, -87.72825294950475)",41.88339,-87.7282529,0.8888194
422,PARK NO. 422,3200 W CONGRESS PKWY,60624.0,0.54,28,NEIGHBORHOOD PARK,Park No. 422,0,0,0,0,0,0,0,0,0,0,0,0,0,0,0,0,0,0,0,0,0,0,0,0,0,0,0,0,0,0,0,0,0,0,0,0,0,0,0,0,0,1,0,0,0,0,0,0,0,0,1,0,0,0,0,0,0,0,0,0,0,0,0,0,0,0,"3200 W CONGRESS PKWY60624
(41.87497055616511, -87.70603438473195)",41.8749706,-87.7060344,0.7348469
441,DREXEL (FRANCIS),6931 S DAMEN AVE,60636.0,0.28,15,MINI-PARK,Drexel,0,0,0,0,0,0,0,0,0,0,0,0,0,0,0,0,0,0,0,0,0,0,0,0,0,0,0,0,0,0,0,0,0,0,0,0,0,0,0,0,0,0,1,0,0,0,0,0,0,0,0,0,0,0,0,0,0,0,0,0,0,0,0,0,0,0,"6931 S DAMEN AVE60636
(41.76787257866551, -87.6735370196458)",41.7678726,-87.673537,0.5291503
385,BUTTERCUP,4913 N SHERIDAN RD,60640.0,0.88,48,NEIGHBORHOOD PARK,Buttercup,0,0,0,0,0,0,0,0,0,0,0,0,0,0,0,0,0,0,0,0,0,0,0,0,0,0,0,0,0,0,0,0,0,0,0,0,0,0,0,0,0,1,0,0,0,0,0,0,0,0,0,0,0,0,0,0,0,0,0,0,0,0,0,0,0,0,"4913 N SHERIDAN RD60640
(41.9718113101341, -87.65481730716724)",41.9718113,-87.6548173,0.9380832
1222,MULBERRY POINT,5873 N NINA AVE,60631.0,0.07,41,PASSIVE PARK,Mulberry Point,0,0,0,0,0,0,0,0,0,0,0,0,0,0,0,0,0,0,0,0,0,0,0,0,0,0,0,0,0,0,0,0,0,0,0,0,0,0,0,0,0,0,0,0,0,0,0,0,0,0,0,0,0,0,0,0,0,0,0,0,0,0,0,0,0,0,"5873 N NINA AVE60631
(41.98760227343633, -87.8035774925921)",41.9876023,-87.8035775,0.2645751
1120,LONDON (LOUIS),3432 W 18TH ST,60623.0,0.12,24,MINI-PARK,London,0,0,0,0,0,0,0,0,0,0,0,0,0,0,0,0,0,0,0,0,0,0,0,0,0,0,0,0,0,0,0,0,0,0,0,0,0,0,0,0,0,0,1,0,0,0,0,0,0,0,0,0,0,0,0,0,0,0,0,0,0,0,0,0,0,0,"3432 W 18TH ST60623
(41.85724700848746, -87.71155724599977)",41.857247,-87.7115572,0.3464102
335,EDGEBROOK,6525 N HIAWATHA AVE,60646.0,9.34,39,COMMUNITY PARK,Edgebrook,0,0,0,0,0,0,4,2,0,0,0,0,0,0,0,0,1,0,0,0,0,0,0,0,0,0,0,0,0,0,0,0,0,0,0,3,0,0,0,0,0,1,0,0,0,0,0,0,0,0,0,1,0,0,0,0,0,0,0,0,0,0,0,0,0,0,"6525 N HIAWATHA AVE60646
(41.99942354908312, -87.76188983398535)",41.9994235,-87.7618898,3.0561414
1114,KEELER (CYRUS),1243 S KEELER AVE,60623.0,0.07,24,MINI-PARK,Keeler,0,0,0,0,0,0,0,0,0,0,0,0,0,0,0,0,0,0,0,0,0,0,0,0,0,0,0,0,0,0,0,0,0,0,0,0,0,0,0,0,0,0,1,0,0,0,0,0,0,0,0,0,0,0,0,0,0,0,0,0,0,0,0,0,0,0,"1243 S KEELER AVE60623
(41.86531635985171, -87.7299671330612)",41.8653164,-87.7299671,0.2645751
528,PARK NO. 528,6336 S KILBOURN AVE,60629.0,5.27,13,NEIGHBORHOOD PARK,Park No. 528,0,0,0,0,0,0,0,0,0,0,0,0,0,0,0,0,0,0,0,0,0,0,0,0,0,0,0,0,0,0,0,0,0,0,0,1,0,0,0,0,0,0,0,0,0,0,0,0,0,0,0,2,0,0,0,0,0,0,0,0,0,0,0,0,0,0,"6336 S KILBOURN AVE60629
(41.7776027072577, -87.73492285765309)",41.7776027,-87.7349229,2.2956481
466,ROOSEVELT (THEODORE),62 W ROOSEVELT RD,60605.0,1.64,1,NEIGHBORHOOD PARK,Roosevelt,0,0,0,0,0,0,0,0,0,0,0,0,0,0,0,0,0,0,0,0,0,0,0,0,0,0,0,0,0,0,0,0,0,0,0,0,0,0,0,0,0,1,0,0,0,0,0,0,0,0,0,0,3,0,0,0,0,0,0,0,0,0,0,0,0,0,"62 W ROOSEVELT RD60605
(41.867510438583324, -87.62930348865072)",41.8675104,-87.6293035,1.2806248
452,PETERSON (PEHR SAMUEL),5801 N PULASKI RD,60646.0,22.24,39,REGIONAL PARK,Peterson,0,0,0,0,0,0,6,2,0,0,0,0,0,0,0,0,2,0,0,0,0,1,0,0,0,0,0,0,1,1,0,0,0,0,0,2,0,0,0,0,0,2,0,0,0,0,0,0,0,0,0,0,4,0,0,0,0,0,0,0,0,0,0,0,0,0,"5801 N PULASKI RD60646
(41.98585720184405, -87.72842767593355)",41.9858572,-87.7284277,4.7159304
324,HARSH (VIVIAN G.),4464 S OAKENWALD AVE,60653.0,0.16,4,MINI-PARK,Harsh,0,0,0,0,0,0,0,0,0,0,0,0,0,0,0,0,0,0,0,0,0,0,0,0,0,0,0,0,0,0,0,0,0,0,0,0,0,0,0,0,0,0,1,0,0,0,0,0,0,0,1,0,0,0,0,0,0,0,0,0,0,0,0,0,0,0,"4464 S OAKENWALD AVE60653
(41.81417092817829, -87.59549182260967)",41.8141709,-87.5954918,0.4
1122,LUELLA,10021 S LUELLA AVE,60617.0,1.2,10,NEIGHBORHOOD PARK,Luella,0,0,0,0,0,0,2,1,0,0,0,0,0,0,0,0,0,0,0,0,0,0,0,0,0,0,0,0,0,0,0,0,0,0,0,0,0,0,0,0,0,1,0,0,0,0,0,0,0,0,0,0,0,0,0,0,0,0,0,0,0,0,0,0,0,0,"10021 S LUELLA AVE60617
(41.71307146016826, -87.56811112487028)",41.7130715,-87.5681111,1.0954451
60,OLYMPIA,6566 N AVONDALE AVE,60631.0,10.19,41,COMMUNITY PARK,Olympia,0,0,0,0,0,0,4,1,0,0,0,0,0,0,0,0,1,0,0,0,0,0,0,0,0,0,0,0,1,0,0,0,0,0,0,2,0,0,0,0,0,1,0,0,0,0,0,0,0,0,1,1,3,0,0,0,0,0,0,0,0,0,0,0,0,0,"6566 N AVONDALE AVE60631
(41.99967129216193, -87.81502964749822)",41.9996713,-87.8150296,3.1921779
46,BOHN (HENRY),1978 W 111TH ST,60643.0,1.5,19,PASSIVE PARK,Bohn,0,0,0,0,0,0,0,0,0,0,0,0,0,0,0,0,0,0,0,0,0,0,0,0,0,0,0,0,0,0,0,0,0,0,0,0,0,0,0,0,0,0,0,0,0,0,0,0,0,0,0,0,0,0,0,0,0,0,0,0,0,0,0,0,0,0,"1978 W 111TH ST60643
(41.69199440842253, -87.6715061937844)",41.6919944,-87.6715062,1.2247449
1074,WRIGHTWOOD,2534 N GREENVIEW AVE,60614.0,4.25,32,NEIGHBORHOOD PARK,Wrightwood,0,0,0,0,0,0,8,2,0,0,0,0,0,0,0,0,1,0,0,0,0,0,0,0,0,0,0,0,0,0,0,0,0,0,0,1,0,0,1,0,0,1,0,0,1,0,0,0,0,0,0,0,0,1,0,0,0,0,0,0,0,0,0,0,0,0,"2534 N GREENVIEW AVE60614
(41.92752127772134, -87.66586711031468)",41.9275213,-87.6658671,2.0615528
294,HASAN (ELLIOT),6855 S OGLESBY AVE,60649.0,0.28,5,MINI-PARK,Hasan,0,0,0,0,0,0,0,0,0,0,0,0,0,0,0,0,0,0,0,0,0,0,0,0,0,0,0,0,0,0,0,0,0,0,0,0,0,0,0,0,0,0,1,0,0,0,0,0,0,0,0,0,0,0,0,0,0,0,0,0,0,0,0,0,0,0,"6855 S OGLESBY AVE60649
(41.77072168368506, -87.56817424824344)",41.7707217,-87.5681742,0.5291503
123,RIIS (JACOB),6100 W FULLERTON AVE,60639.0,56.84,36,REGIONAL PARK,Riis,0,0,0,1,0,0,0,0,0,0,0,0,0,0,1,0,2,0,0,0,0,0,0,0,0,0,0,0,1,0,0,0,0,1,0,0,0,0,1,0,0,2,0,0,0,0,0,0,0,0,0,2,10,1,0,1,0,0,0,1,0,0,0,0,0,0,"6100 W FULLERTON AVE60639
(41.92386789074309, -87.7782028329214)",41.9238679,-87.7782028,7.5392307
1129,MONTGOMERY (MABEL),2632 W 66TH ST,60629.0,0.28,14,MINI-PARK,Montgomery,0,0,0,0,0,0,0,0,0,0,0,0,0,0,0,0,0,0,0,0,0,0,0,0,0,0,0,0,0,0,0,0,0,0,0,0,0,0,0,0,0,0,1,0,0,0,0,0,0,0,0,0,0,0,0,0,0,0,0,0,0,0,0,0,0,0,"2632 W 66TH ST60629
(41.773735438776214, -87.68964301969416)",41.7737354,-87.689643,0.5291503
402,VOGLE (HENRY JR.),2100 W LAWRENCE AVE,60625.0,0.22,47,MINI-PARK,Vogle,0,0,0,0,0,0,0,0,0,0,0,0,0,0,0,0,0,0,0,0,0,0,0,0,0,0,0,0,0,0,0,0,0,0,0,0,0,0,0,0,0,0,1,0,0,0,0,0,0,0,0,0,0,0,0,0,0,0,0,0,0,0,0,0,0,0,"2100 W LAWRENCE AVE60625
(41.96876318506586, -87.68163591667582)",41.9687632,-87.6816359,0.4690416
1270,JONQUIL,1023 W WRIGHTWOOD AVE,60614.0,2.85,43,NEIGHBORHOOD PARK,Jonquil,0,0,0,0,0,0,0,0,0,0,0,0,0,0,0,0,0,0,0,0,0,0,0,0,0,0,0,0,0,0,0,0,0,0,0,1,0,0,0,0,0,1,0,0,0,0,0,0,0,0,0,0,2,0,0,0,0,0,0,0,0,0,0,0,0,0,"1023 W WRIGHTWOOD AVE60614
(41.928930069079584, -87.65427493421693)",41.9289301,-87.6542749,1.6881943
250,ARCHER (WILLIAM BEATTY),4901 S KILBOURN AVE,60632.0,13.22,23,COMMUNITY PARK,Archer,0,0,0,1,0,0,2,1,0,0,0,0,0,0,0,0,1,0,0,0,0,1,0,0,0,0,0,0,1,0,0,0,4,0,0,4,0,0,0,0,0,1,0,0,0,0,0,0,0,0,1,2,1,0,0,1,0,0,0,0,0,0,0,0,0,0,"4901 S KILBOURN AVE60632
(41.80399883062354, -87.73562247741008)",41.8039988,-87.7356225,3.6359318
1005,BLOCK,346 W 104TH ST,60628.0,2.6,34,PASSIVE PARK,Block,0,0,0,0,0,0,0,0,0,0,0,0,0,0,0,0,0,0,0,0,0,0,0,0,0,0,0,0,0,0,0,0,0,0,0,0,0,0,0,0,0,0,0,0,0,0,0,0,0,0,0,0,0,0,0,0,0,0,0,0,0,0,0,0,0,0,"346 W 104TH ST60628
(41.70528829796961, -87.63157251035274)",41.7052883,-87.6315725,1.6124515
216,DVORAK (ANTON),1119 W CULLERTON ST,60608.0,5.63,25,COMMUNITY PARK,Dvorak,0,0,0,0,0,0,2,1,0,0,0,0,0,0,0,0,2,0,0,0,0,0,0,0,0,0,0,0,1,0,0,0,0,0,0,1,0,0,1,0,0,2,0,0,0,0,0,0,0,0,1,0,0,0,1,0,0,0,0,0,0,0,0,0,0,0,"1119 W CULLERTON ST60608
(41.855164484165776, -87.65389054340902)",41.8551645,-87.6538905,2.3727621
1116,KEYSTONE,1655 N KEYSTONE AVE,60639.0,0.18,31,MINI-PARK,Keystone,0,0,0,0,0,0,0,0,0,0,0,0,0,0,0,0,0,0,0,0,0,0,0,0,0,0,0,0,0,0,0,0,0,0,0,0,0,0,0,0,0,0,1,0,0,0,0,0,0,0,0,0,0,0,0,0,0,0,0,0,0,0,0,0,0,0,"1655 N KEYSTONE AVE60639
(41.91086737008094, -87.72750839406686)",41.9108674,-87.7275084,0.4242641
248,ROWAN (WILLIAM),11546 S AVENUE L,60617.0,17.62,10,REGIONAL PARK,Rowan,0,0,0,0,0,0,0,0,0,0,0,0,0,0,0,0,1,0,0,0,0,0,0,0,0,0,0,0,1,0,0,0,0,1,0,4,0,0,0,0,0,1,0,0,0,0,0,0,0,0,1,2,0,0,0,0,0,0,0,0,0,0,0,0,0,0,"11546 S AVENUE L60617
(41.685479923763985, -87.53653388213598)",41.6854799,-87.5365339,4.1976184
1253,FARGO (JAMES) BEACH,1300 W FARGO AVE,60626.0,0.62,49,PASSIVE PARK,Fargo Beach,0,0,0,0,0,0,0,0,1,0,0,0,0,0,0,0,0,0,0,0,0,0,0,0,0,0,0,0,0,0,0,0,0,0,0,0,0,0,0,0,0,0,0,0,0,0,0,0,0,0,0,0,0,0,0,0,0,0,0,0,0,0,0,0,0,0,"1300 W FARGO AVE60626
(42.017269810521945, -87.6634126109658)",42.0172698,-87.6634126,0.7874008
265,SCOTTSDALE,4620 W 83RD PL,60652.0,2.32,18,COMMUNITY PARK,Scottsdale,0,0,0,0,0,0,0,0,0,0,0,0,0,0,0,0,1,0,0,0,0,1,0,0,0,0,0,0,1,0,0,0,0,0,0,2,0,0,0,0,0,1,0,0,0,0,0,0,0,0,0,0,0,0,0,0,0,1,0,0,0,0,0,0,0,0,"4620 W 83RD PL60652
(41.74128808371455, -87.73658660340732)",41.7412881,-87.7365866,1.5231546
247,PASTEUR (LOUIS),5825 S KOSTNER AVE,60629.0,16.87,13,REGIONAL PARK,Pasteur,0,0,0,1,0,0,0,0,0,0,0,0,0,0,0,0,1,0,0,0,0,0,0,0,0,0,0,0,1,0,0,0,0,0,0,4,0,0,0,0,0,1,0,0,1,0,0,0,0,1,1,1,2,0,0,0,0,0,0,0,0,0,0,0,0,0,"5825 S KOSTNER AVE60629
(41.78713994386255, -87.73269479912462)",41.7871399,-87.7326948,4.1073106
85,KOLMAR,4143 N KOLMAR AVE,60641.0,0.87,45,NEIGHBORHOOD PARK,Kolmar,0,0,0,0,0,0,0,0,0,0,0,0,0,0,0,0,0,0,0,0,0,0,0,0,0,0,0,0,0,0,0,0,0,0,0,1,0,0,0,0,0,1,0,0,0,0,0,0,0,0,0,0,0,0,0,0,0,0,0,0,0,0,0,0,0,0,"4143 N KOLMAR AVE60641
(41.95603266149912, -87.74174200730903)",41.9560327,-87.741742,0.9327379
233,VITTUM (HARRIET ELIZABETH),5014 W 50TH ST,60638.0,12.15,23,COMMUNITY PARK,Vittum,0,0,0,0,0,0,2,1,0,0,0,0,0,0,0,0,1,0,0,0,0,0,0,0,0,0,0,0,1,0,0,0,4,0,0,4,0,0,0,0,0,1,0,0,0,0,0,0,0,0,1,1,2,0,1,0,0,0,0,0,0,0,0,0,0,0,"5014 W 50TH ST60638
(41.80213530707324, -87.7485258650223)",41.8021353,-87.7485259,3.485685
337,MOCCASIN RANCH,6446 S KIMBARK AVE,60637.0,0.17,20,MINI-PARK,Moccasin Ranch,0,0,0,0,0,0,0,0,0,0,0,0,0,0,0,0,0,0,0,0,0,0,0,0,0,0,0,0,0,0,0,0,0,0,0,0,0,0,0,0,0,0,1,0,0,0,0,0,0,0,0,0,0,0,0,0,0,0,0,0,0,0,0,0,0,0,"6446 S KIMBARK AVE60637
(41.77719801234451, -87.59458365498085)",41.777198,-87.5945837,0.4123106
1037,DURSO (JOHN),421 W LOCUST ST,60610.0,1.29,42,NEIGHBORHOOD PARK,Durso,0,0,0,0,0,0,4,2,0,0,0,0,0,0,0,0,0,0,0,0,0,0,0,0,0,0,0,0,0,0,0,0,0,0,0,0,0,0,0,0,0,1,0,0,0,0,0,0,0,0,0,0,0,0,0,0,0,0,0,0,0,0,0,0,0,0,"421 W LOCUST ST60610
(41.89885112746819, -87.63962547412498)",41.8988511,-87.6396255,1.1357817
6,RUSSELL (MARTIN) SQUARE,3045 E 83RD ST,60617.0,11.47,7,COMMUNITY PARK,Russell Square,0,0,0,0,0,0,4,1,0,0,0,0,0,0,0,0,1,0,0,0,0,1,0,0,0,0,0,0,1,0,0,0,0,0,0,3,0,0,1,0,0,1,0,0,0,0,0,0,0,0,0,0,3,0,2,0,0,0,0,0,0,0,0,0,0,0,"3045 E 83RD ST60617
(41.74462719880706, -87.54986486051457)",41.7446272,-87.5498649,3.3867388
484,PARK NO. 484,4701 W MARQUETTE RD,60638.0,10.0,13,COMMUNITY PARK,Park No. 484,0,0,0,0,0,0,0,0,0,0,0,0,0,0,0,0,0,0,0,0,0,0,0,0,0,0,0,0,0,0,0,0,0,0,0,0,0,0,0,0,0,1,0,0,0,0,0,0,0,0,0,0,0,0,0,0,0,0,0,0,0,0,0,0,0,0,"4701 W MARQUETTE RD60638
(41.78109999999998, -87.77073999999999)",41.7811,-87.77074,3.1622777
121,"BELL (GEORGE,JR.)",3020 N OAK PARK AVE,60634.0,3.69,36,NEIGHBORHOOD PARK,Bell,0,0,0,0,0,0,0,1,0,0,0,0,0,0,0,0,1,0,0,0,0,0,0,0,0,0,0,0,0,0,0,0,0,0,0,2,0,0,0,0,0,1,0,0,0,0,0,0,0,0,1,0,2,0,1,0,0,0,0,0,0,0,0,0,0,0,"3020 N OAK PARK AVE60634
(41.93491518524245, -87.79566871618825)",41.9349152,-87.7956687,1.9209373
309,"SENKA (EDWARD ""DUKE"")",5656 S ST LOUIS AVE,60629.0,18.83,13,REGIONAL PARK,Senka,0,0,0,0,0,0,6,2,0,0,0,0,0,0,0,0,1,0,0,0,0,0,0,0,0,0,0,0,1,0,0,0,0,0,0,2,0,0,0,0,0,1,0,0,0,0,0,0,0,1,1,0,0,0,2,0,0,0,0,0,0,0,0,0,0,0,"5656 S ST LOUIS AVE60629
(41.790546871005034, -87.71088702891994)",41.7905469,-87.710887,4.3393548
1057,PASCHEN (CHRISTIAN),1932 W LUNT AVE,60626.0,0.79,50,NEIGHBORHOOD PARK,Paschen,0,0,0,0,0,0,2,2,0,0,0,0,0,0,0,0,0,0,0,0,0,0,0,0,0,0,0,0,0,0,0,0,0,0,0,0,0,0,0,0,0,1,0,0,0,0,0,0,0,0,0,0,0,0,1,0,0,0,0,0,0,0,0,0,0,0,"1932 W LUNT AVE60626
(42.008947572165, -87.67892210312809)",42.0089476,-87.6789221,0.8888194
533,NORTH PARK NATURE CENTER,5801 N PULASKI RD,60646.0,51.73,39,NATURE PRESERVE PARK,North Park Nature Center,0,0,0,0,0,0,0,0,0,0,0,0,0,0,0,0,0,0,0,0,0,0,0,0,0,0,0,0,0,0,0,0,0,0,0,0,0,1,0,0,0,0,0,0,0,0,0,0,0,0,0,0,0,0,0,0,0,0,0,0,0,0,0,0,0,0,"5801 N PULASKI RD60646
(41.98585720184405, -87.72842767593355)",41.9858572,-87.7284277,7.1923571
414,PARK NO. 414,4302 W DIVISION ST,60651.0,0.28,37,UNIMPROVED PARK,Park No. 414,0,0,0,0,0,0,0,0,0,0,0,0,0,0,0,0,0,0,0,0,0,0,0,0,0,0,0,0,0,0,0,0,0,0,0,0,0,0,0,0,0,0,0,0,0,0,0,0,0,0,0,0,0,0,0,0,0,0,0,0,0,0,0,0,0,0,"4302 W DIVISION ST60651
(41.90263542509576, -87.73379295939455)",41.9026354,-87.733793,0.5291503
435,BROMANN (CHARLES),5400 N BROADWAY,60640.0,0.14,48,MINI-PARK,Bromann,0,0,0,0,0,0,0,0,0,0,0,0,0,0,0,0,0,0,0,0,0,0,0,0,0,0,0,0,0,0,0,0,0,0,0,0,0,0,0,0,0,0,1,0,0,0,0,0,0,0,0,0,0,0,0,0,0,0,0,0,0,0,0,0,0,0,"5400 N BROADWAY60640
(41.980013471550706, -87.66004844576902)",41.9800135,-87.6600484,0.3741657
480,COTTON TAIL,44 W 15TH ST,60616.0,2.19,1,NEIGHBORHOOD PARK,Cotton Tail,0,0,0,0,0,0,0,0,0,0,0,0,0,0,0,0,0,0,0,0,0,0,0,0,0,0,0,0,0,0,0,0,0,0,0,0,0,0,0,0,0,1,0,0,0,0,0,0,0,0,0,0,0,0,0,0,0,0,0,0,0,0,0,0,0,0,"44 W 15TH ST60616
(41.845090000000084, -87.62737999999996)",41.84509,-87.62738,1.4798649
524,HARRIS (HARRIET),6200 S DREXEL AVE,60637.0,2.03,20,COMMUNITY PARK,Harris (Harriet),0,0,0,0,0,0,0,0,0,0,0,0,0,0,0,0,0,0,0,0,0,1,0,0,0,0,0,0,1,0,0,0,0,0,1,0,0,0,0,0,0,1,0,0,0,0,0,0,0,0,0,0,0,0,0,0,0,0,0,0,0,0,0,0,0,0,"6200 S DREXEL AVE60637
(41.78220555570679, -87.60443199086755)",41.7822056,-87.604432,1.4247807
1168,PARK WEST,745 W WRIGHTWOOD AVE,60614.0,0.19,43,MINI-PARK,Park West,0,0,0,0,0,0,0,0,0,0,0,0,0,0,0,0,0,0,0,0,0,0,0,0,0,0,0,0,0,0,0,0,0,0,0,0,0,0,0,0,0,0,1,0,0,0,0,0,0,0,0,0,0,0,0,0,0,0,0,0,0,0,0,0,0,0,"745 W WRIGHTWOOD AVE60614
(41.92901668362393, -87.64793064766941)",41.9290167,-87.6479306,0.4358899
415,JUNCTION GROVE,345 W 64TH ST,60621.0,0.22,16,MINI-PARK,Junction Grove,0,0,0,0,0,0,0,0,0,0,0,0,0,0,0,0,0,0,0,0,0,0,0,0,0,0,0,0,0,0,0,0,0,0,0,0,0,0,0,0,0,0,1,0,0,0,0,0,0,0,0,0,0,0,0,0,0,0,0,0,0,0,0,0,0,0,"345 W 64TH ST60621
(41.77804436889018, -87.63379874809212)",41.7780444,-87.6337987,0.4690416
1203,AUBURN,406 W WINNECONNA PKWY,60620.0,8.48,17,PASSIVE PARK,Auburn,0,0,0,0,0,0,0,0,0,0,0,0,0,0,0,0,0,0,0,0,0,0,0,0,0,0,0,0,0,0,0,0,0,0,0,0,0,0,0,0,0,0,0,0,0,0,0,0,0,0,0,0,0,0,0,0,0,0,0,1,0,0,0,0,0,0,"406 W WINNECONNA PKWY60620
(41.75393597369671, -87.6346790715976)",41.753936,-87.6346791,2.912044
390,D'ELIA (AILEEN),6340 N LAKEWOOD AVE,60660.0,0.07,49,MINI-PARK,D'Elia,0,0,0,0,0,0,0,0,0,0,0,0,0,0,0,0,0,0,0,0,0,0,0,0,0,0,0,0,0,0,0,0,0,0,0,0,0,0,0,0,0,0,1,0,0,0,0,0,0,0,0,0,0,0,0,0,0,0,0,0,0,0,0,0,0,0,"6340 N LAKEWOOD AVE60660
(41.99709734541248, -87.66303405478895)",41.9970973,-87.6630341,0.2645751
489,PARK NO. 489,2420 W ADAMS ST,60612.0,0.7,27,NEIGHBORHOOD PARK,Park No. 489,0,0,0,0,0,0,0,0,0,0,0,0,0,0,0,0,0,0,0,0,0,0,0,0,0,0,0,0,0,0,0,0,0,0,0,0,0,0,0,0,0,0,1,0,0,0,0,0,0,0,1,0,0,0,0,0,0,0,0,0,0,0,0,0,0,0,"2420 W ADAMS ST60612
(41.878633577418924, -87.68690749243441)",41.8786336,-87.6869075,0.83666
285,AUSTIN FOSTER,6020 W FOSTER AVE,60630.0,4.41,45,NEIGHBORHOOD PARK,Austin Foster,0,0,0,0,0,0,0,0,0,0,0,0,0,0,0,0,0,0,0,0,0,0,0,0,0,0,0,0,0,0,0,0,0,0,0,2,0,0,0,0,0,1,0,0,0,0,0,0,0,0,0,0,0,0,0,0,0,0,0,0,0,0,0,0,0,0,"6020 W FOSTER AVE60630
(41.97572569517331, -87.77889328426028)",41.9757257,-87.7788933,2.1
1063,BACK OF THE YARDS,4920 S THROOP ST,60609.0,0.99,11,NEIGHBORHOOD PARK,Back of the Yards,0,0,0,0,0,0,2,1,0,0,0,0,0,0,0,0,0,0,0,0,0,0,0,0,0,0,0,0,0,0,0,0,1,0,0,0,0,0,0,0,0,1,0,0,0,0,0,0,0,0,1,0,0,0,0,0,0,0,0,0,0,0,0,0,0,0,"4920 S THROOP ST60609
(41.80438996449631, -87.65763940588994)",41.80439,-87.6576394,0.9949874
168,MATANKY (EUGENE),6937 N RIDGE BLVD,60626.0,0.41,49,MINI-PARK,Matanky,0,0,0,0,0,0,0,0,0,0,0,0,0,0,0,0,0,0,0,0,0,0,0,0,1,0,0,0,0,0,0,0,0,0,0,0,0,0,0,0,0,1,0,0,0,0,0,0,0,0,0,0,0,0,0,0,0,0,0,0,0,0,0,0,0,0,"6937 N RIDGE BLVD60626
(42.00988000000007, -87.66939999999994)",42.00988,-87.6694,0.6403124
103,CHASE (SALMON),4725 N ASHLAND AV,60640.0,4.57,47,COMMUNITY PARK,Chase,0,0,0,0,0,0,0,0,0,0,0,0,0,0,0,0,1,1,0,0,0,1,0,0,0,0,0,0,1,0,0,0,0,0,0,2,0,0,1,0,0,1,0,0,0,0,0,0,0,0,0,0,4,1,0,0,0,0,0,0,0,0,0,0,0,0,"4725 N ASHLAND AV60640
(41.96794833279387, -87.66934673951792)",41.9679483,-87.6693467,2.1377558
1026,CLARK (JOHN),4615 W JACKSON BLVD,60644.0,1.95,28,NEIGHBORHOOD PARK,Clark (John),0,0,0,0,0,0,2,1,0,0,0,0,0,0,0,0,1,0,0,0,0,0,0,0,0,0,0,0,0,0,0,0,0,0,0,1,0,0,1,0,0,1,0,0,0,0,0,0,0,0,0,0,0,0,0,0,0,0,0,0,0,0,0,0,0,0,"4615 W JACKSON BLVD60644
(41.87684232162447, -87.74119357376132)",41.8768423,-87.7411936,1.396424
110,WELLES (GIDEON),2333 W SUNNYSIDE AVE,60625.0,15.1,47,REGIONAL PARK,Welles,0,0,0,0,0,0,0,0,0,0,0,0,0,0,0,0,1,0,0,0,0,1,0,0,0,0,0,0,1,0,0,0,10,0,1,6,0,0,0,0,0,1,0,0,1,0,0,0,0,0,0,0,3,0,0,0,0,0,0,0,0,0,0,0,0,0,"2333 W SUNNYSIDE AVE60625
(41.963097217331324, -87.6873544283728)",41.9630972,-87.6873544,3.8858718
27,BURNHAM (DANIEL),425 E MCFETRIDGE DR,60616.0,609.29,5,MAGNET PARK,Burnham,0,0,0,0,0,0,14,5,2,1,0,1,0,0,0,0,0,0,0,0,0,0,0,0,0,0,0,0,0,0,0,0,0,0,0,1,0,0,0,0,0,5,0,0,0,0,0,1,0,0,0,1,0,0,0,0,0,0,0,0,0,0,0,0,0,0,"425 E MCFETRIDGE DR60616
(41.845090000000084, -87.62737999999996)",41.84509,-87.62738,24.6838004
1159,THROOP (AMOS GAGER),1811 S THROOP ST,60608.0,0.64,25,NEIGHBORHOOD PARK,Throop,0,0,0,0,0,0,2,1,0,0,0,0,0,0,0,0,0,0,0,0,0,0,0,0,0,0,0,0,0,0,0,0,0,0,0,0,0,0,0,0,0,1,0,0,0,0,0,0,0,0,1,0,0,0,0,0,0,0,0,0,0,0,0,0,0,0,"1811 S THROOP ST60608
(41.85758078907663, -87.65876903062718)",41.8575808,-87.658769,0.8
421,PARK NO. 421,5300 S HALSTED ST,60609.0,1.01,3,UNIMPROVED PARK,Park No. 421,0,0,0,0,0,0,0,0,0,0,0,0,0,0,0,0,0,0,0,0,0,0,0,0,0,0,0,0,0,0,0,0,0,0,0,0,0,0,0,0,0,0,0,0,0,0,0,0,0,0,0,0,0,0,0,0,0,0,0,0,0,0,0,0,0,0,"5300 S HALSTED ST60609
(41.79780887034275, -87.64532444843951)",41.7978089,-87.6453244,1.0049876
425,NOETHLING (GRACE),2645 N SHEFFIELD AVE,60614.0,0.44,43,MINI-PARK,Noethling,0,0,0,0,0,0,0,0,0,0,0,0,0,0,0,0,0,0,0,0,1,0,0,0,0,0,0,0,0,0,0,0,0,0,0,0,0,0,0,0,0,0,0,0,0,0,0,0,0,0,0,0,0,0,0,0,0,0,0,0,0,0,0,0,0,0,"2645 N SHEFFIELD AVE60614
(41.92980828953706, -87.65365278713423)",41.9298083,-87.6536528,0.663325
70,FOREST GLEN,5073 W BERWYN AVE,60630.0,0.31,45,MINI-PARK,Forest Glen,0,0,0,0,0,0,0,0,0,0,0,0,0,0,0,0,0,0,0,0,0,0,0,0,0,0,0,0,0,0,0,0,0,0,0,0,0,0,0,0,0,0,1,0,0,0,0,0,0,0,0,0,0,0,0,0,0,0,0,0,0,0,0,0,0,0,"5073 W BERWYN AVE60630
(41.97777297931205, -87.75431848019156)",41.977773,-87.7543185,0.5567764
509,RENAISSANCE,1300 W 79TH ST,60620.0,1.04,0,PASSIVE PARK,Renaissance,0,0,0,0,0,0,0,0,0,0,0,0,0,0,0,0,0,0,0,0,0,0,0,0,0,0,0,0,0,0,0,0,0,0,0,0,0,0,0,0,0,0,0,0,0,0,0,0,0,0,0,0,0,0,0,0,0,0,0,0,0,0,0,0,0,0,"1300 W 79TH ST60620
(41.750524984414255, -87.65538357982251)",41.750525,-87.6553836,1.0198039
1107,ZATTERBERG (HELEN),4246 N HERMITAGE AVE,60613.0,0.19,47,MINI-PARK,Zatterberg,0,0,0,0,0,0,0,0,0,0,0,0,0,0,0,0,0,0,0,0,0,0,0,0,0,0,0,0,0,0,0,0,0,0,0,0,0,0,0,0,0,0,1,0,0,0,0,0,0,0,0,0,0,0,0,0,0,0,0,0,0,0,0,0,0,0,"4246 N HERMITAGE AVE60613
(41.958757660955214, -87.67237944927243)",41.9587577,-87.6723794,0.4358899
213,HARRISON (CARTER),1824 S WOOD ST,60608.0,17.39,25,REGIONAL PARK,Harrison,0,0,0,0,0,0,4,2,0,0,0,0,0,0,0,0,1,0,0,0,0,1,0,0,0,0,0,0,2,1,0,0,3,0,1,4,0,0,0,0,0,1,0,0,0,0,0,0,0,0,0,2,4,0,0,0,0,1,0,0,0,0,0,0,0,0,"1824 S WOOD ST60608
(41.85700763775876, -87.67112150533424)",41.8570076,-87.6711215,4.1701319
195,SAUGANASH,5861 N KOSTNER AVE,60646.0,4.65,39,COMMUNITY PARK,Sauganash,0,0,0,0,0,0,2,1,0,0,0,0,0,0,0,0,1,0,0,0,0,0,0,0,0,0,0,0,1,0,0,0,0,0,0,2,0,0,0,0,0,1,0,0,0,0,0,0,0,0,0,0,4,0,0,0,0,0,0,0,0,0,0,0,0,0,"5861 N KOSTNER AVE60646
(41.98744324895065, -87.7382253623636)",41.9874432,-87.7382254,2.1563859
1148,SCHAEFER (EDWARD),2415 N MARSHFIELD AVE,60614.0,0.23,32,MINI-PARK,Schaefer,0,0,0,0,0,0,0,0,0,0,0,0,0,0,0,0,0,0,0,0,0,0,0,0,0,0,0,0,0,0,0,0,0,0,0,0,0,0,0,0,0,0,1,0,0,0,0,0,0,0,0,0,0,0,0,0,0,0,0,0,0,0,0,0,0,0,"2415 N MARSHFIELD AVE60614
(41.92590990310953, -87.669389261378)",41.9259099,-87.6693893,0.4795832
23,MCKINLEY (WILLIAM),2210 W PERSHING RD,60609.0,69.28,12,REGIONAL PARK,McKinley,0,0,0,1,0,0,6,2,0,0,0,0,0,0,1,0,1,0,0,0,0,0,0,0,0,0,0,0,1,1,0,0,0,1,0,3,0,0,1,0,0,1,0,0,0,0,0,0,0,0,0,2,10,0,0,1,0,0,0,1,0,0,0,0,0,0,"2210 W PERSHING RD60609
(41.82310473796484, -87.68047137539776)",41.8231047,-87.6804714,8.3234608
293,UNITY,2636 N KIMBALL AVE,60647.0,1.36,35,NEIGHBORHOOD PARK,Unity,0,0,0,0,0,0,0,0,0,0,0,0,0,0,0,0,0,0,0,0,0,0,0,0,0,0,0,0,0,0,0,0,0,0,0,0,0,0,0,0,0,1,0,0,0,0,0,0,0,0,1,0,0,0,0,0,0,0,0,0,0,0,0,0,0,0,"2636 N KIMBALL AVE60647
(41.929394088702225, -87.7123016855532)",41.9293941,-87.7123017,1.1661904
407,ORR (REZIN),744 N PULASKI RD,60624.0,6.81,37,COMMUNITY PARK,Orr,0,0,0,1,0,0,0,0,0,0,0,0,0,0,0,0,0,0,0,0,0,0,0,0,0,0,0,0,1,0,0,0,0,0,0,0,0,0,0,0,0,0,0,0,0,0,0,0,0,0,0,0,0,1,0,0,0,0,0,0,0,0,0,0,0,0,"744 N PULASKI RD60624
(41.89430397480294, -87.72611401830324)",41.894304,-87.726114,2.6095977
159,RAVENSWOOD MANOR,4626 N MANOR AVE,60625.0,0.54,40,NEIGHBORHOOD PARK,Ravenswood Manor,0,0,0,0,0,0,0,0,0,0,0,0,0,0,0,0,0,0,0,0,0,0,0,0,0,0,0,0,0,0,0,0,0,0,0,0,0,0,0,0,0,1,0,0,0,0,0,0,0,0,0,0,0,0,0,0,0,0,0,0,0,0,0,0,0,0,"4626 N MANOR AVE60625
(41.96524311257207, -87.70015387901664)",41.9652431,-87.7001539,0.7348469
243,LINDBLOM (ROBERT),6054 S DAMEN AVE,60636.0,17.76,15,REGIONAL PARK,Lindblom,0,0,0,0,0,0,4,2,0,0,0,0,0,0,0,0,1,0,0,0,0,1,0,0,0,0,0,0,1,0,0,0,0,0,0,4,0,0,1,0,0,1,0,0,0,0,0,0,0,0,0,2,2,0,0,0,0,0,0,0,0,0,0,0,0,0,"6054 S DAMEN AVE60636
(41.78381354353519, -87.67409332386784)",41.7838135,-87.6740933,4.2142615
406,CLEMENTE (ROBERTO),2334 W DIVISION ST,60622.0,6.02,26,COMMUNITY PARK,Clemente,0,0,0,0,0,0,2,1,0,0,0,0,0,0,0,0,1,0,0,0,0,0,0,0,0,0,0,0,1,0,0,0,0,0,1,1,0,0,0,0,0,1,0,0,0,0,0,0,0,0,0,1,2,0,0,0,0,0,0,0,0,0,0,0,0,0,"2334 W DIVISION ST60622
(41.903093522060594, -87.68544083056503)",41.9030935,-87.6854408,2.4535688
1147,SACRAMENTO,3520 N SACRAMENTO AVE,60618.0,0.8,33,NEIGHBORHOOD PARK,Sacramento,0,0,0,0,0,0,2,1,0,0,0,0,0,0,0,0,0,0,0,0,0,0,0,0,0,0,0,0,0,0,0,0,0,0,0,1,0,0,0,0,0,1,0,0,0,0,0,0,0,0,0,0,0,0,0,0,0,0,0,0,0,0,0,0,0,0,"3520 N SACRAMENTO AVE60618
(41.94519566416695, -87.7029456993755)",41.9451957,-87.7029457,0.8944272
1118,LANGLEY,700 E 113TH ST,60628.0,0.99,9,NEIGHBORHOOD PARK,Langley,0,0,0,0,0,0,2,1,0,0,0,0,0,0,0,0,0,0,0,0,0,0,0,0,0,0,0,0,0,0,0,0,0,0,0,0,0,0,0,0,0,1,0,0,0,0,0,0,0,0,0,0,0,0,0,0,0,0,0,0,0,0,0,0,0,0,"700 E 113TH ST60628
(41.68923650444839, -87.60591794578804)",41.6892365,-87.6059179,0.9949874
1003,BEILFUSS (A.W.),1725 N SPRINGFIELD AVE,60647.0,0.78,31,NEIGHBORHOOD PARK,Beilfuss,0,0,0,0,0,0,0,0,0,0,0,0,0,0,0,0,0,0,0,0,0,0,0,0,0,0,0,0,0,0,0,0,0,0,0,1,0,0,0,0,0,1,0,0,0,0,0,0,0,0,0,0,0,0,0,0,0,0,0,0,0,0,0,0,0,0,"1725 N SPRINGFIELD AVE60647
(41.912213906210134, -87.7238787763433)",41.9122139,-87.7238788,0.8831761
1154,TILL-MOBLEY (MAMIE),6410 S ELLIS AVE,60637.0,0.43,20,MINI-PARK,Till-Mobley,0,0,0,0,0,0,4,2,0,0,0,0,0,0,0,0,0,0,0,0,0,0,0,0,0,0,0,0,0,0,0,0,0,0,0,0,0,0,0,0,0,1,0,0,0,0,0,0,0,0,0,0,0,0,0,0,0,0,0,0,0,0,0,0,0,0,"6410 S ELLIS AVE60637
(41.77845464035744, -87.60048195553527)",41.7784546,-87.600482,0.6557439
49,PROSPECT GARDENS,10970 S PROSPECT AVE,60643.0,2.88,19,PASSIVE PARK,Prospect Gardens,0,0,0,0,0,0,0,0,0,0,0,0,0,0,0,0,0,0,0,0,0,0,0,0,1,0,0,0,0,0,0,0,0,0,0,0,0,0,0,0,0,0,0,0,0,0,0,0,0,0,0,0,0,0,0,0,0,0,0,0,0,0,0,0,0,0,"10970 S PROSPECT AVE60643
(41.69419058904009, -87.66893960036333)",41.6941906,-87.6689396,1.6970563
540,PARK NO. 540,2401 S FEDERAL ST,60616.0,4.78,3,UNIMPROVED PARK,Park No. 540,0,0,0,0,0,0,0,0,0,0,0,0,0,0,0,0,0,0,0,0,0,0,0,0,0,0,0,0,0,0,0,0,0,0,0,0,0,0,0,0,0,0,0,0,0,0,0,0,0,0,0,0,0,0,0,0,0,0,0,0,0,0,0,0,0,0,"2401 S FEDERAL ST60616
(41.845090000000084, -87.62737999999996)",41.84509,-87.62738,2.1863211
362,BROOKS (GWENDOLYN),4542 S GREENWOOD AVE,60653.0,2.35,4,NEIGHBORHOOD PARK,Brooks (Gwendolyn),0,0,0,0,0,0,0,0,0,0,0,0,0,0,0,0,0,0,0,0,0,0,0,0,0,0,0,0,0,0,0,0,0,0,0,0,0,0,0,0,0,1,0,0,0,0,0,0,0,0,1,0,0,0,0,0,0,0,0,0,0,0,0,0,0,0,"4542 S GREENWOOD AVE60653
(41.81247736072954, -87.5993681671407)",41.8124774,-87.5993682,1.532971
462,BROADWAY ARMORY,5917 N BROADWAY,60660.0,1.75,48,COMMUNITY PARK,Broadway Armory,0,0,0,0,0,0,0,0,0,0,0,0,0,0,0,0,0,0,0,0,0,1,0,0,0,0,0,0,1,1,0,0,0,0,0,0,0,0,0,0,0,0,0,0,0,0,0,0,0,0,0,0,0,0,0,0,0,0,0,0,0,0,0,0,0,0,"5917 N BROADWAY60660
(41.98954807628543, -87.66018859961147)",41.9895481,-87.6601886,1.3228757
1097,ELSTON (DANIEL),3461 N TROY ST,60618.0,0.42,33,MINI-PARK,Elston,0,0,0,0,0,0,0,0,0,0,0,0,0,0,0,0,0,0,0,0,0,0,0,0,0,0,0,0,0,0,0,0,0,0,0,0,0,0,0,0,0,0,1,0,0,0,0,0,0,0,0,0,0,0,0,0,0,0,0,0,0,0,0,0,0,0,"3461 N TROY ST60618
(41.94404379564039, -87.70644680466722)",41.9440438,-87.7064468,0.6480741
1141,BRYNFORD,5640 N PULASKI RD,60646.0,0.14,39,MINI-PARK,Brynford,0,0,0,0,0,0,0,0,0,0,0,0,0,0,0,0,0,0,0,0,0,0,0,0,0,0,0,0,0,0,0,0,0,0,0,0,0,0,0,0,0,0,1,0,0,0,0,0,0,0,0,0,0,0,0,0,0,0,0,0,0,0,0,0,0,0,"5640 N PULASKI RD60646
(41.983642632157384, -87.72853825121577)",41.9836426,-87.7285383,0.3741657
432,PARK NO. 432,3349 W RICE ST,60651.0,0.07,27,UNIMPROVED PARK,Park No. 432,0,0,0,0,0,0,0,0,0,0,0,0,0,0,0,0,0,0,0,0,0,0,0,0,0,0,0,0,0,0,0,0,0,0,0,0,0,0,0,0,0,0,0,0,0,0,0,0,0,0,0,0,0,0,0,0,0,0,0,0,0,0,0,0,0,0,"3349 W RICE ST60651
(41.89636631098824, -87.71097410655602)",41.8963663,-87.7109741,0.2645751
479,JONES (MARY RICHARDSON),1240 S PLYMOUTH CT,60616.0,1.13,1,NEIGHBORHOOD PARK,Jones,0,0,0,0,0,0,0,0,0,0,0,0,0,0,0,0,0,0,0,0,0,0,0,0,0,0,0,0,0,0,0,0,0,0,0,0,0,0,0,0,0,1,0,0,0,0,0,0,0,0,0,0,0,0,0,0,0,0,0,0,0,0,0,0,0,0,"1240 S PLYMOUTH CT60616
(41.845090000000084, -87.62737999999996)",41.84509,-87.62738,1.0630146
348,GOOSEBERRY,4648 N MALDEN ST,60640.0,0.18,46,MINI-PARK,Gooseberry,0,0,0,0,0,0,0,0,0,0,0,0,0,0,0,0,0,0,0,0,0,0,0,0,0,0,0,0,0,0,0,0,0,0,0,0,0,0,0,0,0,0,1,0,0,0,0,0,0,0,0,0,0,0,0,0,0,0,0,0,0,0,0,0,0,0,"4648 N MALDEN ST60640
(41.966212457545296, -87.66250843047354)",41.9662125,-87.6625084,0.4242641
352,REYES (GUADALUPE),827 W 19TH ST,60608.0,0.4,25,MINI-PARK,Reyes,0,0,0,0,0,0,4,1,0,0,0,0,0,0,0,0,0,0,0,0,0,0,0,0,0,0,0,0,0,0,0,0,0,0,0,0,0,0,0,0,0,0,0,0,0,0,0,0,0,0,0,0,0,0,0,0,0,0,0,0,0,0,0,0,0,0,"827 W 19TH ST60608
(41.85665865613047, -87.64731882523525)",41.8566587,-87.6473188,0.6324555
8,OGDEN (WILLIAM),6500 S RACINE AVE,60636.0,60.54,17,REGIONAL PARK,Ogden,0,0,0,0,0,0,8,4,0,0,0,0,0,0,0,0,4,0,0,0,0,1,0,0,0,0,0,0,1,0,0,0,0,0,0,7,0,0,1,0,0,3,0,0,0,0,0,0,0,0,0,2,4,1,0,1,0,1,0,0,1,0,0,0,0,0,"6500 S RACINE AVE60636
(41.77591669981747, -87.65446998072692)",41.7759167,-87.65447,7.7807455
1084,BUENA CIRCLE,1049  W BUENA,60613.0,0.63,0,NEIGHBORHOOD PARK,Buena Circle,0,0,0,0,0,0,0,0,0,0,0,0,0,0,0,0,0,0,0,0,0,0,0,0,0,0,0,0,0,0,0,0,0,0,0,0,0,0,0,0,0,0,1,0,0,0,0,0,0,0,0,0,0,0,0,0,0,0,0,0,0,0,0,0,0,0,"1049 W BUENA60613
(41.95814460814024, -87.65634984035684)",41.9581446,-87.6563498,0.7937254
270,COLE (NAT KING),361 E 85TH ST,60619.0,4.68,6,NEIGHBORHOOD PARK,Cole,0,0,0,0,0,0,4,2,0,0,0,0,0,0,0,0,1,0,0,0,0,0,0,0,0,0,0,0,0,0,0,0,1,0,0,2,0,0,0,0,0,1,0,0,0,0,0,0,0,0,1,0,0,0,0,0,0,0,0,0,0,0,0,0,0,0,"361 E 85TH ST60619
(41.740074313971284, -87.61566011897241)",41.7400743,-87.6156601,2.1633308
1258,JUNEWAY TERR. BEACH,7751 N EASTLAKE TER,60626.0,0.93,49,NEIGHBORHOOD PARK,Juneway Terr. Beach,0,0,0,0,0,0,0,0,0,0,0,0,0,0,0,0,0,0,0,0,0,0,0,0,0,0,0,0,0,0,0,0,0,0,0,0,0,0,0,0,0,0,0,0,0,0,0,0,0,0,0,0,0,0,0,0,0,0,0,0,0,0,0,0,0,0,"7751 N EASTLAKE TER60626
(42.02181250960071, -87.66536363599903)",42.0218125,-87.6653636,0.9643651
204,GARFIELD (JAMES),100 N CENTRAL PARK DR,60624.0,184.72,28,CITYWIDE PARK,Garfield,0,0,0,1,0,0,6,3,0,0,0,0,0,0,1,0,3,0,1,0,0,1,0,0,1,0,0,0,1,0,0,0,0,0,0,9,0,0,1,0,0,3,0,0,0,0,0,0,0,0,2,2,6,0,0,0,0,0,0,1,0,0,0,0,0,0,"100 N CENTRAL PARK DR60624
(41.881547841953854, -87.71591721655672)",41.8815478,-87.7159172,13.5911736
371,VALLEY FORGE,7001 W 59TH ST,60638.0,7.74,23,COMMUNITY PARK,Valley Forge,0,0,0,0,0,0,4,1,0,0,0,0,0,0,0,0,1,0,0,0,0,1,0,0,0,0,0,0,1,0,0,0,2,0,0,2,0,0,0,0,0,1,0,0,0,0,0,0,0,0,0,0,2,0,2,0,0,0,0,0,0,0,0,0,0,0,"7001 W 59TH ST60638
(41.78474219649366, -87.79617301343369)",41.7847422,-87.796173,2.7820855
157,BUFFALO,4500 N CALIFORNIA AVE,60625.0,0.07,40,PASSIVE PARK,Buffalo,0,0,0,0,0,0,0,0,0,0,0,0,0,0,0,0,0,0,0,0,0,0,0,0,0,0,0,0,0,0,0,0,0,0,0,0,0,0,0,0,0,0,0,0,0,0,0,0,0,0,0,0,0,0,0,0,0,0,0,0,0,0,0,0,0,0,"4500 N CALIFORNIA AVE60625
(41.963195794444346, -87.69850930868671)",41.9631958,-87.6985093,0.2645751
1161,ALGONQUIN,2941 N WASHTENAW AVE,60618.0,0.14,33,MINI-PARK,Algonquin,0,0,0,0,0,0,0,0,0,0,0,0,0,0,0,0,0,0,0,0,0,0,0,0,0,0,0,0,0,0,0,0,0,0,0,0,0,0,0,0,0,0,1,0,0,0,0,0,0,0,0,0,0,0,0,0,0,0,0,0,0,0,0,0,0,0,"2941 N WASHTENAW AVE60618
(41.93467008559948, -87.69517170103428)",41.9346701,-87.6951717,0.3741657
82,JENSEN (CHRIST),4600 N LAWNDALE AVE,60625.0,2.55,39,NEIGHBORHOOD PARK,Jensen,0,0,0,0,0,0,2,1,0,0,0,0,0,0,0,0,1,0,0,0,0,0,0,0,0,0,0,0,1,0,0,0,0,0,0,1,0,0,0,0,0,1,0,0,0,0,0,0,0,0,1,0,0,0,0,0,0,0,0,0,0,0,0,0,0,0,"4600 N LAWNDALE AVE60625
(41.96472417266571, -87.7206627324626)",41.9647242,-87.7206627,1.5968719
208,ECKHART (BERNARD),1330 W CHICAGO AVE,60622.0,8.12,32,COMMUNITY PARK,Eckhart,0,0,0,0,0,0,2,1,0,0,0,0,0,0,0,0,1,1,0,0,0,1,0,0,0,0,0,0,1,0,0,0,0,0,1,2,0,0,0,0,0,1,0,0,0,0,0,0,0,0,1,1,0,0,0,0,0,1,0,0,0,0,0,0,0,0,"1330 W CHICAGO AVE60622
(41.90318000000002, -87.68408)",41.90318,-87.68408,2.8495614
210,UNION,1501 W RANDOLPH ST,60606.0,13.46,27,COMMUNITY PARK,Union,0,0,0,0,0,0,4,2,0,0,0,0,0,0,0,0,1,1,0,0,0,1,0,0,0,0,0,0,1,0,0,0,2,0,0,3,0,0,1,0,0,1,0,0,0,0,0,0,0,0,1,1,2,0,0,0,0,0,0,0,0,0,0,0,0,0,"1501 W RANDOLPH ST60606
(41.881730000000005, -87.63661000000002)",41.88173,-87.63661,3.6687873
1216,HODES (BARNET),1607 E 73RD ST,60649.0,0.27,5,PASSIVE PARK,Hodes,0,0,0,0,0,0,0,0,0,0,0,0,0,0,0,0,0,0,0,0,0,0,0,0,0,0,0,0,0,0,0,0,0,0,0,0,0,0,0,0,0,0,0,0,0,0,0,0,0,0,0,0,0,0,0,0,0,0,0,0,0,0,0,0,0,0,"1607 E 73RD ST60649
(41.7623353614593, -87.58566752709172)",41.7623354,-87.5856675,0.5196152
2,MCGUANE (JOHN),2901 S POPLAR AVE,60608.0,10.0,11,COMMUNITY PARK,McGuane,0,0,0,0,0,0,4,1,0,0,0,0,3,0,0,0,1,0,0,0,0,1,0,0,0,0,0,0,1,0,0,0,3,0,1,3,0,0,0,0,0,1,0,0,0,0,0,0,0,0,1,1,5,0,0,0,0,0,0,0,0,0,0,0,0,0,"2901 S POPLAR AVE60608
(41.841367010525445, -87.64959693466687)",41.841367,-87.6495969,3.1622777
523,PARK NO. 523,E 87TH ST AT THE LAKE,60617.0,16.56,7,UNIMPROVED PARK,Park No. 523,0,0,0,0,0,0,0,0,0,0,0,0,0,0,0,0,0,0,0,0,0,0,0,0,0,0,0,0,0,0,0,0,0,0,0,0,0,0,0,0,0,0,0,0,0,0,0,0,0,0,0,0,0,0,0,0,0,0,0,0,0,0,0,0,0,0,"E 87TH ST AT THE LAKE60617
(41.712690000000066, -87.55551000000003)",41.71269,-87.55551,4.069398
412,CHURCHILL FIELD,1825 N DAMEN AVE,60614.0,1.13,32,NEIGHBORHOOD PARK,Churchill Field,0,0,0,0,0,0,0,0,0,0,0,0,0,0,0,0,0,0,0,0,1,0,0,0,0,0,0,0,0,0,0,0,0,0,0,1,0,0,0,0,0,0,0,0,0,0,0,0,0,0,0,0,0,0,0,0,0,0,0,0,0,0,0,0,0,0,"1825 N DAMEN AVE60614
(41.92230000000001, -87.65132999999997)",41.9223,-87.65133,1.0630146
1027,DEAN (JOHN),1356 N DEAN ST,60622.0,0.66,32,NEIGHBORHOOD PARK,Dean,0,0,0,0,0,0,0,0,0,0,0,0,0,0,0,0,0,1,0,0,0,0,0,0,0,0,0,0,0,0,0,0,0,0,0,0,0,0,0,0,0,1,0,0,0,0,0,0,0,0,1,0,0,0,0,0,0,0,0,0,0,0,0,0,0,0,"1356 N DEAN ST60622
(41.90715289496749, -87.67091902665061)",41.9071529,-87.670919,0.8124038
219,HUMBOLDT (BARON VON),1400 N HUMBOLDT DR,60622.0,206.09,1,CITYWIDE PARK,Humboldt,0,0,0,1,0,0,8,3,1,0,0,0,0,0,1,0,0,0,0,0,0,1,0,0,2,0,0,0,1,0,0,0,0,0,0,16,0,0,1,0,0,4,0,0,1,0,0,0,0,0,2,1,8,0,0,0,1,0,1,1,0,0,0,0,0,0,"1400 N HUMBOLDT DR60622
(41.906693617480535, -87.7014131186496)",41.9066936,-87.7014131,14.3558351
1277,CLOVER,2210 N SOUTHPORT AVE,60614.0,0.37,32,MINI-PARK,Clover,0,0,0,0,0,0,0,1,0,0,0,0,0,0,0,0,0,0,0,0,0,0,0,0,0,0,0,0,0,0,0,0,0,0,0,0,0,0,0,0,0,0,1,0,0,0,0,0,0,0,0,0,0,0,0,0,0,0,0,0,0,0,0,0,0,0,"2210 N SOUTHPORT AVE60614
(41.9218178051302, -87.6632048189209)",41.9218178,-87.6632048,0.6082763
256,MERRIMAC,6343 W IRVING PARK RD,60634.0,9.11,38,COMMUNITY PARK,Merrimac,0,0,0,0,0,0,0,0,0,0,0,0,0,0,0,0,0,0,0,0,0,0,0,0,0,0,0,0,1,0,0,0,0,0,0,3,0,0,0,0,0,1,0,0,0,0,0,0,0,0,1,0,0,0,0,0,0,0,0,0,0,0,0,0,0,0,"6343 W IRVING PARK RD60634
(41.95287297119249, -87.78515071066339)",41.952873,-87.7851507,3.0182777
17,MANN (JAMES),3035 E 130TH ST,60633.0,20.0,10,REGIONAL PARK,Mann,0,0,0,0,0,0,0,0,0,0,0,0,0,0,0,0,1,0,0,0,0,1,0,0,0,0,0,0,1,0,0,0,0,0,1,6,0,0,0,0,0,1,0,0,0,0,0,0,0,0,1,1,4,0,0,0,0,0,0,0,0,0,0,0,0,0,"3035 E 130TH ST60633
(41.65913187664142, -87.54944580201155)",41.6591319,-87.5494458,4.472136
472,GRANDPARENTS',5445 N CHESTER ST,60656.0,1.79,41,NEIGHBORHOOD PARK,Grandparents',0,0,0,0,0,0,0,0,0,0,0,0,0,0,0,0,0,0,0,0,0,0,0,0,0,0,0,0,0,0,0,0,0,0,0,0,0,0,0,0,0,1,0,0,0,0,0,0,0,0,0,0,0,0,0,0,0,0,0,0,0,0,0,0,0,0,"5445 N CHESTER ST60656
(41.97877262519412, -87.83896855207797)",41.9787726,-87.8389686,1.3379088
1255,BERGER (ALBERT),6227 N SHERIDAN RD,60660.0,3.18,49,NEIGHBORHOOD PARK,Berger,0,0,0,0,0,0,0,0,0,0,0,0,0,0,0,0,0,1,0,1,0,0,0,1,0,0,0,0,0,0,0,0,0,0,0,0,0,0,0,0,0,1,0,0,0,0,0,0,0,0,0,0,0,0,0,0,0,0,0,0,0,0,0,0,0,0,"6227 N SHERIDAN RD60660
(41.99503943484097, -87.65549002266863)",41.9950394,-87.65549,1.7832555
343,ASTER,4639 N KENMORE AVE,60640.0,0.16,46,MINI-PARK,Aster,0,0,0,0,0,0,0,0,0,0,0,0,0,0,0,0,0,0,0,0,0,0,0,0,0,0,0,0,0,0,0,0,0,0,0,0,0,0,0,0,0,0,1,0,0,0,0,0,0,0,0,0,0,0,0,0,0,0,0,0,0,0,0,0,0,0,"4639 N KENMORE AVE60640
(41.96626558405787, -87.65608306077826)",41.9662656,-87.6560831,0.4
389,SNOWBERRY,1855 W HURON ST,60622.0,0.16,27,MINI-PARK,Snowberry,0,0,0,0,0,0,0,0,0,0,0,0,0,0,0,0,0,0,0,0,0,0,0,0,0,0,0,0,0,0,0,0,0,0,0,0,0,0,0,0,0,0,1,0,0,0,0,0,0,0,1,0,0,0,0,0,0,0,0,0,0,0,0,0,0,0,"1855 W HURON ST60622
(41.89410237601356, -87.67344466515509)",41.8941024,-87.6734447,0.4
399,PARK NO. 399,1420 N ARTESIAN AVE,60622.0,0.14,26,MINI-PARK,Park No. 399,0,0,0,0,0,0,0,0,0,0,0,0,0,0,0,0,0,0,0,0,0,0,0,0,0,0,0,0,0,0,0,0,0,0,0,0,0,0,0,0,0,0,1,0,0,0,0,0,0,0,0,0,0,0,0,0,0,0,0,0,0,0,0,0,0,0,"1420 N ARTESIAN AVE60622
(41.907035621425315, -87.68845558574917)",41.9070356,-87.6884556,0.3741657
186,RIVER,5100 N FRANCISCO AVE,60625.0,30.0,33,REGIONAL PARK,River,0,0,0,1,0,0,2,1,0,0,0,0,0,0,0,0,1,0,0,0,1,0,0,0,0,0,0,0,1,0,0,0,0,0,0,1,0,0,1,0,0,2,0,0,1,0,0,0,0,0,0,1,5,1,0,1,0,0,0,0,0,0,0,0,0,0,"5100 N FRANCISCO AVE60625
(41.97397703250807, -87.70134421855703)",41.973977,-87.7013442,5.4772256
541,PRITZKER,301-52 S STATE ST,60604.0,0.88,2,PASSIVE PARK,Pritzker,0,0,0,0,0,0,0,0,0,0,0,0,0,0,0,0,0,0,0,0,0,0,0,0,0,0,0,0,0,0,0,0,0,0,0,0,0,0,0,0,0,0,0,0,0,0,0,0,0,0,0,0,0,0,0,0,0,0,0,0,0,0,0,0,0,0,"301-52 S STATE ST60604
(41.877860000000055, -87.62648000000002)",41.87786,-87.62648,0.9380832
420,COCHRAN (JOHN),5554 N MAGNOLIA AVE,60640.0,0.28,48,MINI-PARK,Cochran,0,0,0,0,0,0,0,0,0,0,0,0,0,0,0,0,0,0,0,0,0,0,0,0,0,0,0,0,0,0,0,0,0,0,0,0,0,0,0,0,0,0,1,0,0,0,0,0,0,0,0,0,0,0,0,0,0,0,0,0,0,0,0,0,0,0,"5554 N MAGNOLIA AVE60640
(41.98278712846933, -87.6612907449271)",41.9827871,-87.6612907,0.5291503
1145,WENDT (KENNETH),667 W ROSCOE ST,60657.0,0.15,44,MINI-PARK,Wendt,0,0,0,0,0,0,0,0,0,0,0,0,0,0,0,0,0,0,0,0,0,0,0,0,0,0,0,0,0,0,0,0,0,0,0,0,0,0,0,0,0,0,1,0,0,0,0,0,0,0,0,0,0,0,0,0,0,0,0,0,0,0,0,0,0,0,"667 W ROSCOE ST60657
(41.94356866736221, -87.64699653193412)",41.9435687,-87.6469965,0.3872983
108,SEWARD (WILLIAM),375 W ELM ST,60610.0,8.64,27,COMMUNITY PARK,Seward,0,0,0,0,0,0,10,5,0,0,0,0,0,0,0,0,0,0,0,0,0,0,0,0,0,0,0,0,1,0,0,0,0,0,0,1,0,0,0,0,0,1,0,0,0,0,0,0,0,0,1,1,0,0,0,0,0,0,0,0,0,0,0,0,0,0,"375 W ELM ST60610
(41.902805456718056, -87.63727635293053)",41.9028055,-87.6372764,2.9393877
1060,MCKIERNAN (DAVID),10714 S SAWYER AVE,60655.0,1.82,19,NEIGHBORHOOD PARK,McKiernan,0,0,0,0,0,0,0,0,0,0,0,0,0,0,0,0,1,0,0,0,0,0,0,0,0,0,0,0,0,0,0,0,0,0,0,2,0,0,0,0,0,1,0,0,0,0,0,0,0,0,1,0,0,0,0,0,0,0,0,0,0,0,0,0,0,0,"10714 S SAWYER AVE60655
(41.69928548141372, -87.70235956062189)",41.6992855,-87.7023596,1.3490738
1119,THUIS (GRACE ZWIEFKA),4800 N LAVERGNE AVE,60630.0,0.3,45,MINI-PARK,Thuis,0,0,0,0,0,0,0,0,0,0,0,0,0,0,0,0,0,0,0,0,0,0,0,0,0,0,0,0,0,0,0,0,0,0,0,0,0,0,0,0,0,1,0,0,0,0,0,0,0,0,0,0,0,0,0,0,0,0,0,0,0,0,0,0,0,0,"4800 N LAVERGNE AVE60630
(41.96800484029402, -87.75265158089198)",41.9680048,-87.7526516,0.5477226
286,WENTWORTH (JOHN) GARDENS,3770 S WENTWORTH AVE,60609.0,2.53,11,COMMUNITY PARK,Wentworth (John) Gardens,0,0,0,0,0,0,2,1,0,0,0,0,0,0,0,0,1,0,0,0,0,0,0,0,0,0,0,0,1,0,0,0,0,0,0,1,0,0,1,0,0,1,0,0,0,0,0,0,0,0,0,0,0,0,0,0,0,0,0,0,0,0,0,0,0,0,"3770 S WENTWORTH AVE60609
(41.82603372296957, -87.63143277940938)",41.8260337,-87.6314328,1.5905974
353,HORNBEAM,1422 S HAMLIN AVE,60623.0,0.31,2,MINI-PARK,Hornbeam,0,0,0,0,0,0,0,0,0,0,0,0,0,0,0,0,0,0,0,0,0,0,0,0,0,0,0,0,0,0,0,0,0,0,0,0,0,0,0,0,0,0,1,0,0,0,0,0,0,0,1,0,0,0,0,0,0,0,0,0,0,0,0,0,0,0,"1422 S HAMLIN AVE60623
(41.861782536834085, -87.72023918320704)",41.8617825,-87.7202392,0.5567764
107,LAKE SHORE,254 E CHICAGO AVE,60611.0,3.69,42,NEIGHBORHOOD PARK,Lake Shore,0,0,0,0,0,0,0,0,0,0,0,0,0,0,0,0,0,1,0,0,0,1,0,0,0,0,0,0,1,0,0,0,0,0,0,2,0,0,0,0,0,1,0,0,0,0,0,0,0,0,0,0,2,1,0,0,0,0,0,0,0,0,0,0,0,0,"254 E CHICAGO AVE60611
(41.89684863138387, -87.62118802533182)",41.8968486,-87.621188,1.9209373
1128,MILLER (SAMUEL),848 S MILLER ST,60607.0,0.11,1,MINI-PARK,Miller,0,0,0,0,0,0,0,0,0,0,0,0,0,0,0,0,0,0,0,0,0,0,0,0,0,0,0,0,0,0,0,0,0,0,0,0,0,0,0,0,0,0,1,0,0,0,0,0,0,0,0,0,0,0,0,0,0,0,0,0,0,0,0,0,0,0,"848 S MILLER ST60607
(41.871246999438455, -87.6523458753321)",41.871247,-87.6523459,0.3316625
1287,PINE,9507 S OGLESBY AVE,60617.0,0.24,10,MINI-PARK,Pine,0,0,0,0,0,0,0,0,0,0,0,0,0,0,0,0,0,0,0,0,0,0,0,0,0,0,0,0,0,0,0,0,0,0,0,0,0,0,0,0,0,0,1,0,0,0,0,0,0,0,0,0,0,0,0,0,0,0,0,0,0,0,0,0,0,0,"9507 S OGLESBY AVE60617
(41.72250721680952, -87.56581048478019)",41.7225072,-87.5658105,0.4898979
305,LE CLAIRE COURTS - HEARST COMM. CTR,5116 W 44TH ST,60638.0,12.33,12,COMMUNITY PARK,Le Claire Courts - Hearst Comm. Ctr,0,0,0,0,0,0,4,1,0,0,0,0,0,0,0,0,2,0,0,0,0,0,0,0,0,0,0,0,1,0,0,0,0,0,0,2,0,0,0,0,0,1,0,0,0,0,0,0,0,0,0,0,2,0,0,0,0,0,0,0,0,0,0,0,0,0,"5116 W 44TH ST60638
(41.81305484511148, -87.75137721322997)",41.8130548,-87.7513772,3.51141
1080,WESOLEK (MARLENE),13407 S AVENUE M,60633.0,0.34,10,MINI-PARK,Wesolek,0,0,0,0,0,0,0,0,0,0,0,0,0,0,0,0,0,0,0,0,0,0,0,0,0,0,0,0,0,0,0,0,0,0,0,0,0,0,0,0,0,1,0,0,0,0,0,0,0,0,0,0,0,0,0,0,0,0,0,0,0,0,0,0,0,0,"13407 S AVENUE M60633
(41.651672686192434, -87.53736736304144)",41.6516727,-87.5373674,0.5830952
109,STANTON (EDWIN),640 W SCOTT ST,60610.0,6.51,42,COMMUNITY PARK,Stanton,0,0,0,0,0,0,6,3,0,0,0,0,0,0,0,0,1,0,0,0,0,0,0,0,0,0,0,0,1,0,0,0,0,0,0,1,0,0,0,0,0,1,0,0,0,0,0,0,0,0,1,1,0,0,0,0,0,0,0,0,0,0,0,0,0,0,"640 W SCOTT ST60610
(41.90509309756561, -87.64425300173957)",41.9050931,-87.644253,2.5514702
145,WILSON (FRANK),4630 N MILWAUKEE AVE,60630.0,8.81,45,COMMUNITY PARK,Wilson (Frank),0,0,0,0,0,0,4,1,0,0,0,0,0,0,0,0,1,0,0,0,0,0,0,0,0,0,0,0,0,0,0,0,0,0,0,2,0,0,0,0,0,1,0,0,1,0,0,0,0,0,0,0,4,0,0,1,0,0,0,0,0,0,0,0,0,0,"4630 N MILWAUKEE AVE60630
(41.96471787044065, -87.75809563327728)",41.9647179,-87.7580956,2.9681644
1115,KENMORE,3141 N KENMORE AVE,60657.0,0.14,44,MINI-PARK,Kenmore,0,0,0,0,0,0,0,0,0,0,0,0,0,0,0,0,0,0,0,0,0,0,0,0,0,0,0,0,0,0,0,0,0,0,0,0,0,0,0,0,0,0,1,0,0,0,0,0,0,0,0,0,0,0,0,0,0,0,0,0,0,0,0,0,0,0,"3141 N KENMORE AVE60657
(41.93879115124966, -87.6551360669911)",41.9387912,-87.6551361,0.3741657
386,JACKSON (MAHALIA),8385 S BIRKHOFF AVE,60620.0,4.44,21,COMMUNITY PARK,Jackson (Mahalia),0,0,0,0,0,0,8,2,0,0,0,0,0,0,0,0,0,0,0,0,0,0,0,0,0,0,0,0,1,0,0,0,0,0,0,2,0,0,0,0,0,0,0,0,0,0,0,0,0,0,0,0,2,0,0,0,0,0,0,0,0,0,0,0,0,0,"8385 S BIRKHOFF AVE60620
(41.741708338927644, -87.6387042410351)",41.7417083,-87.6387042,2.1071308
1224,ADDAMS (JANE) MEML.,485 E OHIO ST,60611.0,4.51,42,PASSIVE PARK,Addams (Jane) Memorial,0,0,0,0,0,0,0,0,0,0,0,0,0,0,0,0,0,0,0,0,0,0,0,0,0,0,0,0,0,0,0,0,0,0,0,0,0,0,0,0,0,0,0,0,0,0,0,0,0,0,0,0,0,0,0,0,0,0,0,0,0,0,0,0,0,0,"485 E OHIO ST60611
(41.89260113949592, -87.61633395212125)",41.8926011,-87.616334,2.1236761
501,PARSONS (LUCY),4701 W BELMONT AVE,60641.0,0.3,30,UNIMPROVED PARK,Parsons,0,0,0,0,0,0,0,0,0,0,0,0,0,0,0,0,0,0,0,0,0,0,0,0,0,0,0,0,0,0,0,0,0,0,0,0,0,0,0,0,0,0,1,0,0,0,0,0,0,0,1,0,0,0,0,0,0,0,0,0,0,0,0,0,0,0,"4701 W BELMONT AVE60641
(41.938851147111166, -87.74457258302749)",41.9388511,-87.7445726,0.5477226
1008,HERMITAGE,5839 S WOOD ST,60636.0,3.95,15,NEIGHBORHOOD PARK,Hermitage,0,0,0,0,0,0,2,1,0,0,0,0,0,0,0,0,1,0,0,0,0,0,0,0,0,0,0,0,0,0,0,0,0,0,0,1,0,0,0,0,0,1,0,0,0,0,0,0,0,0,1,0,0,0,1,0,0,0,0,0,0,0,0,0,0,0,"5839 S WOOD ST60636
(41.78782388465688, -87.66919966130989)",41.7878239,-87.6691997,1.9874607
502,CANAL ORIGINS,2701 S ASHLAND AVE,60608.0,2.66,11,PASSIVE PARK,Canal Origins,0,0,0,0,0,0,0,0,0,0,0,0,0,0,0,0,0,0,0,0,0,0,0,0,0,0,0,0,0,0,0,0,0,0,0,0,0,0,0,0,0,0,0,0,0,0,0,0,0,0,0,0,0,0,0,0,0,0,0,0,0,0,0,0,0,0,"2701 S ASHLAND AVE60608
(41.844876700385974, -87.66580388535768)",41.8448767,-87.6658039,1.6309506
1102,GLADYS (GUNDERSON),3307 W GLADYS AVE,60624.0,0.29,28,MINI-PARK,Gladys,0,0,0,0,0,0,2,1,0,0,0,0,0,0,0,0,0,0,0,0,0,0,0,0,0,0,0,0,0,0,0,0,0,0,0,0,0,0,0,0,0,1,0,0,0,0,0,0,0,0,1,0,0,0,0,0,0,0,0,0,0,0,0,0,0,0,"3307 W GLADYS AVE60624
(41.87615925641151, -87.7086798973381)",41.8761593,-87.7086799,0.5385165
328,BEEHIVE,6156 S DORCHESTER AVE,60637.0,0.11,5,MINI-PARK,Beehive,0,0,0,0,0,0,0,0,0,0,0,0,0,0,0,0,0,0,0,0,0,0,0,0,0,0,0,0,0,0,0,0,0,0,0,0,0,0,0,0,0,0,1,0,0,0,0,0,0,0,0,0,0,0,0,0,0,0,0,0,0,0,0,0,0,0,"6156 S DORCHESTER AVE60637
(41.7826928699435, -87.59139106177679)",41.7826929,-87.5913911,0.3316625
146,CHOPIN (FREDERIC),3420 N LONG AVE,60641.0,8.29,38,COMMUNITY PARK,Chopin,0,0,0,0,0,0,4,1,0,0,0,0,0,0,0,0,1,0,0,0,0,0,0,0,0,0,0,0,0,0,0,0,4,0,0,3,0,0,0,0,0,1,0,0,1,0,0,0,0,0,1,1,4,0,0,0,0,0,0,0,0,0,0,0,0,0,"3420 N LONG AVE60641
(41.94266495937265, -87.76179260459307)",41.942665,-87.7617926,2.879236
267,DUNBAR (PAUL LAURENCE),200 E 31ST ST,60616.0,20.76,2,REGIONAL PARK,Dunbar,0,0,0,0,0,0,8,4,0,0,0,0,0,0,0,0,2,0,0,0,0,0,0,0,0,0,0,0,0,0,0,0,0,0,0,2,0,0,0,0,0,2,0,0,0,0,0,0,0,0,0,2,6,1,0,0,0,0,0,0,0,0,0,0,0,0,"200 E 31ST ST60616
(41.838433980091146, -87.62185872413626)",41.838434,-87.6218587,4.5563143
430,SWEET CLOVER,650 N LEAMINGTON AVE,60644.0,0.13,37,MINI-PARK,Sweet Clover,0,0,0,0,0,0,0,0,0,0,0,0,0,0,0,0,0,0,0,0,0,0,0,0,0,0,0,0,0,0,0,0,0,0,0,0,0,0,0,0,0,0,1,0,0,0,0,0,0,0,0,0,0,0,0,0,0,0,0,0,0,0,0,0,0,0,"650 N LEAMINGTON AVE60644
(41.892172828784155, -87.75433258110104)",41.8921728,-87.7543326,0.3605551
464,QUINN (MARY),6239 N MCCLELLAN AVE,60646.0,0.76,41,PASSIVE PARK,Quinn,0,0,0,0,0,0,0,0,0,0,0,0,0,0,0,0,0,0,0,0,0,0,0,0,0,0,0,0,0,0,0,0,0,0,0,0,0,0,0,0,0,0,0,0,0,0,0,0,0,0,0,0,0,0,0,0,0,0,0,0,0,0,0,0,0,0,"6239 N MCCLELLAN AVE60646
(41.995040779551374, -87.77085244329055)",41.9950408,-87.7708524,0.8717798
455,SENIOR CITIZENS MEML.,2238 N OAKLEY AVE,60647.0,0.91,32,PASSIVE PARK,Senior Citizens Meml.,0,0,0,0,0,0,0,0,0,0,0,0,0,0,0,0,0,0,0,0,0,0,0,0,0,0,0,0,0,0,0,0,0,0,0,0,0,0,0,0,0,0,0,0,0,0,1,0,0,0,0,0,0,0,0,0,0,0,0,0,0,0,0,0,0,0,"2238 N OAKLEY AVE60647
(41.92274415577011, -87.68519460358583)",41.9227442,-87.6851946,0.9539392
61,BROOKS (OSCAR),7046 N HARLEM AVE,60631.0,8.79,41,COMMUNITY PARK,Brooks (Oscar),0,0,0,0,0,0,0,0,0,0,0,0,0,0,0,0,1,0,0,0,0,1,0,0,0,0,0,0,1,0,0,0,3,0,0,2,0,0,0,0,0,1,0,0,0,0,0,0,0,0,1,0,2,0,0,0,0,0,0,0,0,0,0,0,0,0,"7046 N HARLEM AVE60631
(42.00926431907137, -87.80674833549057)",42.0092643,-87.8067483,2.9647934
1090,KORCZAK (JANUSZ),6156 N CLAREMONT AVE,60659.0,0.2,50,MINI-PARK,Korczak,0,0,0,0,0,0,0,0,0,0,0,0,0,0,0,0,0,0,0,0,0,0,0,0,0,0,0,0,0,0,0,0,0,0,0,0,0,0,0,0,0,0,1,0,0,0,0,0,0,0,0,0,0,0,0,0,0,0,0,0,0,0,0,0,0,0,"6156 N CLAREMONT AVE60659
(41.99330384144543, -87.68860420242433)",41.9933038,-87.6886042,0.4472136
1279,CEDAR,5315 N WINTHROP AVE,60640.0,0.34,48,MINI-PARK,Cedar,0,0,0,0,0,0,0,0,0,0,0,0,0,0,0,0,0,0,0,0,0,0,0,0,0,0,0,0,0,0,0,0,0,0,0,0,0,0,0,0,0,0,1,0,0,0,0,0,0,0,1,0,0,0,0,0,0,0,0,0,0,0,0,0,0,0,"5315 N WINTHROP AVE60640
(41.97847278263771, -87.65770822373352)",41.9784728,-87.6577082,0.5830952
1054,NORMANDY,6660 W 52ND ST,60638.0,2.46,23,NEIGHBORHOOD PARK,Normandy,0,0,0,0,0,0,2,1,0,0,0,0,0,0,0,0,1,0,0,0,0,0,0,0,0,0,0,0,0,0,0,0,0,0,0,1,0,0,0,0,0,1,0,0,0,0,0,0,0,0,0,0,0,0,1,0,0,0,0,0,0,0,0,0,0,0,"6660 W 52ND ST60638
(41.7978126064176, -87.78856016543482)",41.7978126,-87.7885602,1.5684387
1209,CHAMBERLAIN TRIANGLE,4233 S GREENWOOD AVE,60653.0,0.09,4,PASSIVE PARK,Chamberlain Triangle,0,0,0,0,0,0,0,0,0,0,0,0,0,0,0,0,0,0,0,0,0,0,0,0,0,0,0,0,0,0,0,0,0,0,0,0,0,0,0,0,0,0,0,0,0,0,0,0,0,0,0,0,0,0,0,0,0,0,0,0,0,0,0,0,0,0,"4233 S GREENWOOD AVE60653
(41.817378592813895, -87.59932159336516)",41.8173786,-87.5993216,0.3
1204,AUSTIN (HENRY),5951 W LAKE ST,60644.0,5.48,29,COMMUNITY PARK,Austin,0,0,0,0,0,0,0,0,0,0,0,0,0,0,0,0,0,0,0,0,0,0,0,0,0,0,0,0,0,0,0,0,0,0,0,0,0,0,0,0,0,1,0,0,0,0,0,0,0,0,1,0,0,0,0,1,0,0,0,0,0,0,0,0,0,0,"5951 W LAKE ST60644
(41.88792967782139, -87.77347306103921)",41.8879297,-87.7734731,2.34094
1113,JEFFERSON (THOMAS),1640 S JEFFERSON ST,60616.0,1.87,25,NEIGHBORHOOD PARK,Jefferson (Thomas),0,0,0,0,0,0,0,0,0,0,0,0,0,0,0,0,0,0,0,0,0,0,0,0,0,0,0,0,0,0,0,0,0,0,0,0,0,0,0,0,0,1,0,0,0,0,0,0,0,0,0,0,0,0,0,0,0,0,0,0,0,0,0,0,0,0,"1640 S JEFFERSON ST60616
(41.85877551362228, -87.64187900050172)",41.8587755,-87.641879,1.3674794
1067,VETERANS' MEMORIAL,2820 E 98TH ST,60617.0,3.87,10,NEIGHBORHOOD PARK,Veterans' Memorial,0,0,0,0,0,0,0,0,0,0,0,0,1,0,0,0,1,0,0,0,0,0,0,0,0,0,0,0,0,0,0,0,0,0,0,4,0,0,0,0,0,1,0,0,0,0,0,0,0,1,1,0,0,0,0,0,0,0,0,0,0,0,0,0,0,0,"2820 E 98TH ST60617
(41.71733100831278, -87.55564215675622)",41.717331,-87.5556422,1.9672316
393,WALSH (JOHN),1722 N ASHLAND AVE,60614.0,1.91,32,NEIGHBORHOOD PARK,Walsh,0,0,0,0,0,0,0,0,0,0,0,0,0,0,0,0,0,0,0,0,1,0,0,0,0,0,0,0,0,0,0,0,0,0,0,0,0,0,0,0,0,1,0,0,0,0,0,0,0,0,0,0,0,0,0,0,0,0,0,0,0,0,0,0,0,0,"1722 N ASHLAND AVE60614
(41.92230000000001, -87.65132999999997)",41.9223,-87.65133,1.3820275
507,COLISEUM,1466 S WABASH AV,60605.0,0.66,0,NEIGHBORHOOD PARK,Coliseum,0,0,0,0,0,0,0,0,0,0,0,0,0,0,0,0,0,0,0,0,1,0,0,0,0,0,0,0,0,0,0,0,0,0,0,0,0,0,0,0,0,0,0,0,0,0,0,0,0,0,0,0,0,0,0,0,0,0,0,0,0,0,0,0,0,0,"1466 S WABASH AV60605
(41.862242718216685, -87.62575866268054)",41.8622427,-87.6257587,0.8124038
323,POPLAR,4046 S PRAIRIE AVE,60653.0,0.25,2,MINI-PARK,Poplar,0,0,0,0,0,0,0,0,0,0,0,0,0,0,0,0,0,0,0,0,0,0,0,0,0,0,0,0,0,0,0,0,0,0,0,0,0,0,0,0,0,0,1,0,0,0,0,0,0,0,1,0,0,0,0,0,0,0,0,0,0,0,0,0,0,0,"4046 S PRAIRIE AVE60653
(41.82115532723568, -87.61997631949077)",41.8211553,-87.6199763,0.5
506,WASHINGTON (HAROLD) MEM.,7710 N PAULINA ST,60626.0,0.17,49,MINI-PARK,Washington (Harold) Mem.,0,0,0,0,0,0,0,0,0,0,0,0,0,0,0,0,0,0,0,0,0,0,0,0,0,0,0,0,0,0,0,0,0,0,0,0,0,0,0,0,0,0,1,0,0,0,0,0,0,0,0,0,0,0,0,0,0,0,0,0,0,0,0,0,0,0,"7710 N PAULINA ST60626
(42.02133789566889, -87.67313787987369)",42.0213379,-87.6731379,0.4123106
1014,SHERWOOD (JESSE),5705 S SHIELDS AVE,60621.0,6.2,3,COMMUNITY PARK,Sherwood,0,0,0,0,0,0,2,1,0,0,0,0,0,0,0,0,1,0,0,0,0,1,0,0,0,0,0,0,1,0,0,0,0,0,0,2,0,0,0,0,0,1,0,0,1,0,0,0,0,0,1,0,0,0,0,0,0,0,0,0,0,0,0,0,0,0,"5705 S SHIELDS AVE60621
(41.776039999999966, -87.63983999999999)",41.77604,-87.63984,2.4899799
1244,WASHINGTON SQUARE,901 N CLARK ST,60610.0,2.38,42,PASSIVE PARK,Washington Square,0,0,0,0,0,0,0,0,0,0,0,0,0,0,0,0,0,0,0,0,0,0,0,0,0,0,0,0,0,0,0,0,0,0,0,0,0,0,0,0,0,0,0,0,0,0,0,0,0,0,0,0,0,0,0,0,0,0,0,0,0,0,0,0,0,0,"901 N CLARK ST60610
(41.89982596081518, -87.63124785542169)",41.899826,-87.6312479,1.5427249
237,OWENS (JESSE),2100 E 88TH ST,60617.0,17.23,8,COMMUNITY PARK,Owens,0,0,0,0,0,0,2,1,0,0,0,0,0,0,0,0,1,0,0,0,0,0,0,0,0,0,0,0,1,0,0,0,0,0,0,3,0,0,0,0,0,1,0,0,0,0,0,0,0,0,1,1,6,0,0,0,0,0,0,0,0,0,0,0,0,0,"2100 E 88TH ST60617
(41.73529174772874, -87.5731838747965)",41.7352917,-87.5731839,4.1509035
1256,HOWARD (URE) BEACH,1300 W HOWARD ST,60626.0,0.89,49,NEIGHBORHOOD PARK,Howard Beach,0,0,0,0,0,0,0,0,1,0,0,0,0,0,0,0,0,0,0,0,0,0,0,0,0,0,0,0,0,0,0,0,0,0,0,0,0,0,0,0,0,1,0,0,0,0,0,0,0,0,0,0,0,0,0,0,0,0,0,0,0,0,0,0,0,0,"1300 W HOWARD ST60626
(42.01933233897205, -87.66405025628663)",42.0193323,-87.6640503,0.9433981
295,BARAGA (FREDERICK),2440 S LEAVITT ST,60608.0,0.42,25,MINI-PARK,Baraga,0,0,0,0,0,0,2,1,0,0,0,0,0,0,0,0,0,0,0,0,0,0,0,0,0,0,0,0,0,0,0,0,0,0,0,0,0,0,0,0,0,0,1,0,0,0,0,0,0,0,0,0,0,0,0,0,0,0,0,0,0,0,0,0,0,0,"2440 S LEAVITT ST60608
(41.84742602384284, -87.68068031053545)",41.847426,-87.6806803,0.6480741
212,SHEDD (JOHN G.),3660 W 23RD ST,60623.0,1.13,22,COMMUNITY PARK,Shedd,0,0,0,0,0,0,3,1,0,0,0,0,0,0,0,0,0,0,0,0,0,0,0,0,0,0,0,0,1,0,0,0,0,0,0,0,0,0,0,0,0,1,0,0,0,0,0,0,0,0,1,0,0,0,0,0,0,0,0,0,0,0,0,0,0,0,"3660 W 23RD ST60623
(41.849875033450495, -87.71669788114704)",41.849875,-87.7166979,1.0630146
203,HOLSTEIN,2200 N OAKLEY AVE,60647.0,2.74,32,COMMUNITY PARK,Holstein,0,0,0,0,0,0,0,0,0,0,0,0,0,0,0,0,0,0,0,0,0,0,0,0,0,0,0,0,2,0,0,0,0,0,0,0,0,0,1,0,0,1,0,0,0,0,0,0,0,0,1,1,0,0,0,0,0,0,0,0,0,0,0,0,0,0,"2200 N OAKLEY AVE60647
(41.92191056515937, -87.685561589187)",41.9219106,-87.6855616,1.6552945
555,SAUGANASH TRAIL,4400 W DEVON AVE,60626.0,11.34,39,PASSIVE PARK,Sauganash Trail,0,0,0,0,0,0,0,0,0,0,0,0,0,0,0,0,0,0,0,0,0,0,0,0,0,0,0,0,0,0,0,0,0,0,0,0,0,0,0,0,0,0,0,0,0,0,0,0,0,0,0,0,0,0,0,0,0,0,0,0,0,0,0,0,0,0,"4400 W DEVON AVE60626
(42.00988000000007, -87.66939999999994)",42.00988,-87.6694,3.3674916
503,PARK NO. 503,8900 S GREEN BAY AVE,60617.0,12.74,7,UNIMPROVED PARK,Park No. 503,0,0,0,0,0,0,0,0,0,0,0,0,0,0,0,0,0,0,0,0,0,0,0,0,0,0,0,0,0,0,0,0,0,0,0,0,0,0,0,0,0,0,0,0,0,0,0,0,0,0,0,0,0,0,0,0,0,0,0,0,0,0,0,0,0,0,"8900 S GREEN BAY AVE60617
(41.733697805787244, -87.54156862135358)",41.7336978,-87.5415686,3.5693137
1205,BARNARD (ERASTUS),10441 S LONGWOOD DR,60643.0,1.97,19,NEIGHBORHOOD PARK,Barnard,0,0,0,0,0,0,0,0,0,0,0,0,0,0,0,0,0,0,0,0,0,0,0,0,0,0,0,0,0,0,0,0,0,0,0,0,0,0,0,0,0,1,0,0,0,0,0,0,0,0,0,0,0,0,0,0,0,0,0,0,0,0,0,0,0,0,"10441 S LONGWOOD DR60643
(41.70401615267819, -87.67071877217369)",41.7040162,-87.6707188,1.4035669
1070,WASHTENAW,2521 S WASHTENAW AVE,60608.0,0.83,25,NEIGHBORHOOD PARK,Washtenaw,0,0,0,0,0,0,0,0,0,0,0,0,0,0,0,0,0,0,0,0,0,0,0,0,0,0,0,0,0,0,0,0,0,0,0,1,0,0,0,0,0,1,0,0,0,0,0,0,0,0,1,0,0,0,0,0,0,0,0,0,0,0,0,0,0,0,"2521 S WASHTENAW AVE60608
(41.84586200508689, -87.69275648329338)",41.845862,-87.6927565,0.9110434
1045,MAPLEWOOD,1640 N MAPLEWOOD AVE,60647.0,1.11,26,NEIGHBORHOOD PARK,Maplewood,0,0,0,0,0,0,2,1,0,0,0,0,0,0,0,0,0,1,0,0,0,0,0,0,0,0,0,0,0,0,0,0,0,0,0,1,0,0,0,0,0,1,0,0,0,0,0,0,0,0,1,0,0,0,0,0,0,0,0,0,0,0,0,0,0,0,"1640 N MAPLEWOOD AVE60647
(41.911035639225574, -87.69098958587165)",41.9110356,-87.6909896,1.0535654
29,AVALON,1215 E 83RD ST,60619.0,27.84,8,REGIONAL PARK,Avalon,0,0,0,0,0,0,4,1,0,0,0,0,0,0,0,0,2,0,0,0,0,1,0,0,0,0,0,0,1,0,0,0,0,0,0,6,0,0,1,0,0,1,0,0,0,0,0,0,0,0,1,1,6,1,0,0,0,0,0,0,0,0,0,0,0,0,"1215 E 83RD ST60619
(41.74403864622289, -87.59470764780757)",41.7440386,-87.5947076,5.2763624
375,PRIVET,1844 N SHEFFIELD AVE,60614.0,0.09,43,MINI-PARK,Privet,0,0,0,0,0,0,0,0,0,0,0,0,0,0,0,0,0,0,0,0,0,0,0,0,0,0,0,0,0,0,0,0,0,0,0,0,0,0,0,0,0,0,1,0,0,0,0,0,0,0,0,0,0,0,0,0,0,0,0,0,0,0,0,0,0,0,"1844 N SHEFFIELD AVE60614
(41.91495886137757, -87.65332285475117)",41.9149589,-87.6533229,0.3
1138,OHIO & HARDING,607 N HARDING AVE,60624.0,0.42,37,MINI-PARK,Ohio & Harding,0,0,0,0,0,0,2,1,0,0,0,0,0,0,0,0,0,0,0,0,0,0,0,0,0,0,0,0,0,0,0,0,0,0,0,0,0,0,0,0,0,0,1,0,0,0,0,0,0,0,0,0,0,0,0,0,0,0,0,0,0,0,0,0,0,0,"607 N HARDING AVE60624
(41.89183162048633, -87.7246748037752)",41.8918316,-87.7246748,0.6480741
1024,BOSLEY (WILLIAM),3044 S BONFIELD ST,60608.0,1.94,11,NEIGHBORHOOD PARK,Bosley,0,0,0,0,0,0,2,1,0,0,0,0,0,0,0,0,1,0,0,0,0,0,0,0,0,0,0,0,0,0,0,0,3,0,0,1,0,0,0,0,0,1,0,0,0,0,0,0,0,0,1,0,0,0,0,0,0,0,0,0,0,0,0,0,0,0,"3044 S BONFIELD ST60608
(41.83926916304291, -87.65366844119069)",41.8392692,-87.6536684,1.3928388
120,KOSCIUSZKO (THADEUZ),2732 N AVERS AVE,60647.0,8.06,35,COMMUNITY PARK,Kosciuszko,0,0,0,1,0,0,2,1,0,0,0,0,0,0,0,0,1,0,0,0,0,0,0,0,0,0,0,0,1,0,0,0,0,0,1,4,0,0,0,0,0,1,0,0,0,0,0,0,0,0,1,0,1,0,0,0,0,0,0,0,0,0,0,0,0,0,"2732 N AVERS AVE60647
(41.93064292938927, -87.72331905919202)",41.9306429,-87.7233191,2.8390139
1020,ANDERSON (LOUIS),3748 S PRAIRIE AVE,60653.0,0.86,2,COMMUNITY PARK,Anderson,0,0,0,0,0,0,8,2,0,0,0,0,0,0,0,0,0,0,0,0,0,0,0,0,0,0,0,0,1,0,0,0,0,0,0,0,0,0,0,0,0,1,0,0,0,0,0,0,0,0,1,0,0,0,0,0,0,0,0,0,0,0,0,0,0,0,"3748 S PRAIRIE AVE60653
(41.826934302334955, -87.62050848158908)",41.8269343,-87.6205085,0.9273618
320,ROBICHAUX (JOSEPH),9247 S EGGLESTON AVE,60620.0,13.3,21,COMMUNITY PARK,Robichaux,0,0,0,0,0,0,8,2,0,0,0,0,0,0,0,0,0,0,0,0,0,0,0,0,0,0,0,0,1,0,0,0,0,0,0,2,0,0,0,0,0,1,0,0,0,0,0,0,0,0,1,0,2,0,0,0,0,0,0,0,0,0,0,0,0,0,"9247 S EGGLESTON AVE60620
(41.72618870310857, -87.63477018516284)",41.7261887,-87.6347702,3.6469165
1210,DIXON (LORRAINE),8931 S DAUPHIN AVE,60619.0,5.31,8,PASSIVE PARK,Dixon,0,0,0,0,0,0,0,0,0,0,0,0,0,0,0,0,0,0,0,0,0,0,0,0,0,0,0,0,0,0,0,0,0,0,0,0,0,0,0,0,0,1,0,0,0,0,0,0,0,0,0,0,0,0,0,0,0,0,0,0,0,0,0,0,0,0,"8931 S DAUPHIN AVE60619
(41.73244386404232, -87.60207299959605)",41.7324439,-87.602073,2.3043437
147,PORTAGE,4100 N LONG AVE,60641.0,36.48,38,REGIONAL PARK,Portage,0,0,0,0,0,0,0,0,0,0,0,0,0,0,0,0,2,0,0,0,0,0,0,0,1,0,0,0,1,0,0,0,0,0,1,4,0,0,1,0,0,1,0,0,0,1,0,0,0,1,0,1,6,0,0,1,1,0,0,0,0,0,0,0,0,0,"4100 N LONG AVE60641
(41.95506808167233, -87.7621920751551)",41.9550681,-87.7621921,6.0398675
372,CATALPA,4330 S KEDVALE AVE,60632.0,0.43,12,MINI-PARK,Catalpa,0,0,0,0,0,0,0,0,0,0,0,0,0,0,0,0,0,0,0,0,0,0,0,0,0,0,0,0,0,0,0,0,0,0,0,0,0,0,0,0,0,0,1,0,0,0,0,0,0,0,1,0,0,0,0,0,0,0,0,0,0,0,0,0,0,0,"4330 S KEDVALE AVE60632
(41.814561547659395, -87.72756310795309)",41.8145615,-87.7275631,0.6557439
400,CLAREMONT,2342 W FLOURNOY ST,60612.0,0.98,27,NEIGHBORHOOD PARK,Claremont,0,0,0,0,0,0,0,0,0,0,0,0,0,0,0,0,0,0,0,0,0,0,0,0,0,0,0,0,0,0,0,0,0,0,0,0,0,0,0,0,0,1,0,0,0,0,0,0,0,0,0,0,0,0,0,0,0,0,0,0,0,0,0,0,0,0,"2342 W FLOURNOY ST60612
(41.87308397236991, -87.68506647949592)",41.873084,-87.6850665,0.9899495
274,LEGION,3100 W BRYN MAWR AVE,60659.0,49.15,39,REGIONAL PARK,Legion,0,0,0,0,0,0,4,2,0,0,0,0,0,0,0,0,2,0,0,0,0,0,0,0,0,0,0,0,0,0,0,0,0,0,0,2,0,0,0,0,0,4,0,0,0,0,0,0,0,1,0,0,2,0,0,0,0,0,0,0,0,0,0,0,0,0,"3100 W BRYN MAWR AVE60659
(41.98314723555949, -87.70701937698654)",41.9831472,-87.7070194,7.0107061
419,PARK NO. 419,8001 S WABASH AVE,60619.0,0.13,6,UNIMPROVED PARK,Park No. 419,0,0,0,0,0,0,0,0,0,0,0,0,0,0,0,0,0,0,0,0,0,0,0,0,0,0,0,0,0,0,0,0,0,0,0,0,0,0,0,0,0,0,0,0,0,0,0,0,0,0,0,0,0,0,0,0,0,0,0,0,0,0,0,0,0,0,"8001 S WABASH AVE60619
(41.749094195403984, -87.62286472600692)",41.7490942,-87.6228647,0.3605551
262,ADDAMS (JANE),1301 W 14TH ST,60608.0,13.44,1,REGIONAL PARK,Addams (Jane),0,0,0,0,0,0,2,1,0,0,0,0,0,0,0,0,2,0,0,0,0,0,0,0,0,0,0,0,0,0,0,0,0,0,0,0,0,0,0,0,0,0,0,0,0,0,0,0,0,0,1,0,0,0,0,0,0,0,0,0,0,0,0,0,0,0,"1301 W 14TH ST60608
(41.863333409473384, -87.65908337975732)",41.8633334,-87.6590834,3.6660606
339,BUCKTHORN,4347 S CALUMET AVE,60653.0,0.21,3,MINI-PARK,Buckthorn,0,0,0,0,0,0,2,1,0,0,0,0,0,0,0,0,0,0,0,0,0,0,0,0,0,0,0,0,0,0,0,0,0,0,0,0,0,0,0,0,0,1,0,0,0,0,0,0,0,0,0,0,0,0,0,0,0,0,0,0,0,0,0,0,0,0,"4347 S CALUMET AVE60653
(41.81576481654484, -87.61823525450735)",41.8157648,-87.6182353,0.4582576
549,LOGAN SQUARE SKATE PARK,2430 W LOGAN BLVD,60647.0,1.61,35,NEIGHBORHOOD PARK,Logan Square Skate Park,0,0,0,0,0,0,0,0,0,0,0,0,0,0,0,0,0,0,0,0,0,0,0,0,0,0,0,0,0,0,0,0,0,0,0,0,0,0,0,0,0,0,0,0,0,0,0,1,0,0,0,0,0,0,0,0,0,0,0,0,0,0,0,0,0,0,"2430 W LOGAN BLVD60647
(41.92858175299534, -87.6903045158381)",41.9285818,-87.6903045,1.2688578
551,PARK NO. 551,353 N DES PLAINES ST,60661.0,1.02,42,NEIGHBORHOOD PARK,Park No. 551,0,0,0,0,0,0,0,0,0,0,0,0,0,0,0,0,0,0,0,0,1,0,0,0,0,0,0,0,0,0,0,0,0,0,0,0,0,0,0,0,0,1,0,0,0,0,0,0,0,0,0,0,0,0,0,0,0,0,0,0,0,0,0,0,0,0,"353 N DES PLAINES ST60661
(41.887986664897596, -87.64419755533602)",41.8879867,-87.6441976,1.0099505
258,DUNHAM (ROBERT),4640 N MELVINA AVE,60630.0,14.0,38,COMMUNITY PARK,Dunham,0,0,0,0,0,0,0,0,0,0,0,0,0,0,0,0,0,0,0,0,0,1,0,0,0,0,0,0,1,0,0,0,0,0,0,5,0,0,0,0,0,1,0,0,0,0,0,0,0,0,1,1,2,0,0,0,0,0,0,0,0,0,0,0,0,0,"4640 N MELVINA AVE60630
(41.965486014732136, -87.78205497599659)",41.965486,-87.782055,3.7416574
15,GRAND CROSSING,7655 S INGLESIDE AVE,60619.0,18.9,6,REGIONAL PARK,Grand Crossing,0,0,0,0,0,0,4,1,0,0,0,0,0,0,0,0,1,0,0,0,0,1,0,0,0,0,0,0,2,0,0,0,0,0,0,3,0,0,1,0,0,1,0,0,0,0,0,0,0,0,1,1,6,1,0,0,0,0,0,0,0,0,0,0,0,0,"7655 S INGLESIDE AVE60619
(41.75576118612808, -87.60157757899319)",41.7557612,-87.6015776,4.347413
547,BATTLE OF FORT DEARBORN,1801 S CALUMET AVE,60616.0,0.46,2,PASSIVE PARK,Battle of Fort Dearborn,0,0,0,0,0,0,0,0,0,0,0,0,0,0,0,0,0,0,0,0,0,0,0,0,0,0,0,0,0,0,0,0,0,0,0,0,0,0,0,0,0,0,0,0,0,0,0,0,0,0,0,0,0,0,0,0,0,0,0,0,0,0,0,0,0,0,"1801 S CALUMET AVE60616
(41.85780983048518, -87.6195048622005)",41.8578098,-87.6195049,0.678233
1087,CENTRAL,721 N CENTRAL PARK AVE,60624.0,0.2,27,MINI-PARK,Central,0,0,0,0,0,0,0,0,0,0,0,0,0,0,0,0,0,0,0,0,0,0,0,0,0,0,0,0,0,0,0,0,0,0,0,0,0,0,0,0,0,0,1,0,0,0,0,0,0,0,0,0,0,0,0,0,0,0,0,0,0,0,0,0,0,0,"721 N CENTRAL PARK AVE60624
(41.89404898571467, -87.71618727055008)",41.894049,-87.7161873,0.4472136
1199,ADAMS (JOHN C.),7535 S DOBSON AVE,60619.0,0.82,9,PASSIVE PARK,Adams (John C.),0,0,0,0,0,0,0,0,0,0,0,0,0,0,0,0,0,0,0,0,0,0,0,0,0,0,0,0,0,0,0,0,0,0,0,0,0,0,0,0,0,0,0,0,0,0,0,0,0,0,0,0,0,0,0,0,0,0,0,0,0,0,0,0,0,0,"7535 S DOBSON AVE60619
(41.75757054053217, -87.59920409585648)",41.7575705,-87.5992041,0.9055385
1019,ADAMS (GEORGE & ADELE),1919 N SEMINARY AVE,60614.0,0.66,43,NEIGHBORHOOD PARK,Adams (George & Adele),0,0,0,0,0,0,0,0,0,0,0,0,0,0,0,0,0,0,0,0,0,0,0,0,0,0,0,0,0,0,0,0,0,0,0,0,0,0,0,0,0,1,0,0,0,0,0,0,0,0,0,0,0,0,0,1,0,0,0,0,0,0,0,0,0,0,"1919 N SEMINARY AVE60614
(41.91656504308353, -87.65524387525684)",41.916565,-87.6552439,0.8124038
100,LINCOLN (ABRAHAM),200 W FULLERTON PKWY,60614.0,1212.15,0,MAGNET PARK,Lincoln,0,1,1,4,0,0,6,2,6,1,1,3,0,0,1,1,8,0,1,0,3,1,0,0,1,1,1,1,1,0,0,0,0,0,0,15,0,0,0,0,0,10,0,1,0,0,0,1,0,1,1,0,30,0,0,0,0,0,0,3,0,0,0,0,0,0,"200 W FULLERTON PKWY60614
(41.92230000000001, -87.65132999999997)",41.9223,-87.65133,34.8159446
263,LAKE MEADOWS,3113 S RHODES AVE,60616.0,10.11,2,COMMUNITY PARK,Lake Meadows,0,0,0,0,0,0,4,2,0,0,0,0,0,0,0,0,1,0,0,0,0,0,0,0,0,0,0,0,0,0,0,0,0,0,0,1,0,0,0,0,0,1,0,0,0,0,0,0,0,0,0,0,0,0,0,0,0,0,0,0,0,0,0,0,0,0,"3113 S RHODES AVE60616
(41.83814874007337, -87.61334446983203)",41.8381487,-87.6133445,3.1796226
278,"HOUSTON (JESSIE ""MA"")",5001 S COTTAGE GROVE AVE,60615.0,3.93,4,NEIGHBORHOOD PARK,Houston,0,0,0,0,0,0,4,2,0,0,0,0,0,0,0,0,0,0,0,0,0,0,0,0,0,0,0,0,0,0,0,0,0,0,0,0,0,0,0,0,0,1,0,0,0,0,0,0,0,0,0,0,0,0,0,0,0,0,0,0,0,0,0,0,0,0,"5001 S COTTAGE GROVE AVE60615
(41.804051738092696, -87.60636239949014)",41.8040517,-87.6063624,1.9824228
394,MALUS,5426 S SHIELDS AVE,60609.0,0.58,3,NEIGHBORHOOD PARK,Malus,0,0,0,0,0,0,0,0,0,0,0,0,0,0,0,0,0,0,0,0,0,0,0,0,0,0,0,0,0,0,0,0,0,0,0,0,0,0,0,0,0,0,1,0,0,0,0,0,0,0,0,0,0,0,0,0,0,0,0,0,0,0,0,0,0,0,"5426 S SHIELDS AVE60609
(41.79553912964914, -87.63431303057952)",41.7955391,-87.634313,0.7615773
289,BROWN (SIDNEY) MEML.,644 E 86TH ST,60619.0,6.8,6,COMMUNITY PARK,Brown Memorial,0,0,0,0,0,0,4,1,0,0,0,0,0,0,0,0,0,0,0,0,0,0,0,0,0,0,0,0,0,0,0,0,0,0,0,2,0,0,0,0,0,1,0,0,0,0,0,0,0,0,1,0,2,0,0,0,0,0,0,0,0,0,0,0,0,0,"644 E 86TH ST60619
(41.738452014520156, -87.60920305068292)",41.738452,-87.6092031,2.607681
188,GREEN BRIAR,2650 W PETERSON AVE,60659.0,3.33,40,COMMUNITY PARK,Green Briar,0,0,0,0,0,0,2,1,0,0,0,0,0,0,0,0,0,0,0,0,0,0,0,0,0,0,0,0,1,0,0,0,0,0,0,2,0,0,0,0,0,1,0,0,0,0,0,0,0,0,1,0,1,0,0,0,0,0,0,0,0,0,0,0,0,0,"2650 W PETERSON AVE60659
(41.99052241279075, -87.69604639463594)",41.9905224,-87.6960464,1.8248288
515,PARK NO. 515,3517 W ARTHINGTON ST,60624.0,5.18,24,COMMUNITY PARK,Park No. 515,0,0,0,0,0,0,0,0,0,0,0,0,0,0,0,0,0,0,0,0,0,1,0,0,0,0,0,0,1,0,0,0,0,0,1,0,0,0,0,0,0,1,0,0,0,0,0,0,0,0,0,0,0,0,0,0,0,0,0,0,0,0,0,0,0,0,"3517 W ARTHINGTON ST60624
(41.86993378760654, -87.7120557108498)",41.8699338,-87.7120557,2.2759613
1225,HARRIS (RYAN) MEMORIAL,6701 S LOWE AVE,60621.0,2.72,0,NEIGHBORHOOD PARK,Harris (Ryan) Memorial,0,0,0,0,0,0,0,0,0,0,0,0,0,0,0,0,0,0,0,0,0,0,0,0,0,0,0,0,0,0,0,0,0,0,0,0,0,0,0,0,0,1,0,0,0,0,0,0,0,0,1,0,0,0,0,0,0,0,0,0,0,0,0,0,0,0,"6701 S LOWE AVE60621
(41.772477043983464, -87.64022134917452)",41.772477,-87.6402213,1.6492423
11,CALUMET,9801 S AVENUE G,60617.0,198.98,10,CITYWIDE PARK,Calumet,0,0,0,1,0,0,4,1,2,0,0,90,0,0,0,0,4,0,0,0,0,1,0,0,0,0,0,0,1,1,0,0,1,0,0,8,0,0,0,0,0,1,0,0,0,0,0,0,0,0,0,3,16,1,0,0,0,0,0,0,0,0,0,0,0,0,"9801 S AVENUE G60617
(41.71779644508562, -87.53153189359543)",41.7177964,-87.5315319,14.1060271
340,BOSWELL (ARNITA YOUNG),6646 S UNIVERSITY AVE,60637.0,0.29,20,MINI-PARK,Boswell,0,0,0,0,0,0,0,0,0,0,0,0,0,0,0,0,0,0,0,0,0,0,0,0,0,0,0,0,0,0,0,0,0,0,0,0,0,0,0,0,0,0,1,0,0,0,0,0,0,0,0,0,0,0,0,0,0,0,0,0,0,0,0,0,0,0,"6646 S UNIVERSITY AVE60637
(41.77417318914402, -87.59856650711382)",41.7741732,-87.5985665,0.5385165
287,COOPER (JACK),1332 W 117TH ST,60643.0,4.35,34,NEIGHBORHOOD PARK,Cooper,0,0,0,0,0,0,4,1,0,0,0,0,0,0,0,0,0,0,0,0,0,0,0,0,0,0,0,0,0,0,0,0,0,0,0,2,0,0,0,0,0,1,0,0,0,0,0,0,0,0,0,0,2,0,1,0,0,0,0,0,0,0,0,0,0,0,"1332 W 117TH ST60643
(41.68131211289568, -87.65549271225042)",41.6813121,-87.6554927,2.0856654
1127,MILLARD (ALDEN),1331 S MILLARD AVE,60623.0,0.14,24,MINI-PARK,Millard,0,0,0,0,0,0,2,1,0,0,0,0,0,0,0,0,0,0,0,0,0,0,0,0,0,0,0,0,0,0,0,0,0,0,0,0,0,0,0,0,0,0,1,0,0,0,0,0,0,0,0,0,0,0,0,0,0,0,0,0,0,0,0,0,0,0,"1331 S MILLARD AVE60623
(41.86392829094587, -87.71647126178505)",41.8639283,-87.7164713,0.3741657
387,HOARD (EDISON),7221 S DOBSON AVE,60619.0,2.5,6,NEIGHBORHOOD PARK,Hoard,0,0,0,0,0,0,4,2,0,0,0,0,0,0,0,0,0,0,0,0,0,0,0,0,0,0,0,0,0,0,0,0,0,0,0,1,0,0,0,0,0,1,0,0,0,0,0,0,0,0,1,0,0,0,0,0,0,0,0,0,0,0,0,0,0,0,"7221 S DOBSON AVE60619
(41.76370369690935, -87.59934053704187)",41.7637037,-87.5993405,1.5811388
527,PARK NO. 527,6200 S LaSALLE ST,60621.0,5.22,20,UNIMPROVED PARK,Park No. 527,0,0,0,0,0,0,0,0,0,0,0,0,0,0,0,0,0,0,0,0,0,0,0,0,0,0,0,0,0,0,0,0,0,0,0,0,0,0,0,0,0,0,0,0,0,0,0,0,0,0,0,0,0,0,0,0,0,0,0,0,0,0,0,0,0,0,"6200 S LaSALLE ST60621
(41.781655397968834, -87.62898329995863)",41.7816554,-87.6289833,2.2847319
290,SOUTH LAKEVIEW,1300 W WOLFRAM ST,60657.0,0.68,44,NEIGHBORHOOD PARK,South Lakeview,0,0,0,0,0,0,4,1,0,0,0,0,0,0,0,0,0,0,0,0,0,0,0,0,0,0,0,0,0,0,0,0,0,0,0,0,0,0,0,0,0,1,0,0,0,0,0,0,0,0,0,0,0,0,0,0,0,0,0,0,0,0,0,0,0,0,"1300 W WOLFRAM ST60657
(41.93343782128256, -87.6614948892306)",41.9334378,-87.6614949,0.8246211
209,COLUMBUS (CHRISTOPHER),500 S CENTRAL AVE,60644.0,135.12,29,CITYWIDE PARK,Columbus,0,0,0,0,0,0,6,3,0,0,0,0,0,0,1,0,4,0,0,0,0,1,0,0,1,1,0,0,1,0,0,0,0,0,0,3,0,0,1,0,0,2,0,0,0,0,0,0,0,0,1,2,6,0,0,0,0,0,0,1,0,0,0,0,0,0,"500 S CENTRAL AVE60644
(41.87377153168896, -87.76470840188162)",41.8737715,-87.7647084,11.6241129
50,ALMOND,2234 W 115TH ST,60643.0,0.2,19,PASSIVE PARK,Almond,0,0,0,0,0,0,0,0,0,0,0,0,0,0,0,0,0,0,0,0,0,0,0,0,0,0,0,0,0,0,0,0,0,0,0,0,0,0,0,0,0,0,0,0,0,0,0,0,0,0,0,0,0,0,0,0,0,0,0,0,0,0,0,0,0,0,"2234 W 115TH ST60643
(41.68430219223602, -87.67808956145417)",41.6843022,-87.6780896,0.4472136
1017,TREBES,2250 N CLIFTON AVE,60614.0,1.57,43,COMMUNITY PARK,Trebes,0,0,0,0,0,0,1,1,0,0,0,0,0,0,0,0,0,1,0,0,0,0,0,0,0,0,0,0,1,0,0,0,0,0,0,1,0,0,0,0,0,1,0,0,0,0,0,0,0,0,0,0,0,0,0,0,0,0,0,0,0,0,0,0,0,0,"2250 N CLIFTON AVE60614
(41.9225691399609, -87.65720992483739)",41.9225691,-87.6572099,1.2529964
433,NEIGHBORS' GARDEN,2533 N SACRAMENTO AVE,60647.0,0.14,35,MINI-PARK,Neighbors' Garden,0,0,0,0,0,0,0,0,0,0,0,0,0,0,0,0,0,0,0,0,0,0,0,0,0,0,0,0,0,0,0,0,0,0,0,0,0,0,0,0,0,0,0,0,0,0,0,0,0,0,0,0,0,0,0,0,0,0,0,0,0,0,0,0,0,0,"2533 N SACRAMENTO AVE60647
(41.92720085480701, -87.70228735364569)",41.9272009,-87.7022874,0.3741657
1006,COMMERCIAL CLUB PGD. of CHICAGO,1845 W RICE ST,60622.0,1.35,32,COMMUNITY PARK,Commercial Club Pgd. of Chicago,0,0,0,0,0,0,2,1,0,0,0,0,0,0,0,0,1,0,0,0,0,0,0,0,0,0,0,0,1,0,0,0,0,0,0,1,0,0,0,0,0,1,0,0,0,0,0,0,0,0,1,0,0,0,0,0,0,0,0,0,0,0,0,0,0,0,"1845 W RICE ST60622
(41.89684062830077, -87.6732900968898)",41.8968406,-87.6732901,1.161895
273,LERNER (LEO),7000 N SACRAMENTO AVE,60645.0,8.39,50,COMMUNITY PARK,Lerner,0,0,0,0,0,0,0,2,0,0,0,0,0,0,0,0,0,0,0,0,0,0,0,0,0,0,0,0,0,0,0,0,0,0,0,0,0,0,0,0,0,1,0,0,0,0,0,0,0,0,0,0,2,0,0,0,0,0,0,0,0,0,0,0,0,0,"7000 N SACRAMENTO AVE60645
(42.00837893806736, -87.7045723032337)",42.0083789,-87.7045723,2.8965497
1284,MULBERRY,3150 S ROBINSON CT,60608.0,0.56,11,NEIGHBORHOOD PARK,Mulberry,0,0,0,0,0,0,0,0,0,0,0,0,0,0,0,0,0,0,0,0,0,0,0,0,0,0,0,0,0,0,0,0,0,0,0,0,0,0,0,0,0,0,1,0,0,0,0,0,0,0,1,0,0,0,0,0,0,0,0,0,0,0,0,0,0,0,"3150 S ROBINSON CT60608
(41.8363757954521, -87.6664257202354)",41.8363758,-87.6664257,0.7483315
405,DEBOW (RUSSELL),1126 E 80TH ST,60619.0,0.55,8,NEIGHBORHOOD PARK,Debow,0,0,0,0,0,0,0,0,0,0,0,0,0,0,0,0,0,0,0,0,0,0,0,0,0,0,0,0,0,0,0,0,0,0,0,0,0,0,0,0,0,1,0,0,0,0,0,0,0,0,0,0,0,0,0,0,0,0,0,0,0,0,0,0,0,0,"1126 E 80TH ST60619
(41.74958541811261, -87.5962940973076)",41.7495854,-87.5962941,0.7416198
355,NINEBARK,1447-1453 S HARDING AVE,60623.0,0.22,24,MINI-PARK,Ninebark,0,0,0,0,0,0,0,0,0,0,0,0,0,0,0,0,0,0,0,0,0,0,0,0,0,0,0,0,0,0,0,0,0,0,0,0,0,0,0,0,0,0,1,0,0,0,0,0,0,0,1,0,0,0,0,0,0,0,0,0,0,0,0,0,0,0,"1447-1453 S HARDING AVE60623
(41.846230000000105, -87.71839999999997)",41.84623,-87.7184,0.4690416
1155,SINTIC (GREGORY),2835 S WALLACE ST,60616.0,0.14,11,MINI-PARK,Sintic,0,0,0,0,0,0,0,0,0,0,0,0,0,0,0,0,0,0,0,0,0,0,0,0,0,0,0,0,0,0,0,0,0,0,0,0,0,0,0,0,0,0,1,0,0,0,0,0,0,0,0,0,0,0,0,0,0,0,0,0,0,0,0,0,0,0,"2835 S WALLACE ST60616
(41.84291834655948, -87.64143591839438)",41.8429183,-87.6414359,0.3741657
178,HURLEY (TIMOTHY),1901 W 100TH ST,60643.0,1.21,19,NEIGHBORHOOD PARK,Hurley,0,0,0,0,0,0,0,0,0,0,0,0,0,0,0,0,0,0,0,0,0,0,0,0,0,0,0,0,0,0,0,0,0,0,0,0,0,0,0,0,0,1,0,0,0,0,0,0,0,0,0,0,0,0,0,0,0,0,0,0,0,0,0,0,0,0,"1901 W 100TH ST60643
(41.71198599832957, -87.66892191011289)",41.711986,-87.6689219,1.1
